{"type":"Topology","arcs":[[[29907,8694],[16,28],[12,2],[70,-44],[10,-9],[1,-8],[-22,-38],[-87,69]],[[20166,24572],[-2,54],[60,-2],[0,-53],[-58,1]],[[30254,9060],[44,-29],[-1,-7],[-50,-79],[-42,23],[49,92]],[[13836,30177],[50,5],[5,-8],[0,-74],[-49,-6],[-6,83]],[[20019,21024],[58,41],[30,-41],[-52,-45],[-36,45]],[[20314,21981],[29,16],[33,-46],[-30,-24],[-32,54]],[[21602,20511],[37,41],[11,-1],[44,-49],[-42,-44],[-50,53]],[[19879,25985],[33,0],[5,-6],[16,-128],[-3,-11],[-23,0],[-25,106],[-11,33],[8,6]],[[19862,20845],[76,60],[33,-46],[-81,-58],[-28,44]],[[20002,25738],[36,9],[5,-6],[5,-57],[-7,-10],[-20,-3],[-11,12],[-8,55]],[[21883,13626],[72,5],[9,-52],[-73,-3],[-8,50]],[[14544,14834],[-24,37],[-126,227],[-181,326],[5,32],[32,6],[45,1],[23,29],[31,64],[63,95],[91,94],[157,138],[139,116],[52,5],[54,-4],[36,-19],[31,-24],[37,-14],[61,-19],[48,-16],[49,-24],[54,-42],[26,-32],[35,-78],[1,-33],[-11,-59],[-25,-50],[-36,-56],[-49,-40],[-50,-11],[-101,-7],[-49,-18],[-36,-7],[-35,-17],[-14,-22],[13,-31],[28,-7],[37,0],[52,-1],[58,-18],[31,-20],[21,-25],[13,-21]],[[15130,15289],[-121,-107],[-465,-348]],[[22024,13651],[46,0],[-2,-49],[-41,-1],[-3,50]],[[13641,11994],[85,87],[99,148],[68,76],[31,78],[237,102],[61,63],[235,75],[196,-17],[128,-46],[68,-1],[79,-40],[-96,-78],[-283,-323],[-150,-26],[-137,-51],[-76,-33],[-151,-129],[-79,-94],[-42,-99],[0,-37],[-46,70],[9,61],[-236,214]],[[14001,15756],[-12,-28],[-394,-208],[-47,-18]],[[13548,15502],[-185,90],[-2,197],[-9,85],[-14,187],[-40,147],[-29,148],[-4,55],[2,30],[91,6],[83,5],[68,2],[73,-7],[38,-13],[27,-27],[88,-161],[143,-258],[116,-207],[7,-25]],[[15130,15289],[310,259],[201,140],[112,84],[91,-52],[59,-35],[25,-22],[7,-14],[-18,-31],[-245,-226],[-117,-90],[-17,-14],[-2,-18],[57,-61],[97,-91],[31,-42],[16,-39],[-14,-22],[-52,-22],[-98,-80],[-40,-31],[-14,-51],[2,-48],[18,-43],[6,-26],[-5,-21],[-32,-12],[-85,-23],[-115,-35],[-58,-11],[-37,-1],[-26,1],[-123,4],[-100,-5],[-52,2],[-40,10],[-116,57],[-113,71],[-73,52],[-26,31]],[[13192,13244],[55,33],[131,-58],[128,26],[49,-18],[24,-43],[2,-109],[-27,-24],[16,-16],[0,-106],[5,-55],[18,-91],[-28,-154],[-38,-91],[-112,-30],[-292,-13],[-406,-21],[-300,-1],[-16,79],[47,127],[52,94],[-29,76],[49,27],[71,26],[122,-22],[63,33],[137,63],[117,2],[77,100],[85,166]],[[12357,18893],[8,-46],[8,-45],[-6,-196],[6,-414],[-2,-378],[7,-250],[-114,14],[-54,5],[-40,0],[-69,119],[-21,28],[-32,0],[-49,96],[-61,37],[-69,27],[-41,-18],[-21,-77],[-95,-95],[-37,0],[-64,119],[-53,110],[0,68],[-28,37],[-16,109],[5,73],[-41,96],[-48,50],[-53,73],[-45,46],[1,87],[28,59],[42,36],[-12,59],[78,90],[33,0],[107,168],[95,118],[45,13],[61,31],[57,-9],[66,40],[73,-73],[-21,-68],[4,-50],[8,-59],[61,-64],[139,8],[160,26]],[[12998,18802],[13,8],[18,-4],[19,4],[25,17],[23,8],[17,-19],[16,-13],[27,-1],[20,2],[29,-1],[21,-15],[12,-9],[24,0],[44,0],[27,2],[24,-9],[65,-12],[63,-17],[39,-8],[11,-22],[-3,-40],[-1,-166],[-7,-148]],[[13524,18359],[-10,-90],[-4,-300],[-5,-103],[5,-123],[4,-194],[5,-124]],[[13519,17425],[-3,-153],[-5,-197],[2,-130],[3,-209],[10,-67],[19,-88],[-5,-20],[-11,-16],[-39,21],[-107,45],[-85,24],[-57,10],[-54,18],[-96,18],[-48,18],[-36,18]],[[13007,16717],[11,442],[3,532],[-6,545]],[[13015,18236],[-7,161],[-2,246],[-8,159]],[[12382,18369],[56,-5],[83,-21],[143,-37],[151,-38],[96,-18],[66,-4],[38,-10]],[[13007,16717],[-69,60],[-40,114],[-37,46],[-106,32],[-48,105],[-45,105],[-69,124],[-24,41],[-16,86],[-81,97],[-82,37],[-3,218],[2,323],[-7,246],[0,18]],[[14375,19549],[17,-5],[6,-24],[-4,-328],[-2,-94],[-17,-611],[-2,-90]],[[14373,18397],[-17,19],[-20,18],[-18,24],[-8,26],[-2,34],[-5,26],[11,19],[6,43],[-8,40],[-42,7],[-21,-22],[-13,-26],[5,-37],[21,-54],[14,-52],[12,-65],[-36,-3],[-34,5],[-41,27],[-53,47],[-21,45],[-21,11],[-16,33],[-17,43],[-20,34]],[[14029,18639],[-9,45],[-15,48],[7,32],[23,25],[5,32],[-19,32],[-25,46],[-7,75]],[[13989,18974],[22,23],[20,39],[11,38],[-15,47],[-64,33],[-15,5]],[[13948,19159],[-14,40],[-4,59],[-4,31],[-1,37],[15,27],[11,22],[-9,29],[2,51],[28,21],[54,50],[38,42],[11,32],[-4,49],[0,52],[-27,16],[-7,33],[35,0],[27,11],[22,22],[3,19],[23,14],[23,-16],[-3,-24],[-5,-6],[30,-13],[48,8],[28,2]],[[14268,19767],[-16,-56],[-4,-52],[15,-72],[17,-42],[27,-17],[51,1],[11,19],[6,1]],[[13631,15382],[89,-219],[61,-147],[119,-271],[72,-164],[13,-20],[13,-9]],[[13998,14552],[14,-36],[0,-48],[-19,-39],[-33,-27],[-72,-29],[-162,-23],[-108,-21],[-63,-3],[-30,13],[-34,33],[-61,57],[-63,43],[-64,31],[-56,22],[-42,0],[-165,-49],[-41,-39],[-124,-154],[-21,-7],[-23,9],[-17,39],[-28,66],[-9,80],[14,162],[7,86],[20,71],[60,52],[130,97],[65,57],[24,29],[20,31],[28,29],[26,18],[44,9],[75,39],[125,83],[50,61],[57,60],[40,22],[69,6]],[[12961,11660],[303,152],[108,52],[27,1],[13,-38],[16,-56],[24,-46],[35,-44],[16,-21],[123,-160],[43,-73],[25,-38],[31,-21],[31,-16],[19,-13],[102,-129],[49,-79],[41,-91],[57,-117],[-5,-15],[-118,-104],[-56,-19],[-42,-8],[-40,-1],[-61,-8],[-88,-18],[-58,-2],[-45,-9],[-59,-23],[-57,-11],[-45,1],[-64,25],[-52,28],[-36,3],[-44,-2],[-31,-9],[-42,-7],[-53,3],[-44,4],[-64,1],[-83,2],[-52,-7],[-68,-11],[-106,-42],[-67,-35],[-52,-33],[-58,-50],[-35,-49],[-39,-74],[-58,-90],[-24,-20],[-34,-5],[-35,0],[-18,14],[-7,30],[-35,47],[-63,57],[-77,97],[-20,40],[14,39],[40,79],[39,56],[18,68],[-7,40],[-26,38],[-27,47],[-33,43],[-41,53],[-41,51],[-49,96],[-8,38],[20,36],[41,5],[63,-3],[52,2],[65,-1],[46,4],[92,9],[48,17],[70,14],[51,11],[65,29],[65,43],[51,38],[51,31],[45,31],[59,35],[88,46],[121,42]],[[9214,8878],[7,-29],[8,-100],[-5,-24],[-9,-20],[-29,-22],[-63,-29],[-169,-72],[-30,-10],[-32,-5],[-86,40],[-12,13],[-21,23],[-64,42],[-30,24],[-20,22],[-11,42],[-19,97],[-10,157],[-2,30],[-16,30],[-49,58],[-59,71],[-42,49],[-36,22],[-22,26],[-1,27],[24,29],[38,22],[28,5],[29,19],[26,24],[35,26],[12,28],[17,35],[35,11],[61,-3],[63,-15],[40,-27],[44,-36],[30,-44],[31,-39],[34,-21],[11,-7],[55,-57],[71,-55],[41,-30],[32,-30],[39,-45],[15,-43],[11,-209]],[[6284,5636],[-14,-71],[-18,-37],[-21,-10],[-19,27],[-67,50],[-11,15],[7,9],[27,33],[13,36],[-2,27],[-31,27],[-38,23],[9,60],[8,65],[1,81],[1,52],[42,214],[24,136],[23,49],[41,48],[17,13],[11,18],[5,34],[0,70],[-1,129],[-10,39],[-17,39],[-11,34],[15,125],[0,91],[9,25],[20,15],[5,17],[-11,22],[-11,24],[-7,44],[4,119],[6,56],[25,50],[22,41],[30,44],[57,66],[34,38],[29,-7],[231,-123],[0,-30],[-5,-36],[-12,-21],[-27,-27],[-23,-21],[-21,-27],[-19,-39],[-4,-22],[-2,-31],[3,-23],[14,10],[17,49],[39,32],[22,20],[44,14],[52,4],[73,4],[78,-24],[94,-33],[45,-37],[36,11],[31,10],[56,-79],[55,-134],[26,-61],[26,-69],[52,-152],[16,-62],[33,-106],[32,-104],[16,-73],[0,-170],[7,-153],[18,-67],[12,-48],[2,-37],[-17,-29],[-95,-38],[-43,23],[-40,54],[-45,66],[-35,95],[-16,71],[4,81],[7,179],[-6,49],[-33,27],[-135,98],[-37,18],[-50,-17],[-40,-33],[-37,-45],[-20,-58],[-31,-91],[-28,-88],[-38,-60],[-53,-66],[-41,-44],[-31,-60],[-30,-46],[-9,-48],[-11,-57],[-8,-29],[-14,-17],[-91,-31],[-59,-32],[-46,-25],[-33,-38],[-35,-49],[-15,-55],[-2,-30]],[[18574,19770],[126,-37],[154,-35],[97,-26],[96,-20],[-66,-71],[-79,-139],[-90,-120],[-38,-73],[-45,-82],[-29,-68],[-63,-57],[-40,-40],[-58,-83],[-104,-71],[-103,-84],[-109,-75],[-116,-80],[-146,-93],[-68,-45],[-92,0],[-91,69],[-95,117],[-12,30],[25,54],[110,59],[78,65],[34,39],[105,63],[28,43],[41,55],[44,51],[28,62],[25,118],[33,48],[87,93],[91,101],[103,109],[99,96],[40,27]],[[16231,11988],[-137,240],[-41,68],[-24,38],[19,45],[70,55],[52,44],[179,108],[127,79],[196,152],[89,67],[38,15],[59,-9],[46,-43],[38,-74],[126,-208],[99,-171],[3,-28],[-40,-102],[-9,-33],[-10,-62],[-16,-136],[-7,-48],[-20,-37],[-28,-11],[-62,-28],[-42,-48],[-17,-19],[-20,-12],[-46,-3],[-36,11],[-34,3],[-10,-27],[14,-22],[8,-10],[-17,-39],[-17,-37],[-11,-34],[5,-31],[22,-47],[35,-54],[5,-21],[3,-32],[-17,-32],[-41,-21],[-54,-15],[-81,-20],[-34,-4],[-20,21],[-136,229],[-167,275],[-39,68]],[[15794,18031],[-39,-30],[-65,-53],[-57,-26],[-215,-148],[-126,-89],[-124,-82],[-97,-67],[-175,-109],[-47,-31],[-198,-121],[-337,-234],[-258,-180],[-181,-127],[-252,-170],[-17,-19],[-6,-12]],[[13600,16533],[-19,4],[-5,6],[-18,38],[-15,65],[-14,85],[-5,53],[2,152],[1,117],[2,185],[-2,161],[3,30],[6,27],[41,84],[51,103],[74,121],[81,91],[69,77],[23,21],[21,4],[50,-21],[72,-39],[41,-25],[18,3],[5,19],[8,18],[17,-6],[20,49],[12,36],[90,-30],[62,-22],[37,-12],[22,0],[31,-13],[12,-14],[21,-21],[16,-41],[-1,-32],[27,-55],[13,-14],[36,-15],[21,-25],[24,15],[28,10],[18,2],[23,-8],[8,-36],[24,0],[33,11],[21,17],[78,9],[78,21],[70,11],[55,18],[52,23],[49,15],[48,-4],[55,-10],[64,-34],[29,-4],[40,9],[46,25],[16,23],[23,37],[28,35],[30,15],[46,8],[53,16],[39,23],[62,40],[68,62],[33,22],[13,-23],[14,-14]],[[13904,17714],[-4,-18],[2,-26],[23,-18],[21,2],[27,16],[15,25],[11,8],[25,13],[5,27],[-12,34],[-31,6],[-38,20],[-32,-21],[-10,-38],[-2,-30]],[[16479,15420],[-47,-56],[-29,2],[-52,68],[-173,197],[-47,-55],[-162,126],[-28,30],[-23,55],[2,62],[17,39],[51,40],[38,20],[36,-1],[39,19],[71,56],[57,47],[37,17],[42,-8],[24,-60],[102,-284],[15,-54],[41,-98],[34,-84],[2,-20],[-3,-17],[-44,-41]],[[12382,18369],[-3,201],[2,218],[41,50],[102,-1],[94,-5],[57,18],[156,-29],[167,-19]],[[14565,12667],[-25,16],[-18,24],[-9,28],[4,36],[20,45],[29,44],[27,41],[39,50],[31,83],[48,40],[34,62],[28,45],[36,31],[48,25],[42,13],[30,-26],[36,-94],[71,-153],[30,-101],[7,-32],[-2,-31],[-26,-61],[-40,-93],[-15,-23],[-20,-8],[-42,0],[-45,3],[-80,14],[-56,3],[-53,15],[-41,6],[-36,-6],[-23,2],[-29,2]],[[13524,18359],[14,-44],[27,-9],[13,-32],[32,-115],[30,-24],[28,-26],[34,-16],[22,-12],[25,11],[17,25],[24,6],[26,25],[15,10],[31,0],[28,-18],[28,-31],[15,-26],[-31,-58],[-18,-35],[-22,-24],[-92,-105],[-100,-120],[-50,-77],[-43,-79],[-43,-99],[-15,-61]],[[11382,13199],[132,78],[169,53],[205,63],[215,62],[202,59],[167,60],[175,184],[44,39],[140,90],[-6,-58],[-102,-154],[54,-76],[-131,-123],[-38,27],[-120,-69],[-208,-68],[-101,-12],[-115,-75],[-147,-50],[-58,9],[-188,-29],[-120,19],[-92,-23],[-77,-6]],[[16115,14537],[-91,-41],[-120,-20],[-75,18],[-75,44],[-82,54],[-21,31],[-3,26],[8,27],[57,21],[34,16],[59,39],[76,40],[110,45],[133,49],[61,25],[27,-5],[16,-35],[32,-136],[6,-52],[-4,-39],[-20,-34],[-55,-37],[-73,-36]],[[21531,19234],[76,29],[14,-9],[46,-87],[-71,-28],[-65,95]],[[21331,20268],[51,49],[13,-2],[61,-52],[3,-12],[-72,-71],[-57,72],[1,16]],[[23545,12668],[90,57],[10,-5],[31,-62],[-84,-51],[-19,4],[-28,57]],[[22834,17413],[97,99],[59,-75],[49,43],[25,-44],[-84,-92],[-50,59],[-47,-44],[-49,54]],[[24594,12638],[111,-46],[-39,-75],[-24,-28],[-24,-4],[-22,4],[-17,15],[-11,18],[-4,48],[-1,22],[31,46]],[[21256,19831],[17,22],[25,-4],[79,-22],[9,-12],[-32,-49],[-98,65]],[[19678,25523],[90,82],[13,1],[82,-118],[-59,-51],[-32,56],[-57,-28],[-37,58]],[[21569,20643],[59,79],[14,-2],[48,-54],[-71,-73],[-50,50]],[[22723,16569],[73,54],[10,0],[55,-119],[-1,-9],[-90,-43],[-47,117]],[[21141,13764],[63,-3],[7,-8],[-5,-85],[10,-9],[14,-3],[-9,-91],[-3,-22],[-12,-9],[-65,-2],[-7,12],[7,220]],[[24269,12593],[36,65],[78,-56],[14,-17],[15,-15],[1,-46],[-27,-7],[-23,15],[-94,61]],[[23686,15639],[30,3],[34,5],[39,17],[48,18],[36,-75],[1,-10],[-10,-7],[-67,2],[-41,3],[-37,2],[-23,-4],[-17,9],[-5,21],[0,11],[12,5]],[[22384,20070],[27,74],[9,3],[98,-66],[-66,-64],[-68,53]],[[26278,12249],[196,159],[52,-60],[-126,-99],[-15,23],[-77,-64],[-30,41]],[[23196,13892],[76,61],[14,-11],[18,14],[12,-19],[26,-38],[-96,-73],[-8,2],[-42,64]],[[30003,8596],[62,-45],[4,-11],[-57,-94],[-74,49],[0,13],[52,86],[13,2]],[[22634,13763],[61,15],[54,17],[10,-6],[4,-57],[1,-38],[-19,-2],[-40,-6],[-10,-9],[-14,-7],[-28,-4],[-9,11],[-10,86]],[[15172,33259],[74,56],[101,-151],[-74,-55],[-101,150]],[[20539,22027],[11,6],[97,52],[15,-8],[42,-56],[-1,-8],[-106,-59],[-58,73]],[[20455,21756],[50,41],[19,10],[44,-68],[-56,-44],[-12,-3],[-45,64]],[[14043,30113],[49,1],[3,-7],[48,-48],[-1,-12],[-11,-7],[-55,-4],[-66,-1],[32,49],[1,29]],[[20705,21356],[-10,9],[30,19],[11,-4],[60,-109],[-46,-35],[-41,70],[16,8],[-20,42]],[[23382,17373],[-26,51],[9,12],[27,26],[46,24],[26,-64],[-82,-49]],[[14597,33637],[-52,44],[-87,67],[-15,17],[-154,172],[42,44],[156,-170],[134,-111],[218,-180],[-39,-57],[-203,174]],[[15829,14981],[32,-25],[15,-23],[11,-27],[3,-20],[-1,-28],[-17,-21],[-64,-33],[-39,-33],[-24,-22],[-42,-14],[-38,-5],[-51,9],[-31,20],[-20,26],[-11,35],[0,30],[30,37],[40,21],[80,30],[43,15],[43,10],[22,11],[12,9],[7,-2]],[[22218,16081],[65,24],[-4,21],[85,28],[14,-34],[12,4],[21,-63],[-4,-6],[8,-18],[-18,-15],[-19,-15],[-9,-16],[-111,-46],[-40,136]],[[14849,33478],[31,60],[239,-157],[-13,-31],[42,-25],[-17,-38],[-282,191]],[[21522,21161],[-37,-81],[-51,-101],[-47,-88],[-38,-74],[-62,-104],[-49,27],[1,14],[54,99],[38,67],[42,63],[29,64],[29,71],[35,70],[32,59],[11,1],[46,-28],[-33,-59]],[[23681,15742],[43,17],[59,15],[53,13],[77,24],[19,-2],[19,-52],[1,-13],[-225,-91],[-14,2],[-32,87]],[[9086,30916],[27,93],[7,9],[11,2],[124,-45],[16,-8],[9,-12],[-21,-76],[-12,-9],[-11,0],[-110,23],[-34,7],[-4,3],[-2,13]],[[31466,6612],[38,41],[12,-24],[18,14],[30,21],[42,-9],[82,-188],[-137,-68],[-85,213]],[[14375,19549],[18,18],[27,21],[17,17],[31,20],[37,-1],[33,-25],[25,-9],[50,-38],[40,-42],[64,-82],[40,-50],[62,-28],[66,-16],[70,-37],[63,-61],[22,-66],[9,-30],[48,-180],[12,-84],[32,-40],[27,-16],[14,-36],[-8,-65],[1,-54],[4,-34],[-6,-65],[8,-42],[28,-33],[47,-21],[25,-1],[11,-45],[-23,-68],[-28,-60],[-33,-7],[-96,-7],[-78,-14],[-25,-13],[-7,-43],[-18,-6],[-63,-2],[-53,-49],[-54,-34],[-20,-20],[-3,-40],[18,-44],[-12,-18],[-39,32],[-63,78],[-41,57],[-26,41],[-58,8],[-27,3],[-58,30],[-72,26],[-42,25],[2,98]],[[13631,15382],[-83,120]],[[14001,15756],[149,-260],[216,-409],[51,-86],[79,-154],[56,-47],[134,-293],[-184,-114],[-61,12],[-25,23],[-48,44],[-51,32],[-49,13],[-62,8],[-27,-7],[-57,8],[-30,10],[-47,11],[-32,8],[-15,-3]],[[17967,16450],[55,46],[33,35],[48,53],[44,27],[63,22],[41,42],[33,10],[56,63],[32,2],[70,-37],[-8,-97],[-51,-40],[-94,-67],[-84,-53],[-80,-61],[-114,-91],[-19,-17],[-31,-29],[-8,144],[-11,21],[25,27]],[[15794,18031],[45,-67],[51,-77],[43,-48],[31,-43],[20,-32],[16,-26],[5,-40],[-9,-27],[-18,-10],[-23,-7],[-26,3],[-41,16],[-31,10],[-32,1],[-27,-15],[-19,-12],[-14,-6],[-24,-3],[-16,0],[-15,6],[-5,14],[-40,27],[-47,20],[-42,3],[-31,-8],[-35,-28],[-29,-31],[-15,-38],[-1,-35],[5,-49],[45,-97],[44,-41],[124,10],[126,6],[92,-3],[22,-1],[107,13],[610,263],[60,17],[34,-25],[0,-51],[-911,-631],[-343,-228],[-23,36],[-313,-172],[-55,-49],[-184,-95],[-49,-22],[-38,-3],[-72,-26],[-163,-70],[-39,-4],[-22,12],[-26,42],[-2,39],[-13,24],[-48,34],[-61,37],[-37,24],[-68,22],[-45,19],[-79,10],[-28,-30],[-46,-82],[-21,-70],[-11,-46],[-29,-20],[-50,-11],[-85,13],[-71,47],[-69,41],[-55,39],[-40,14],[-26,-1],[-12,20]],[[15090,17075],[33,-10],[30,17],[38,50],[26,44],[14,53],[-15,39],[-17,15],[-19,11],[-49,-2],[-23,6],[-18,14],[-15,0],[-37,-21],[-32,-30],[-34,-34],[21,-37],[22,-45],[30,-41],[19,-15],[26,-14]],[[13948,19159],[-13,-13],[-7,-9],[-21,-5],[-16,-22],[-2,-33],[0,-21],[6,-30],[16,-23],[7,-11],[13,-19],[23,-8],[21,9],[14,0]],[[14029,18639],[-40,32],[-29,50],[-23,44],[-34,44],[-40,51],[-47,75],[-46,82],[-45,73],[-34,46],[-45,20],[-62,21],[-65,2],[-52,-12],[-53,28],[-36,-8],[-54,-10],[-57,-7],[-76,12],[-94,19],[-82,7],[-118,13],[-82,-8],[-59,10],[-66,-13],[-49,-12],[-38,-3],[-132,21],[-29,9],[-44,5],[-64,-8],[-47,5],[-70,10],[-55,8],[-50,10],[-75,1],[-39,-20],[-18,-24],[-25,-3],[-23,31],[-52,6],[-76,-15],[-21,-10],[2,20],[18,42],[33,59],[77,92],[41,42],[26,-7],[19,-4],[31,-4],[47,25],[52,30],[55,39],[51,43],[40,38],[54,25],[63,31],[94,11],[43,7],[68,8],[40,13],[118,3],[58,9],[29,21],[16,20],[44,15],[74,24],[122,13],[129,25],[97,34],[94,8],[94,26],[35,14],[12,-1],[30,-11],[30,-4],[47,2],[26,-2],[18,11],[13,7],[61,4],[63,10],[54,11],[52,8],[29,13],[44,-17],[-9,-20],[-17,-30],[-13,-35],[1,-18],[3,-24],[43,-14],[20,3],[14,2],[13,-3],[23,2],[24,23],[15,24],[15,32],[13,2],[25,6],[21,13],[31,17],[26,16],[30,-5],[24,-34],[3,-31],[-7,-35],[-17,-32],[-3,-29],[-12,-21],[-24,-16]],[[32,1554],[165,21],[-10,-32],[-37,-136],[-13,-26],[-21,-1],[-58,14],[-44,9],[-14,14],[4,28],[18,62],[10,47]],[[4307,892],[69,72],[170,50],[128,34],[43,-12],[113,37],[73,23],[156,31],[96,-2],[69,-23],[77,-29],[84,-5],[325,42],[129,15],[145,23],[53,-2],[29,-27],[13,-54],[-31,-45],[-248,-60],[-55,-13],[-57,-4],[-228,-34],[-237,-23],[-180,1],[-98,1],[-197,-66],[-114,-41],[-144,-12],[-126,53],[-57,70]],[[8543,1505],[0,-19],[-77,-133],[-127,-228],[-85,-169],[-45,-42]],[[8209,914],[-77,-26],[-102,-29],[-133,1],[-237,20],[-184,8],[-123,39],[-47,55],[13,10],[39,89],[62,138],[82,142],[141,235],[151,259],[49,30],[112,-47],[157,-64],[107,-43],[62,-36],[143,-104],[119,-86]],[[4816,1935],[118,12],[297,26]],[[5231,1973],[12,-23],[-1,-29],[-7,-35],[3,-30],[18,-37],[17,-15],[38,-12],[31,-6],[23,-6],[11,-6],[18,-182],[11,-135],[17,-231],[13,-95],[-32,6],[-58,22],[-60,31],[-82,68],[-51,50],[-168,12],[-164,-2],[-25,65],[-12,247],[10,203],[5,55],[8,34],[10,13]],[[7532,2280],[58,-179],[-5,-15],[-21,-2],[-54,-19],[-92,-38],[-334,-127],[-302,-119],[-173,-68],[-191,-77],[-94,-38],[-23,-3],[-14,14],[7,31],[30,56],[149,147],[218,250],[129,145],[122,127],[53,59],[16,3],[404,-31],[73,-9],[44,-107]],[[8543,1505],[64,-33],[152,-87],[175,-93],[140,-60],[93,-39],[53,-23],[43,-16],[33,-3],[131,-6],[215,-9],[127,-1],[6,-173],[-8,-189],[3,-80],[-10,-18],[-19,-14],[-30,-9],[-57,21],[-260,100],[-242,127],[-56,15],[-55,-8],[-198,29],[-153,20],[-66,1],[-237,-21],[-178,-22]],[[5402,1612],[-21,217],[-13,66],[-5,46],[1,17],[20,16],[45,3],[245,25],[61,2],[38,-16],[83,-81],[27,-26],[34,-16],[48,-16],[158,-40],[53,-12],[31,-325],[2,-29],[-32,-112],[-34,-94],[-18,-24],[-21,-12],[-32,-7],[-178,-41],[-137,-24],[-153,-20],[-69,-11],[-58,-2],[-20,4],[-11,21],[-12,111],[-8,110],[-10,132],[-14,138]],[[6194,1344],[54,183],[15,29],[28,18],[239,94],[255,103],[303,116],[331,127],[136,53],[25,3],[24,-12],[66,-50],[88,-69],[26,-22],[3,-26],[-12,-28],[-45,-73],[-190,-315],[-69,-123],[-91,-163],[-72,-171],[-20,-20],[-24,-1],[-71,51],[-145,114],[-45,33],[-27,14],[-30,7],[-250,-29],[-170,-14],[-78,-4],[-53,3],[-163,20],[-75,14],[-16,0],[22,40],[31,98]],[[3382,1013],[26,13],[117,-31],[48,3],[16,32],[49,28],[89,3],[84,-9],[113,25],[78,10],[110,13],[131,-53],[100,-73],[-134,-160],[-137,-163],[-163,86],[-527,276]],[[4289,3024],[-49,-72],[-23,-17],[-17,-3],[-57,39],[-14,13],[-16,28],[-6,46],[31,131],[72,178],[57,88],[87,185],[75,154],[23,26],[22,8],[32,-4],[75,-30],[42,-46],[12,-31],[0,-19],[-101,-234],[-129,-231],[-116,-209]],[[1289,852],[-3,-25],[-13,-19],[-19,-10],[-40,0],[-43,-3],[-34,1],[-30,12],[-48,83],[-31,56],[-53,116],[-41,73],[-83,94],[-14,25],[-4,30],[22,19],[31,-3],[55,-17],[32,-5],[28,-2],[109,-16],[182,-23],[3,-35],[10,-36],[-2,-56],[2,-43],[4,-78],[-3,-67],[-17,-71]],[[4194,771],[-4,-175],[-20,2],[-72,40],[96,133]],[[4816,1935],[-52,-1],[-107,4],[-40,6],[-24,12],[-95,93],[4,26],[105,253],[32,81],[72,158],[85,210],[24,55],[112,335],[34,130],[32,126],[22,101],[20,114],[12,9],[35,-27],[11,-21],[-17,-136],[-39,-154],[-24,-76],[-25,-97],[10,-27],[40,-23],[196,-87],[102,-47],[126,-75],[65,-55],[37,-65],[11,-26],[3,-22],[-3,-43],[6,-25],[23,-17],[23,-8],[32,6],[13,30],[9,17],[23,-10],[27,-31],[-1,-24],[-33,-120],[-4,-59],[4,-58],[31,-79],[64,-181],[26,-87],[-13,-23],[-31,17],[-41,6],[-162,-9],[-205,-25],[-140,-13]],[[5242,2295],[-132,93],[-136,84],[-161,106],[-12,-3],[-75,-165],[-56,-141],[2,-46],[23,-71],[40,-85],[57,-42],[62,-17],[66,18],[65,20],[47,17],[61,5],[54,6],[41,19],[26,13],[22,11],[35,23],[32,24],[13,25],[11,33],[0,16],[-85,57]],[[4353,979],[-8,-1],[-102,76],[72,66],[67,51],[92,15],[-8,-100],[-15,-50],[-35,-30],[-63,-27]],[[1963,951],[-3,-16],[-11,-26],[-46,-129],[-25,-6],[-76,28],[-134,47],[-35,34],[-15,25],[1,46],[5,154],[7,94],[12,25],[22,10],[239,11],[37,-10],[13,-25],[8,-162],[1,-100]],[[6266,3043],[49,108],[18,12],[28,0],[194,-27],[123,-34],[119,-29],[61,-24],[19,-16],[-3,-158],[12,-33],[51,-78],[58,-77],[12,-40],[1,-35],[-7,-34],[-30,-20],[-23,-25],[-20,-33],[-57,39],[-77,45],[-29,24],[-48,34],[-20,3],[-31,5],[-38,7],[-40,14],[-39,7],[-54,1],[-84,-9],[-67,5],[-55,6],[-63,22],[-29,24],[-11,16],[41,195],[17,64],[22,41]],[[2355,1283],[21,-15],[8,-22],[-25,-108],[-50,-224],[-49,-281],[-16,-60],[-7,-24],[-20,-13],[-21,3],[-15,14],[-7,19],[1,54],[18,296],[1,241],[-6,20],[-13,1],[-2,-18],[-2,-51],[-9,-202],[-20,-302],[-4,-23],[-3,-21],[-11,-20],[-23,-3],[-25,7],[-8,21],[-2,95],[2,259],[17,266],[-8,12],[-12,-8],[-5,-164],[-8,-26],[-31,-10],[-29,4],[-14,22],[-2,206],[14,27],[115,8],[116,22],[47,9],[87,-11]],[[9873,849],[3,271],[10,18],[9,25],[46,110],[95,197],[9,37],[29,61],[19,32],[19,29],[36,-1],[10,-26],[27,-9],[101,-19],[59,-23],[31,-39],[25,-34],[-24,-138],[-40,-142],[9,-29],[27,-24],[33,-27],[163,-149],[109,-117],[25,-64],[33,-73],[40,-75],[32,-66],[-14,-52],[-4,-56],[4,-40],[0,-43],[4,-35],[-1,-28],[-26,-30],[-31,-24],[-29,-42],[-31,-50],[-16,-77],[-26,-89],[-23,-8],[-40,16],[-82,32],[-52,25],[-29,26],[-162,171],[-78,82],[-38,45],[-25,12],[-131,48],[-50,22],[-20,12],[-13,18],[-14,34],[-10,34],[2,272]]],"transform":{"scale":[0.0000033594252713964972,0.000002249744151143152],"translate":[140.733934418,42.004766703]},"objects":{"2024_013439":{"type":"GeometryCollection","geometries":[{"arcs":[[0]],"type":"Polygon","properties":{"polygon_uuid":"fb41f0f3-bbb5-4fad-ac22-8a52a2122866","land_type":200,"issue_year":2024,"edit_year":2020,"history":"[{\"筆ポリゴンID\":\"f8716e53-25c0-44b3-b2f7-bfd0d8820eda\",\"更新年度\":2023,\"前年同一\":true},[{\"筆ポリゴンID\":\"d49adeb0-5fc8-498e-8325-4e6ece190b62\",\"更新年度\":2022,\"前年同一\":true},[{\"筆ポリゴンID\":\"cee7fc93-a3c9-4ba9-a8f2-4b34bd2c590e\",\"更新年度\":2021,\"前年同一\":true},{\"筆ポリゴンID\":\"cee7fc93-a3c9-4ba9-a8f2-4b34bd2c590e\",\"発生年度\":2020}]]]","last_polygon_uuid":"f8716e53-25c0-44b3-b2f7-bfd0d8820eda","prev_last_polygon_uuid":"d49adeb0-5fc8-498e-8325-4e6ece190b62","local_government_cd":"013439","point_lng":140.834596813,"point_lat":42.02428957}},{"arcs":[[1]],"type":"Polygon","properties":{"polygon_uuid":"2a71cfde-c194-489c-977a-e17c07afd3a2","land_type":200,"issue_year":2024,"edit_year":2020,"history":"[{\"筆ポリゴンID\":\"ac46059f-f706-416b-b11b-6bf03ec41878\",\"更新年度\":2023,\"前年同一\":true},[{\"筆ポリゴンID\":\"95d53762-985c-4d9a-9b2a-66b4ec7f0819\",\"更新年度\":2022,\"前年同一\":true},[{\"筆ポリゴンID\":\"f750406e-4484-4176-9e0c-3fc8c7568797\",\"更新年度\":2021,\"前年同一\":true},{\"筆ポリゴンID\":\"f750406e-4484-4176-9e0c-3fc8c7568797\",\"発生年度\":2020}]]]","last_polygon_uuid":"ac46059f-f706-416b-b11b-6bf03ec41878","prev_last_polygon_uuid":"95d53762-985c-4d9a-9b2a-66b4ec7f0819","local_government_cd":"013439","point_lng":140.801775672,"point_lat":42.060106523}},{"arcs":[[2]],"type":"Polygon","properties":{"polygon_uuid":"6a7c30cc-c4de-4552-beb3-e9338c1c794c","land_type":200,"issue_year":2024,"edit_year":2020,"history":"[{\"筆ポリゴンID\":\"f06aaeaf-4506-44e3-8ce8-ad38bc481a6f\",\"更新年度\":2023,\"前年同一\":true},[{\"筆ポリゴンID\":\"d133ce51-851c-4c1a-b47b-986d48c58aff\",\"更新年度\":2022,\"前年同一\":true},[{\"筆ポリゴンID\":\"0c3fd716-e4cf-4012-a644-5be8826c4311\",\"更新年度\":2021,\"前年同一\":true},{\"筆ポリゴンID\":\"0c3fd716-e4cf-4012-a644-5be8826c4311\",\"発生年度\":2020}]]]","last_polygon_uuid":"f06aaeaf-4506-44e3-8ce8-ad38bc481a6f","prev_last_polygon_uuid":"d133ce51-851c-4c1a-b47b-986d48c58aff","local_government_cd":"013439","point_lng":140.835563256,"point_lat":42.025017859}},{"arcs":[[3]],"type":"Polygon","properties":{"polygon_uuid":"27403ad9-b257-4dfc-856d-cbee3e8a13c7","land_type":200,"issue_year":2024,"edit_year":2020,"history":"[{\"筆ポリゴンID\":\"4f6246f1-a911-4571-9b04-8db1f06a9e55\",\"更新年度\":2023,\"前年同一\":true},[{\"筆ポリゴンID\":\"5739f7e2-9b34-4e15-a013-a2cef018c5d4\",\"更新年度\":2022,\"前年同一\":true},[{\"筆ポリゴンID\":\"fc9a117e-0f18-46ef-a389-190040db5349\",\"更新年度\":2021,\"前年同一\":true},{\"筆ポリゴンID\":\"fc9a117e-0f18-46ef-a389-190040db5349\",\"発生年度\":2020}]]]","last_polygon_uuid":"4f6246f1-a911-4571-9b04-8db1f06a9e55","prev_last_polygon_uuid":"5739f7e2-9b34-4e15-a013-a2cef018c5d4","local_government_cd":"013439","point_lng":140.780513015,"point_lat":42.072572001}},{"arcs":[[4]],"type":"Polygon","properties":{"polygon_uuid":"31ad501f-18b5-4a05-bbff-f9432c17e63e","land_type":200,"issue_year":2024,"edit_year":2020,"history":"[{\"筆ポリゴンID\":\"2e4c0d36-0861-45f7-987c-3610c85817af\",\"更新年度\":2023,\"前年同一\":true},[{\"筆ポリゴンID\":\"71f32839-ad82-4277-a2ee-6c4fb73743b9\",\"更新年度\":2022,\"前年同一\":true},[{\"筆ポリゴンID\":\"31876d0f-5e85-4536-8afd-912fc088b676\",\"更新年度\":2021,\"前年同一\":true},{\"筆ポリゴンID\":\"31876d0f-5e85-4536-8afd-912fc088b676\",\"発生年度\":2020}]]]","last_polygon_uuid":"2e4c0d36-0861-45f7-987c-3610c85817af","prev_last_polygon_uuid":"71f32839-ad82-4277-a2ee-6c4fb73743b9","local_government_cd":"013439","point_lng":140.801337288,"point_lat":42.052062523}},{"arcs":[[5]],"type":"Polygon","properties":{"polygon_uuid":"d4375e9a-9cbc-4315-bc01-f011aa163dc1","land_type":200,"issue_year":2024,"edit_year":2020,"history":"[{\"筆ポリゴンID\":\"5102b466-51ee-4999-98b7-142c7aa782f0\",\"更新年度\":2023,\"前年同一\":true},[{\"筆ポリゴンID\":\"f7a6c080-b695-4212-bd46-27d2f42c64e9\",\"更新年度\":2022,\"前年同一\":true},[{\"筆ポリゴンID\":\"bdd0641a-6e46-4a8e-91f9-19b1561db6d2\",\"更新年度\":2021,\"前年同一\":true},{\"筆ポリゴンID\":\"bdd0641a-6e46-4a8e-91f9-19b1561db6d2\",\"発生年度\":2020}]]]","last_polygon_uuid":"5102b466-51ee-4999-98b7-142c7aa782f0","prev_last_polygon_uuid":"f7a6c080-b695-4212-bd46-27d2f42c64e9","local_government_cd":"013439","point_lng":140.802281516,"point_lat":42.054178452}},{"arcs":[[6]],"type":"Polygon","properties":{"polygon_uuid":"6b357cea-4b0a-42bf-b459-669e93f2064c","land_type":200,"issue_year":2024,"edit_year":2020,"history":"[{\"筆ポリゴンID\":\"06876c82-b1ec-421a-bbb8-72dce574d8ec\",\"更新年度\":2023,\"前年同一\":true},[{\"筆ポリゴンID\":\"547fc547-2b70-44f0-9f0e-4944b55f87c3\",\"更新年度\":2022,\"前年同一\":true},[{\"筆ポリゴンID\":\"6b25a862-0231-4c9e-b5ee-6e3483098756\",\"更新年度\":2021,\"前年同一\":true},{\"筆ポリゴンID\":\"6b25a862-0231-4c9e-b5ee-6e3483098756\",\"発生年度\":2020}]]]","last_polygon_uuid":"06876c82-b1ec-421a-bbb8-72dce574d8ec","prev_last_polygon_uuid":"547fc547-2b70-44f0-9f0e-4944b55f87c3","local_government_cd":"013439","point_lng":140.806658982,"point_lat":42.05090222}},{"arcs":[[7]],"type":"Polygon","properties":{"polygon_uuid":"4b869821-eadd-4965-9e19-f529d5fc3020","land_type":200,"issue_year":2024,"edit_year":2020,"history":"[{\"筆ポリゴンID\":\"b3bcf47a-2a63-4ace-94ae-e25ad09b4484\",\"更新年度\":2023,\"前年同一\":true},[{\"筆ポリゴンID\":\"e5a39eeb-d031-453a-a695-a24080148d3c\",\"更新年度\":2022,\"前年同一\":true},[{\"筆ポリゴンID\":\"4b220bc5-f230-4c3f-ac93-8bfb612e531a\",\"更新年度\":2021,\"前年同一\":true},{\"筆ポリゴンID\":\"4b220bc5-f230-4c3f-ac93-8bfb612e531a\",\"発生年度\":2020}]]]","last_polygon_uuid":"b3bcf47a-2a63-4ace-94ae-e25ad09b4484","prev_last_polygon_uuid":"e5a39eeb-d031-453a-a695-a24080148d3c","local_government_cd":"013439","point_lng":140.800807342,"point_lat":42.063075689}},{"arcs":[[8]],"type":"Polygon","properties":{"polygon_uuid":"4c02c37d-33e2-4b5a-972c-b092a1e9278e","land_type":200,"issue_year":2024,"edit_year":2020,"history":"[{\"筆ポリゴンID\":\"9ff3f46f-ef20-47bf-ab4a-77462e00443e\",\"更新年度\":2023,\"前年同一\":true},[{\"筆ポリゴンID\":\"1295f8cf-ecb9-4102-bdfc-cd499c1de501\",\"更新年度\":2022,\"前年同一\":true},[{\"筆ポリゴンID\":\"c0b24922-c595-4210-b7df-d71aceb418c8\",\"更新年度\":2021,\"前年同一\":true},{\"筆ポリゴンID\":\"c0b24922-c595-4210-b7df-d71aceb418c8\",\"発生年度\":2020}]]]","last_polygon_uuid":"9ff3f46f-ef20-47bf-ab4a-77462e00443e","prev_last_polygon_uuid":"1295f8cf-ecb9-4102-bdfc-cd499c1de501","local_government_cd":"013439","point_lng":140.800839707,"point_lat":42.051679889}},{"arcs":[[9]],"type":"Polygon","properties":{"polygon_uuid":"742da408-4c80-46d6-a4ee-2b4d84655e62","land_type":200,"issue_year":2024,"edit_year":2020,"history":"[{\"筆ポリゴンID\":\"58530172-8c90-4c10-9b00-d2b1c207fdac\",\"更新年度\":2023,\"前年同一\":true},[{\"筆ポリゴンID\":\"cb92479a-3cce-4bbc-827f-7eaf21d671f6\",\"更新年度\":2022,\"前年同一\":true},[{\"筆ポリゴンID\":\"c137463d-97b8-46dd-85ab-25407335e9d3\",\"更新年度\":2021,\"前年同一\":true},{\"筆ポリゴンID\":\"c137463d-97b8-46dd-85ab-25407335e9d3\",\"発生年度\":2020}]]]","last_polygon_uuid":"58530172-8c90-4c10-9b00-d2b1c207fdac","prev_last_polygon_uuid":"cb92479a-3cce-4bbc-827f-7eaf21d671f6","local_government_cd":"013439","point_lng":140.801211314,"point_lat":42.062606663}},{"arcs":[[10]],"type":"Polygon","properties":{"polygon_uuid":"059acef0-b6c9-41be-a2f5-1be4458a3eff","land_type":200,"issue_year":2024,"edit_year":2020,"history":"[{\"筆ポリゴンID\":\"9bee3c90-f8a2-475e-8b46-b729f4058b18\",\"更新年度\":2023,\"前年同一\":true},[{\"筆ポリゴンID\":\"7accffde-0318-4e77-8b1d-537074aebc09\",\"更新年度\":2022,\"前年同一\":true},[{\"筆ポリゴンID\":\"d6d6c578-84e2-4237-ab9b-54beb85690af\",\"更新年度\":2021,\"前年同一\":true},{\"筆ポリゴンID\":\"d6d6c578-84e2-4237-ab9b-54beb85690af\",\"発生年度\":2020}]]]","last_polygon_uuid":"9bee3c90-f8a2-475e-8b46-b729f4058b18","prev_last_polygon_uuid":"7accffde-0318-4e77-8b1d-537074aebc09","local_government_cd":"013439","point_lng":140.807583802,"point_lat":42.035369841}},{"arcs":[[11,12]],"type":"Polygon","properties":{"polygon_uuid":"de8e21c5-b7dc-455c-826f-a866808d6d20","land_type":200,"issue_year":2024,"edit_year":2020,"history":"[{\"筆ポリゴンID\":\"06060dd3-fdd7-4775-8db0-e6ff0053930d\",\"更新年度\":2023,\"前年同一\":true},[{\"筆ポリゴンID\":\"b1cb5664-7cfe-4970-8dc3-2029d6fae019\",\"更新年度\":2022,\"前年同一\":true},[{\"筆ポリゴンID\":\"530b5955-5594-4fae-b59d-3d110706c1f1\",\"更新年度\":2021,\"前年同一\":true},{\"筆ポリゴンID\":\"530b5955-5594-4fae-b59d-3d110706c1f1\",\"発生年度\":2020}]]]","last_polygon_uuid":"06060dd3-fdd7-4775-8db0-e6ff0053930d","prev_last_polygon_uuid":"b1cb5664-7cfe-4970-8dc3-2029d6fae019","local_government_cd":"013439","point_lng":140.783478705,"point_lat":42.039570857}},{"arcs":[[13]],"type":"Polygon","properties":{"polygon_uuid":"db608d73-a51b-484e-bbf9-165beb1aba56","land_type":200,"issue_year":2024,"edit_year":2020,"history":"[{\"筆ポリゴンID\":\"fa41851d-c554-424f-9875-7a55261897dc\",\"更新年度\":2023,\"前年同一\":true},[{\"筆ポリゴンID\":\"da7e3438-fd1e-4b85-b070-92f236fd967d\",\"更新年度\":2022,\"前年同一\":true},[{\"筆ポリゴンID\":\"76503022-fa52-4501-8b27-63a2810b40c5\",\"更新年度\":2021,\"前年同一\":true},{\"筆ポリゴンID\":\"76503022-fa52-4501-8b27-63a2810b40c5\",\"発生年度\":2020}]]]","last_polygon_uuid":"fa41851d-c554-424f-9875-7a55261897dc","prev_last_polygon_uuid":"da7e3438-fd1e-4b85-b070-92f236fd967d","local_government_cd":"013439","point_lng":140.808000388,"point_lat":42.035423949}},{"arcs":[[14]],"type":"Polygon","properties":{"polygon_uuid":"ccde5a52-2c04-4283-afdf-e5ae59dc2845","land_type":200,"issue_year":2024,"edit_year":2020,"history":"[{\"筆ポリゴンID\":\"aab08cc3-5bd1-4fe2-bde8-4e98ea3d0caf\",\"更新年度\":2023,\"前年同一\":true},[{\"筆ポリゴンID\":\"7e35725e-8c04-445e-bda9-a5711eb924e8\",\"更新年度\":2022,\"前年同一\":true},[{\"筆ポリゴンID\":\"466890e9-7f66-4602-88d1-8f33951ae30c\",\"更新年度\":2021,\"前年同一\":true},{\"筆ポリゴンID\":\"466890e9-7f66-4602-88d1-8f33951ae30c\",\"発生年度\":2020}]]]","last_polygon_uuid":"aab08cc3-5bd1-4fe2-bde8-4e98ea3d0caf","prev_last_polygon_uuid":"7e35725e-8c04-445e-bda9-a5711eb924e8","local_government_cd":"013439","point_lng":140.781773613,"point_lat":42.03231364}},{"arcs":[[15,16]],"type":"Polygon","properties":{"polygon_uuid":"5a7bf88d-5cab-4fcf-b19d-86b843bb8917","land_type":200,"issue_year":2024,"edit_year":2020,"history":"[{\"筆ポリゴンID\":\"0cf42678-dce4-42de-86fe-ad7b2f8b4ba6\",\"更新年度\":2023,\"前年同一\":true},[{\"筆ポリゴンID\":\"5611dbfa-620e-4c73-8b79-22f6bf5ec3bd\",\"更新年度\":2022,\"前年同一\":true},[{\"筆ポリゴンID\":\"efe94d23-658a-406c-addc-18ce070bf80c\",\"更新年度\":2021,\"前年同一\":true},{\"筆ポリゴンID\":\"efe94d23-658a-406c-addc-18ce070bf80c\",\"発生年度\":2020}]]]","last_polygon_uuid":"0cf42678-dce4-42de-86fe-ad7b2f8b4ba6","prev_last_polygon_uuid":"5611dbfa-620e-4c73-8b79-22f6bf5ec3bd","local_government_cd":"013439","point_lng":140.779576954,"point_lat":42.040710468}},{"arcs":[[-13,17]],"type":"Polygon","properties":{"polygon_uuid":"620b0439-a27f-4e8e-8bf8-9695dde822fb","land_type":200,"issue_year":2024,"edit_year":2020,"history":"[{\"筆ポリゴンID\":\"049c148a-80ca-4baf-8c6c-e60c82ebd6b7\",\"更新年度\":2023,\"前年同一\":true},[{\"筆ポリゴンID\":\"166bb889-9e33-4baf-9149-94efe23af3e9\",\"更新年度\":2022,\"前年同一\":true},[{\"筆ポリゴンID\":\"99864085-7f17-4b53-869f-95c485665b6b\",\"更新年度\":2021,\"前年同一\":true},{\"筆ポリゴンID\":\"99864085-7f17-4b53-869f-95c485665b6b\",\"発生年度\":2020}]]]","last_polygon_uuid":"049c148a-80ca-4baf-8c6c-e60c82ebd6b7","prev_last_polygon_uuid":"166bb889-9e33-4baf-9149-94efe23af3e9","local_government_cd":"013439","point_lng":140.78524148,"point_lat":42.038671812}},{"arcs":[[18]],"type":"Polygon","properties":{"polygon_uuid":"1018c930-cd12-46f3-9880-0c14483a4118","land_type":200,"issue_year":2024,"edit_year":2020,"history":"[{\"筆ポリゴンID\":\"8081806c-caea-4649-a4b0-b3e2f863f59c\",\"更新年度\":2023,\"前年同一\":true},[{\"筆ポリゴンID\":\"4e8acd41-dc26-4cad-bf09-0c0cf92984ae\",\"更新年度\":2022,\"前年同一\":true},[{\"筆ポリゴンID\":\"c3e2d8d5-0688-4049-bb0c-7ad5486e6971\",\"更新年度\":2021,\"前年同一\":true},{\"筆ポリゴンID\":\"c3e2d8d5-0688-4049-bb0c-7ad5486e6971\",\"発生年度\":2020}]]]","last_polygon_uuid":"8081806c-caea-4649-a4b0-b3e2f863f59c","prev_last_polygon_uuid":"4e8acd41-dc26-4cad-bf09-0c0cf92984ae","local_government_cd":"013439","point_lng":140.777885157,"point_lat":42.033546131}},{"arcs":[[19]],"type":"Polygon","properties":{"polygon_uuid":"ba965628-2e61-494d-add7-d02ff99047d1","land_type":200,"issue_year":2024,"edit_year":2020,"history":"[{\"筆ポリゴンID\":\"faddfff2-53bf-4795-acaf-5f0b7427f6af\",\"更新年度\":2023,\"前年同一\":true},[{\"筆ポリゴンID\":\"f418c61c-2b82-4b22-803c-398e58731898\",\"更新年度\":2022,\"前年同一\":true},[{\"筆ポリゴンID\":\"4f7db13b-4dd1-4541-8a7a-0ebbb83f8bbb\",\"更新年度\":2021,\"前年同一\":true},{\"筆ポリゴンID\":\"4f7db13b-4dd1-4541-8a7a-0ebbb83f8bbb\",\"発生年度\":2020}]]]","last_polygon_uuid":"faddfff2-53bf-4795-acaf-5f0b7427f6af","prev_last_polygon_uuid":"f418c61c-2b82-4b22-803c-398e58731898","local_government_cd":"013439","point_lng":140.773986661,"point_lat":42.04610479}},{"arcs":[[20,21,22,23,24]],"type":"Polygon","properties":{"polygon_uuid":"f050977e-e3f3-453c-b50f-9dc04e9858dc","land_type":200,"issue_year":2024,"edit_year":2020,"history":"[{\"筆ポリゴンID\":\"b443789a-80e5-4531-aae9-3d52112ec32a\",\"更新年度\":2023,\"前年同一\":true},[{\"筆ポリゴンID\":\"70e60b34-a5bb-49c3-a13c-13af66042f2b\",\"更新年度\":2022,\"前年同一\":true},[{\"筆ポリゴンID\":\"2b025f16-d67b-4742-8914-e91cfb162153\",\"更新年度\":2021,\"前年同一\":true},{\"筆ポリゴンID\":\"2b025f16-d67b-4742-8914-e91cfb162153\",\"発生年度\":2020}]]]","last_polygon_uuid":"b443789a-80e5-4531-aae9-3d52112ec32a","prev_last_polygon_uuid":"70e60b34-a5bb-49c3-a13c-13af66042f2b","local_government_cd":"013439","point_lng":140.778503943,"point_lat":42.04462222}},{"arcs":[[25,-24,26]],"type":"Polygon","properties":{"polygon_uuid":"950208a5-c95d-4e6c-8a08-196d7f450922","land_type":200,"issue_year":2024,"edit_year":2020,"history":"[{\"筆ポリゴンID\":\"e5c545ba-34e3-493a-b19f-aae10b98c8c1\",\"更新年度\":2023,\"前年同一\":true},[{\"筆ポリゴンID\":\"aa4a4043-6b5f-4769-aeaa-32f2bab68088\",\"更新年度\":2022,\"前年同一\":true},[{\"筆ポリゴンID\":\"7b7d95ae-d329-4029-9ef0-9d4c13795c36\",\"更新年度\":2021,\"前年同一\":true},{\"筆ポリゴンID\":\"7b7d95ae-d329-4029-9ef0-9d4c13795c36\",\"発生年度\":2020}]]]","last_polygon_uuid":"e5c545ba-34e3-493a-b19f-aae10b98c8c1","prev_last_polygon_uuid":"aa4a4043-6b5f-4769-aeaa-32f2bab68088","local_government_cd":"013439","point_lng":140.776729151,"point_lat":42.044561631}},{"arcs":[[27,28,29,30,31,32]],"type":"Polygon","properties":{"polygon_uuid":"633d4710-7489-4446-8d01-fa12714ce120","land_type":200,"issue_year":2024,"edit_year":2020,"history":"[{\"筆ポリゴンID\":\"26ebdce9-07df-4339-86bc-069e17481fb6\",\"更新年度\":2023,\"前年同一\":true},[{\"筆ポリゴンID\":\"36ac167d-dd9c-462e-8d05-4be9a8800a7e\",\"更新年度\":2022,\"前年同一\":true},[{\"筆ポリゴンID\":\"6b6d8455-529c-470a-ace3-3ed3c2f5a25b\",\"更新年度\":2021,\"前年同一\":true},{\"筆ポリゴンID\":\"6b6d8455-529c-470a-ace3-3ed3c2f5a25b\",\"発生年度\":2020}]]]","last_polygon_uuid":"26ebdce9-07df-4339-86bc-069e17481fb6","prev_last_polygon_uuid":"36ac167d-dd9c-462e-8d05-4be9a8800a7e","local_government_cd":"013439","point_lng":140.781596779,"point_lat":42.047735799}},{"arcs":[[33,34]],"type":"Polygon","properties":{"polygon_uuid":"d99c5bdd-303f-42e6-94a7-af7f453a19fc","land_type":200,"issue_year":2024,"edit_year":2020,"history":"[{\"筆ポリゴンID\":\"13065698-bced-48f2-805c-687ae4ef8954\",\"更新年度\":2023,\"前年同一\":true},[{\"筆ポリゴンID\":\"243804c2-2df8-4c88-b6dc-c73e1a556890\",\"更新年度\":2022,\"前年同一\":true},[{\"筆ポリゴンID\":\"2a269205-9c4f-4bd6-a9a8-7983c753ca5c\",\"更新年度\":2021,\"前年同一\":true},{\"筆ポリゴンID\":\"2a269205-9c4f-4bd6-a9a8-7983c753ca5c\",\"発生年度\":2020}]]]","last_polygon_uuid":"13065698-bced-48f2-805c-687ae4ef8954","prev_last_polygon_uuid":"243804c2-2df8-4c88-b6dc-c73e1a556890","local_government_cd":"013439","point_lng":140.778978085,"point_lat":42.037971415}},{"arcs":[[35]],"type":"Polygon","properties":{"polygon_uuid":"a586504b-791d-492f-ab36-b127c94b6330","land_type":200,"issue_year":2024,"edit_year":2020,"history":"[{\"筆ポリゴンID\":\"a288dbcc-ce81-4231-969b-45ab4f3dff2e\",\"更新年度\":2023,\"前年同一\":true},[{\"筆ポリゴンID\":\"0ce5f2c8-8d7e-4610-9e41-a26319e8251d\",\"更新年度\":2022,\"前年同一\":true},[{\"筆ポリゴンID\":\"84d206a2-d57a-457e-9332-b5f4853c5f3d\",\"更新年度\":2021,\"前年同一\":true},{\"筆ポリゴンID\":\"84d206a2-d57a-457e-9332-b5f4853c5f3d\",\"発生年度\":2020}]]]","last_polygon_uuid":"a288dbcc-ce81-4231-969b-45ab4f3dff2e","prev_last_polygon_uuid":"0ce5f2c8-8d7e-4610-9e41-a26319e8251d","local_government_cd":"013439","point_lng":140.777401184,"point_lat":42.029759737}},{"arcs":[[36]],"type":"Polygon","properties":{"polygon_uuid":"0401ca31-f1c7-40bf-8266-412c3bdf2bc8","land_type":200,"issue_year":2024,"edit_year":2020,"history":"[{\"筆ポリゴンID\":\"3b0d5233-d0f4-42e9-8c39-9b25c30314cc\",\"更新年度\":2023,\"前年同一\":true},[{\"筆ポリゴンID\":\"9f38599e-026c-4c5d-9f9f-d0ff9b5cabc5\",\"更新年度\":2022,\"前年同一\":true},[{\"筆ポリゴンID\":\"95c81b00-283f-4d44-a284-f3163ed6156e\",\"更新年度\":2021,\"前年同一\":true},{\"筆ポリゴンID\":\"95c81b00-283f-4d44-a284-f3163ed6156e\",\"発生年度\":2020}]]]","last_polygon_uuid":"3b0d5233-d0f4-42e9-8c39-9b25c30314cc","prev_last_polygon_uuid":"9f38599e-026c-4c5d-9f9f-d0ff9b5cabc5","local_government_cd":"013439","point_lng":140.763670028,"point_lat":42.025118852}},{"arcs":[[37]],"type":"Polygon","properties":{"polygon_uuid":"78e5bf63-8251-4f14-adc6-f8debdcf80d6","land_type":200,"issue_year":2024,"edit_year":2020,"history":"[{\"筆ポリゴンID\":\"f9be9b64-d6d7-4e1c-9331-10d1dfce20ab\",\"更新年度\":2023,\"前年同一\":true},[{\"筆ポリゴンID\":\"4db5058c-7c2f-4af8-8670-5a1423754c64\",\"更新年度\":2022,\"前年同一\":true},[{\"筆ポリゴンID\":\"3c32c935-bc67-4427-954e-1139b04fad92\",\"更新年度\":2021,\"前年同一\":true},{\"筆ポリゴンID\":\"3c32c935-bc67-4427-954e-1139b04fad92\",\"発生年度\":2020}]]]","last_polygon_uuid":"f9be9b64-d6d7-4e1c-9331-10d1dfce20ab","prev_last_polygon_uuid":"4db5058c-7c2f-4af8-8670-5a1423754c64","local_government_cd":"013439","point_lng":140.756503391,"point_lat":42.019750722}},{"arcs":[[38]],"type":"Polygon","properties":{"polygon_uuid":"37526af3-0503-4544-8574-9e64d5ee356e","land_type":200,"issue_year":2024,"edit_year":2020,"history":"[{\"筆ポリゴンID\":\"c67440de-cf3b-4f37-bdd3-1462d4e09bb8\",\"更新年度\":2023,\"前年同一\":true},[{\"筆ポリゴンID\":\"d365b9a8-d550-46e3-b65d-20b9b189e01c\",\"更新年度\":2022,\"前年同一\":true},[{\"筆ポリゴンID\":\"5746f4a3-09e0-4d41-936d-4681348c0be9\",\"更新年度\":2021,\"前年同一\":true},{\"筆ポリゴンID\":\"5746f4a3-09e0-4d41-936d-4681348c0be9\",\"発生年度\":2020}]]]","last_polygon_uuid":"c67440de-cf3b-4f37-bdd3-1462d4e09bb8","prev_last_polygon_uuid":"d365b9a8-d550-46e3-b65d-20b9b189e01c","local_government_cd":"013439","point_lng":140.795523376,"point_lat":42.047806627}},{"arcs":[[39]],"type":"Polygon","properties":{"polygon_uuid":"deffb958-f23c-4c3f-92a8-f2617bfd5b55","land_type":200,"issue_year":2024,"edit_year":2020,"history":"[{\"筆ポリゴンID\":\"7994e618-b204-4a25-b99b-23c3e4cefbcd\",\"更新年度\":2023,\"前年同一\":true},[{\"筆ポリゴンID\":\"5589898c-1be6-455e-bfc4-1eb54b70e214\",\"更新年度\":2022,\"前年同一\":true},[{\"筆ポリゴンID\":\"e03e9f3c-f329-49c9-bdf1-11824ff491de\",\"更新年度\":2021,\"前年同一\":true},{\"筆ポリゴンID\":\"e03e9f3c-f329-49c9-bdf1-11824ff491de\",\"発生年度\":2020}]]]","last_polygon_uuid":"7994e618-b204-4a25-b99b-23c3e4cefbcd","prev_last_polygon_uuid":"5589898c-1be6-455e-bfc4-1eb54b70e214","local_government_cd":"013439","point_lng":140.789843543,"point_lat":42.032215993}},{"arcs":[[40,41],[42]],"type":"Polygon","properties":{"polygon_uuid":"efa247c2-5b1d-4aed-80ba-26d0772a94b2","land_type":200,"issue_year":2024,"edit_year":2020,"history":"[{\"筆ポリゴンID\":\"c1238a91-80a2-4e6d-80ef-7f0b0360aea5\",\"更新年度\":2023,\"前年同一\":true},[{\"筆ポリゴンID\":\"27675582-19e3-4e03-938c-8f0983965251\",\"更新年度\":2022,\"前年同一\":true},[{\"筆ポリゴンID\":\"85d4dc80-9ef0-439e-82b2-4fddfcea95f0\",\"更新年度\":2021,\"前年同一\":true},{\"筆ポリゴンID\":\"85d4dc80-9ef0-439e-82b2-4fddfcea95f0\",\"発生年度\":2020}]]]","last_polygon_uuid":"c1238a91-80a2-4e6d-80ef-7f0b0360aea5","prev_last_polygon_uuid":"27675582-19e3-4e03-938c-8f0983965251","local_government_cd":"013439","point_lng":140.781593559,"point_lat":42.043882317}},{"arcs":[[43]],"type":"Polygon","properties":{"polygon_uuid":"dbea8ede-6e05-4b99-849f-b0211ffa8217","land_type":200,"issue_year":2024,"edit_year":2020,"history":"[{\"筆ポリゴンID\":\"bf7c114e-8aad-44b4-a7e3-09eec9392518\",\"更新年度\":2023,\"前年同一\":true},[{\"筆ポリゴンID\":\"8b4e4c63-8383-4f3d-89d5-a044bad94498\",\"更新年度\":2022,\"前年同一\":true},[{\"筆ポリゴンID\":\"a5228bb4-f018-4d80-907c-73e869e04911\",\"更新年度\":2021,\"前年同一\":true},{\"筆ポリゴンID\":\"a5228bb4-f018-4d80-907c-73e869e04911\",\"発生年度\":2020}]]]","last_polygon_uuid":"bf7c114e-8aad-44b4-a7e3-09eec9392518","prev_last_polygon_uuid":"8b4e4c63-8383-4f3d-89d5-a044bad94498","local_government_cd":"013439","point_lng":140.788481238,"point_lat":42.040186508}},{"arcs":[[-25,-26,44]],"type":"Polygon","properties":{"polygon_uuid":"bc3d7b5b-68c7-4d9d-8f24-088cb0d42b0e","land_type":200,"issue_year":2024,"edit_year":2020,"history":"[{\"筆ポリゴンID\":\"1f04bfda-d7bb-4061-97ef-a2d3f32cc492\",\"更新年度\":2023,\"前年同一\":true},[{\"筆ポリゴンID\":\"d16b8c60-2809-4135-bc40-198e0a2abf36\",\"更新年度\":2022,\"前年同一\":true},[{\"筆ポリゴンID\":\"ee993dfe-eaac-40f0-909c-cb94de832329\",\"更新年度\":2021,\"前年同一\":true},{\"筆ポリゴンID\":\"ee993dfe-eaac-40f0-909c-cb94de832329\",\"発生年度\":2020}]]]","last_polygon_uuid":"1f04bfda-d7bb-4061-97ef-a2d3f32cc492","prev_last_polygon_uuid":"d16b8c60-2809-4135-bc40-198e0a2abf36","local_government_cd":"013439","point_lng":140.77661715,"point_lat":42.046526209}},{"arcs":[[45]],"type":"Polygon","properties":{"polygon_uuid":"cd99959b-0301-4f30-9ec0-a8bb575d05f0","land_type":200,"issue_year":2024,"edit_year":2020,"history":"[{\"筆ポリゴンID\":\"4da5fb08-f07c-474a-9f9c-2b71e31a9a95\",\"更新年度\":2023,\"前年同一\":true},[{\"筆ポリゴンID\":\"aad07da7-c1c1-4e1e-9e35-c260faaaf14e\",\"更新年度\":2022,\"前年同一\":true},[{\"筆ポリゴンID\":\"59bc7250-c00c-410f-b892-7915cbca54eb\",\"更新年度\":2021,\"前年同一\":true},{\"筆ポリゴンID\":\"59bc7250-c00c-410f-b892-7915cbca54eb\",\"発生年度\":2020}]]]","last_polygon_uuid":"4da5fb08-f07c-474a-9f9c-2b71e31a9a95","prev_last_polygon_uuid":"aad07da7-c1c1-4e1e-9e35-c260faaaf14e","local_government_cd":"013439","point_lng":140.783717338,"point_lat":42.033759022}},{"arcs":[[46,-22]],"type":"Polygon","properties":{"polygon_uuid":"c5636dfd-9d68-4dcb-a611-007a6e013b7d","land_type":200,"issue_year":2024,"edit_year":2020,"history":"[{\"筆ポリゴンID\":\"7b5e7e09-df1a-4bfb-a1fa-53ffc0445bbb\",\"更新年度\":2023,\"前年同一\":true},[{\"筆ポリゴンID\":\"4f93482a-1b4a-40da-9e4c-e61f9cb3e30d\",\"更新年度\":2022,\"前年同一\":true},[{\"筆ポリゴンID\":\"8464615d-27d8-4c8c-869d-43ef5ad25f73\",\"更新年度\":2021,\"前年同一\":true},{\"筆ポリゴンID\":\"8464615d-27d8-4c8c-869d-43ef5ad25f73\",\"発生年度\":2020}]]]","last_polygon_uuid":"7b5e7e09-df1a-4bfb-a1fa-53ffc0445bbb","prev_last_polygon_uuid":"4f93482a-1b4a-40da-9e4c-e61f9cb3e30d","local_government_cd":"013439","point_lng":140.779793007,"point_lat":42.045131474}},{"arcs":[[47]],"type":"Polygon","properties":{"polygon_uuid":"021e2c5e-50e0-42e3-b234-8c6c0f6a7c02","land_type":200,"issue_year":2024,"edit_year":2020,"history":"[{\"筆ポリゴンID\":\"1d1d5032-221d-42a2-9446-dcdefd2925ad\",\"更新年度\":2023,\"前年同一\":true},[{\"筆ポリゴンID\":\"ce42303b-08e1-416a-81bb-b7b4dee5ee1c\",\"更新年度\":2022,\"前年同一\":true},[{\"筆ポリゴンID\":\"d2cd0a3a-64d1-4ef0-8fd3-5ff384c6c7aa\",\"更新年度\":2021,\"前年同一\":true},{\"筆ポリゴンID\":\"d2cd0a3a-64d1-4ef0-8fd3-5ff384c6c7aa\",\"発生年度\":2020}]]]","last_polygon_uuid":"1d1d5032-221d-42a2-9446-dcdefd2925ad","prev_last_polygon_uuid":"ce42303b-08e1-416a-81bb-b7b4dee5ee1c","local_government_cd":"013439","point_lng":140.774998799,"point_lat":42.035029317}},{"arcs":[[48]],"type":"Polygon","properties":{"polygon_uuid":"35ff479c-c267-4cbd-916e-f090a089c390","land_type":200,"issue_year":2024,"edit_year":2020,"history":"[{\"筆ポリゴンID\":\"bb96806b-91ad-4bf4-a8c1-d7edb39a6dd9\",\"更新年度\":2023,\"前年同一\":true},[{\"筆ポリゴンID\":\"29ca6f4c-57ca-473f-8242-15ef6b2e070e\",\"更新年度\":2022,\"前年同一\":true},[{\"筆ポリゴンID\":\"5403caa8-dbb1-4502-9038-f6eb5ef2c066\",\"更新年度\":2021,\"前年同一\":true},{\"筆ポリゴンID\":\"5403caa8-dbb1-4502-9038-f6eb5ef2c066\",\"発生年度\":2020}]]]","last_polygon_uuid":"bb96806b-91ad-4bf4-a8c1-d7edb39a6dd9","prev_last_polygon_uuid":"29ca6f4c-57ca-473f-8242-15ef6b2e070e","local_government_cd":"013439","point_lng":140.787659163,"point_lat":42.037780416}},{"arcs":[[49]],"type":"Polygon","properties":{"polygon_uuid":"0d88cac8-b82c-4da6-95a1-abbb8346347f","land_type":200,"issue_year":2024,"edit_year":2020,"history":"[{\"筆ポリゴンID\":\"dfd1f2d0-70f0-45d9-9614-9b8152681165\",\"更新年度\":2023,\"前年同一\":true},[{\"筆ポリゴンID\":\"3d143b40-f12c-4cc0-af95-2736b0c1f6ce\",\"更新年度\":2022,\"前年同一\":true},[{\"筆ポリゴンID\":\"a9dceb42-9863-4e67-8bfe-f14b098264f3\",\"更新年度\":2021,\"前年同一\":true},{\"筆ポリゴンID\":\"a9dceb42-9863-4e67-8bfe-f14b098264f3\",\"発生年度\":2020}]]]","last_polygon_uuid":"dfd1f2d0-70f0-45d9-9614-9b8152681165","prev_last_polygon_uuid":"3d143b40-f12c-4cc0-af95-2736b0c1f6ce","local_government_cd":"013439","point_lng":140.806501665,"point_lat":42.047967628}},{"arcs":[[50]],"type":"Polygon","properties":{"polygon_uuid":"fd31264d-1c83-4206-a394-50ce91753f85","land_type":200,"issue_year":2024,"edit_year":2020,"history":"[{\"筆ポリゴンID\":\"28919788-bb34-4dfc-98b4-f16dfa05fe96\",\"更新年度\":2023,\"前年同一\":true},[{\"筆ポリゴンID\":\"2e407702-70ce-4249-90da-7517ee6f8c8f\",\"更新年度\":2022,\"前年同一\":true},[{\"筆ポリゴンID\":\"f7ea1237-e69c-46f5-986f-6d207f86400b\",\"更新年度\":2021,\"前年同一\":true},{\"筆ポリゴンID\":\"f7ea1237-e69c-46f5-986f-6d207f86400b\",\"発生年度\":2020}]]]","last_polygon_uuid":"28919788-bb34-4dfc-98b4-f16dfa05fe96","prev_last_polygon_uuid":"2e407702-70ce-4249-90da-7517ee6f8c8f","local_government_cd":"013439","point_lng":140.805798327,"point_lat":42.050330543}},{"arcs":[[51]],"type":"Polygon","properties":{"polygon_uuid":"baddd36c-22a5-4bf3-a62e-d71866ace19b","land_type":200,"issue_year":2024,"edit_year":2020,"history":"[{\"筆ポリゴンID\":\"539a86b5-705f-4e2a-8f44-bfdf4a2182d6\",\"更新年度\":2023,\"前年同一\":true},[{\"筆ポリゴンID\":\"952f6be5-a49d-440e-a92f-b689c699f568\",\"更新年度\":2022,\"前年同一\":true},[{\"筆ポリゴンID\":\"164e7844-2591-466d-a52c-533a3f58f20d\",\"更新年度\":2021,\"前年同一\":true},{\"筆ポリゴンID\":\"164e7844-2591-466d-a52c-533a3f58f20d\",\"発生年度\":2020}]]]","last_polygon_uuid":"539a86b5-705f-4e2a-8f44-bfdf4a2182d6","prev_last_polygon_uuid":"952f6be5-a49d-440e-a92f-b689c699f568","local_government_cd":"013439","point_lng":140.813252974,"point_lat":42.033257925}},{"arcs":[[52]],"type":"Polygon","properties":{"polygon_uuid":"a6620cdb-8fb4-423f-a095-9f4e2d9701fa","land_type":200,"issue_year":2024,"edit_year":2020,"history":"[{\"筆ポリゴンID\":\"7e9b49ad-42f0-42eb-b494-c2f682fd880b\",\"更新年度\":2023,\"前年同一\":true},[{\"筆ポリゴンID\":\"e5e0d5f3-0a67-4dd2-8140-3ffd9563b297\",\"更新年度\":2022,\"前年同一\":true},[{\"筆ポリゴンID\":\"cd98bb8b-b569-4370-8037-195fb666d080\",\"更新年度\":2021,\"前年同一\":true},{\"筆ポリゴンID\":\"cd98bb8b-b569-4370-8037-195fb666d080\",\"発生年度\":2020}]]]","last_polygon_uuid":"7e9b49ad-42f0-42eb-b494-c2f682fd880b","prev_last_polygon_uuid":"e5e0d5f3-0a67-4dd2-8140-3ffd9563b297","local_government_cd":"013439","point_lng":140.811025071,"point_lat":42.043968147}},{"arcs":[[53]],"type":"Polygon","properties":{"polygon_uuid":"15312ab3-9c87-43b1-9c91-e97069b50476","land_type":200,"issue_year":2024,"edit_year":2020,"history":"[{\"筆ポリゴンID\":\"7b425900-d749-40d9-8c33-fd749977704e\",\"更新年度\":2023,\"前年同一\":true},[{\"筆ポリゴンID\":\"5dcbca5b-c3a8-4370-aac0-ec884784236f\",\"更新年度\":2022,\"前年同一\":true},[{\"筆ポリゴンID\":\"83dd6cd2-d20f-4b06-b868-11355c1fc51e\",\"更新年度\":2021,\"前年同一\":true},{\"筆ポリゴンID\":\"83dd6cd2-d20f-4b06-b868-11355c1fc51e\",\"発生年度\":2020}]]]","last_polygon_uuid":"7b425900-d749-40d9-8c33-fd749977704e","prev_last_polygon_uuid":"5dcbca5b-c3a8-4370-aac0-ec884784236f","local_government_cd":"013439","point_lng":140.816655826,"point_lat":42.033024209}},{"arcs":[[54]],"type":"Polygon","properties":{"polygon_uuid":"1b4ee723-fda0-43f7-ae07-e3a0076506bc","land_type":200,"issue_year":2024,"edit_year":2020,"history":"[{\"筆ポリゴンID\":\"82a1eae0-fd2f-4461-86cf-8cf9fb949807\",\"更新年度\":2023,\"前年同一\":true},[{\"筆ポリゴンID\":\"71e8a7a8-25e6-468f-8b2f-033e5e7c42c4\",\"更新年度\":2022,\"前年同一\":true},[{\"筆ポリゴンID\":\"ad5a266b-01c7-47cf-9c91-33858975454e\",\"更新年度\":2021,\"前年同一\":true},{\"筆ポリゴンID\":\"ad5a266b-01c7-47cf-9c91-33858975454e\",\"発生年度\":2020}]]]","last_polygon_uuid":"82a1eae0-fd2f-4461-86cf-8cf9fb949807","prev_last_polygon_uuid":"71e8a7a8-25e6-468f-8b2f-033e5e7c42c4","local_government_cd":"013439","point_lng":140.80557467,"point_lat":42.049345936}},{"arcs":[[55]],"type":"Polygon","properties":{"polygon_uuid":"1b069eed-c87a-4aa1-b8bb-23908022b92f","land_type":200,"issue_year":2024,"edit_year":2020,"history":"[{\"筆ポリゴンID\":\"289aefe6-ba9b-4229-bd80-10f08ce6e2a2\",\"更新年度\":2023,\"前年同一\":true},[{\"筆ポリゴンID\":\"35eeeb93-723a-43af-ba9f-bc218ab28bc1\",\"更新年度\":2022,\"前年同一\":true},[{\"筆ポリゴンID\":\"446ae831-e601-46dc-8dfe-59713ffa7b7e\",\"更新年度\":2021,\"前年同一\":true},{\"筆ポリゴンID\":\"446ae831-e601-46dc-8dfe-59713ffa7b7e\",\"発生年度\":2020}]]]","last_polygon_uuid":"289aefe6-ba9b-4229-bd80-10f08ce6e2a2","prev_last_polygon_uuid":"35eeeb93-723a-43af-ba9f-bc218ab28bc1","local_government_cd":"013439","point_lng":140.800355539,"point_lat":42.062181988}},{"arcs":[[56]],"type":"Polygon","properties":{"polygon_uuid":"73e95310-f634-446e-8b65-57041030775c","land_type":200,"issue_year":2024,"edit_year":2020,"history":"[{\"筆ポリゴンID\":\"38fedca4-c34f-4dbd-8070-14fa8d43f7e3\",\"更新年度\":2023,\"前年同一\":true},[{\"筆ポリゴンID\":\"a4f2f497-5106-48b6-b73b-2a02eca8131f\",\"更新年度\":2022,\"前年同一\":true},[{\"筆ポリゴンID\":\"92f6a236-6c2c-4ccd-a175-7bfab26ccec4\",\"更新年度\":2021,\"前年同一\":true},{\"筆ポリゴンID\":\"92f6a236-6c2c-4ccd-a175-7bfab26ccec4\",\"発生年度\":2020}]]]","last_polygon_uuid":"38fedca4-c34f-4dbd-8070-14fa8d43f7e3","prev_last_polygon_uuid":"a4f2f497-5106-48b6-b73b-2a02eca8131f","local_government_cd":"013439","point_lng":140.806594404,"point_lat":42.051243377}},{"arcs":[[57]],"type":"Polygon","properties":{"polygon_uuid":"ae1be410-23b5-42cc-a38c-ba5fbdc32f1e","land_type":200,"issue_year":2024,"edit_year":2020,"history":"[{\"筆ポリゴンID\":\"5510a79a-0e4a-416b-afe3-3b402904e85c\",\"更新年度\":2023,\"前年同一\":true},[{\"筆ポリゴンID\":\"3fe96cf9-357a-4887-9798-864a6c397a46\",\"更新年度\":2022,\"前年同一\":true},[{\"筆ポリゴンID\":\"0e233121-c2e8-46c1-9338-a231d29e1aeb\",\"更新年度\":2021,\"前年同一\":true},{\"筆ポリゴンID\":\"0e233121-c2e8-46c1-9338-a231d29e1aeb\",\"発生年度\":2020}]]]","last_polygon_uuid":"5510a79a-0e4a-416b-afe3-3b402904e85c","prev_last_polygon_uuid":"3fe96cf9-357a-4887-9798-864a6c397a46","local_government_cd":"013439","point_lng":140.810499924,"point_lat":42.041968946}},{"arcs":[[58]],"type":"Polygon","properties":{"polygon_uuid":"45233746-5f18-41cf-8565-e98fe4ef3574","land_type":200,"issue_year":2024,"edit_year":2020,"history":"[{\"筆ポリゴンID\":\"f65caf88-4d5e-4ff0-84cb-2a608a41ca87\",\"更新年度\":2023,\"前年同一\":true},[{\"筆ポリゴンID\":\"f71d0147-bbab-4c30-9317-3b078256e27f\",\"更新年度\":2022,\"前年同一\":true},[{\"筆ポリゴンID\":\"a282aa3d-ca37-40ab-86c2-58824daff5ec\",\"更新年度\":2021,\"前年同一\":true},{\"筆ポリゴンID\":\"a282aa3d-ca37-40ab-86c2-58824daff5ec\",\"発生年度\":2020}]]]","last_polygon_uuid":"f65caf88-4d5e-4ff0-84cb-2a608a41ca87","prev_last_polygon_uuid":"f71d0147-bbab-4c30-9317-3b078256e27f","local_government_cd":"013439","point_lng":140.805078715,"point_lat":42.035458007}},{"arcs":[[59]],"type":"Polygon","properties":{"polygon_uuid":"1345a6ca-73be-433d-9b73-3734e0691c6c","land_type":200,"issue_year":2024,"edit_year":2020,"history":"[{\"筆ポリゴンID\":\"b502ab54-1f8b-4ed5-a469-da0fd0efb5d9\",\"更新年度\":2023,\"前年同一\":true},[{\"筆ポリゴンID\":\"10ee89af-a697-4a7a-9fa5-ec86a872a083\",\"更新年度\":2022,\"前年同一\":true},[{\"筆ポリゴンID\":\"5f2d9490-490c-48f4-9643-d6c056b9759b\",\"更新年度\":2021,\"前年同一\":true},{\"筆ポリゴンID\":\"5f2d9490-490c-48f4-9643-d6c056b9759b\",\"発生年度\":2020}]]]","last_polygon_uuid":"b502ab54-1f8b-4ed5-a469-da0fd0efb5d9","prev_last_polygon_uuid":"10ee89af-a697-4a7a-9fa5-ec86a872a083","local_government_cd":"013439","point_lng":140.81572156,"point_lat":42.033077189}},{"arcs":[[60]],"type":"Polygon","properties":{"polygon_uuid":"d83d2cde-7dbe-4b39-b510-542596922a95","land_type":200,"issue_year":2024,"edit_year":2020,"history":"[{\"筆ポリゴンID\":\"efbfe55e-764c-4d64-93bc-44b94ad2fd55\",\"更新年度\":2023,\"前年同一\":true},[{\"筆ポリゴンID\":\"fc6fca25-09f9-402e-916a-286ad29293c7\",\"更新年度\":2022,\"前年同一\":true},[{\"筆ポリゴンID\":\"40291bbc-0aa8-4fa6-8252-7e995becc8ae\",\"更新年度\":2021,\"前年同一\":true},{\"筆ポリゴンID\":\"40291bbc-0aa8-4fa6-8252-7e995becc8ae\",\"発生年度\":2020}]]]","last_polygon_uuid":"efbfe55e-764c-4d64-93bc-44b94ad2fd55","prev_last_polygon_uuid":"fc6fca25-09f9-402e-916a-286ad29293c7","local_government_cd":"013439","point_lng":140.813828198,"point_lat":42.039919778}},{"arcs":[[61]],"type":"Polygon","properties":{"polygon_uuid":"6e40d491-4443-42dc-b5a1-6641160dd743","land_type":200,"issue_year":2024,"edit_year":2020,"history":"[{\"筆ポリゴンID\":\"93bec520-a147-4c45-b9ef-b438359a1c28\",\"更新年度\":2023,\"前年同一\":true},[{\"筆ポリゴンID\":\"1573f7a8-7399-4cd0-957f-1449fd2c6c49\",\"更新年度\":2022,\"前年同一\":true},[{\"筆ポリゴンID\":\"000e2fa4-2745-4ebf-80b1-ebd4446afa86\",\"更新年度\":2021,\"前年同一\":true},{\"筆ポリゴンID\":\"000e2fa4-2745-4ebf-80b1-ebd4446afa86\",\"発生年度\":2020}]]]","last_polygon_uuid":"93bec520-a147-4c45-b9ef-b438359a1c28","prev_last_polygon_uuid":"1573f7a8-7399-4cd0-957f-1449fd2c6c49","local_government_cd":"013439","point_lng":140.809332763,"point_lat":42.049944696}},{"arcs":[[62]],"type":"Polygon","properties":{"polygon_uuid":"96f61c30-2059-413b-a838-1ae6f720308a","land_type":200,"issue_year":2024,"edit_year":2020,"history":"[{\"筆ポリゴンID\":\"0154e81e-0cd4-4826-ae84-00fd74b4a0d6\",\"更新年度\":2023,\"前年同一\":true},[{\"筆ポリゴンID\":\"685c5b11-9da4-4326-99e8-2d34f7bbb4d5\",\"更新年度\":2022,\"前年同一\":true},[{\"筆ポリゴンID\":\"4f236495-fcb5-4609-b0e5-9bb70036f637\",\"更新年度\":2021,\"前年同一\":true},{\"筆ポリゴンID\":\"4f236495-fcb5-4609-b0e5-9bb70036f637\",\"発生年度\":2020}]]]","last_polygon_uuid":"0154e81e-0cd4-4826-ae84-00fd74b4a0d6","prev_last_polygon_uuid":"685c5b11-9da4-4326-99e8-2d34f7bbb4d5","local_government_cd":"013439","point_lng":140.82265063,"point_lat":42.032458845}},{"arcs":[[63]],"type":"Polygon","properties":{"polygon_uuid":"78948d7a-1d61-4cb6-b3bb-f54d30755e83","land_type":200,"issue_year":2024,"edit_year":2020,"history":"[{\"筆ポリゴンID\":\"faf6e6e7-f6a1-476d-9f3d-844567156bea\",\"更新年度\":2023,\"前年同一\":true},[{\"筆ポリゴンID\":\"edb862e7-10f9-48c4-ab32-1fd5ea6defc1\",\"更新年度\":2022,\"前年同一\":true},[{\"筆ポリゴンID\":\"d5c4c906-2b58-45ad-81b6-614888300af8\",\"更新年度\":2021,\"前年同一\":true},{\"筆ポリゴンID\":\"d5c4c906-2b58-45ad-81b6-614888300af8\",\"発生年度\":2020}]]]","last_polygon_uuid":"faf6e6e7-f6a1-476d-9f3d-844567156bea","prev_last_polygon_uuid":"edb862e7-10f9-48c4-ab32-1fd5ea6defc1","local_government_cd":"013439","point_lng":140.812101066,"point_lat":42.03602399}},{"arcs":[[64]],"type":"Polygon","properties":{"polygon_uuid":"a2af3467-ce1d-4ee1-bcd6-d5b3ce3dce1a","land_type":200,"issue_year":2024,"edit_year":2020,"history":"[{\"筆ポリゴンID\":\"490aaaf5-7b9a-4422-9d75-76e4d0313ad3\",\"更新年度\":2023,\"前年同一\":true},[{\"筆ポリゴンID\":\"caba453b-5cff-428b-acef-a0e35bb42f7e\",\"更新年度\":2022,\"前年同一\":true},[{\"筆ポリゴンID\":\"0538b8fd-869e-4861-ba8c-e1d7e436ab0c\",\"更新年度\":2021,\"前年同一\":true},{\"筆ポリゴンID\":\"0538b8fd-869e-4861-ba8c-e1d7e436ab0c\",\"発生年度\":2020}]]]","last_polygon_uuid":"490aaaf5-7b9a-4422-9d75-76e4d0313ad3","prev_last_polygon_uuid":"caba453b-5cff-428b-acef-a0e35bb42f7e","local_government_cd":"013439","point_lng":140.834726756,"point_lat":42.023941105}},{"arcs":[[65]],"type":"Polygon","properties":{"polygon_uuid":"60e11356-6c4c-4d40-a3cd-f4059ab99f70","land_type":200,"issue_year":2024,"edit_year":2020,"history":"[{\"筆ポリゴンID\":\"5f38925f-2ac3-4645-bb0e-c9367e08e0fb\",\"更新年度\":2023,\"前年同一\":true},[{\"筆ポリゴンID\":\"49ef36bb-684e-4a63-b831-0cba6016672d\",\"更新年度\":2022,\"前年同一\":true},[{\"筆ポリゴンID\":\"56e21abe-ae5f-4e3a-b07d-1805d942ac6e\",\"更新年度\":2021,\"前年同一\":true},{\"筆ポリゴンID\":\"56e21abe-ae5f-4e3a-b07d-1805d942ac6e\",\"発生年度\":2020}]]]","last_polygon_uuid":"5f38925f-2ac3-4645-bb0e-c9367e08e0fb","prev_last_polygon_uuid":"49ef36bb-684e-4a63-b831-0cba6016672d","local_government_cd":"013439","point_lng":140.810195259,"point_lat":42.035656557}},{"arcs":[[66]],"type":"Polygon","properties":{"polygon_uuid":"044cfab1-9210-4f26-931b-bdcdfa5ef26f","land_type":200,"issue_year":2024,"edit_year":2020,"history":"[{\"筆ポリゴンID\":\"fd677790-ae49-422f-9726-11d853c451bc\",\"更新年度\":2023,\"前年同一\":true},[{\"筆ポリゴンID\":\"45846aef-48ec-4c0a-97de-1092cca74952\",\"更新年度\":2022,\"前年同一\":true},[{\"筆ポリゴンID\":\"6bc468b5-f68c-433c-88db-6ff8cadcdd7e\",\"更新年度\":2021,\"前年同一\":true},{\"筆ポリゴンID\":\"6bc468b5-f68c-433c-88db-6ff8cadcdd7e\",\"発生年度\":2020}]]]","last_polygon_uuid":"fd677790-ae49-422f-9726-11d853c451bc","prev_last_polygon_uuid":"45846aef-48ec-4c0a-97de-1092cca74952","local_government_cd":"013439","point_lng":140.785196455,"point_lat":42.079485}},{"arcs":[[67]],"type":"Polygon","properties":{"polygon_uuid":"e06a46a7-7752-4e8f-921f-4bee357b49f9","land_type":200,"issue_year":2024,"edit_year":2020,"history":"[{\"筆ポリゴンID\":\"2a5bc809-b247-4917-b956-740cf6cdd2f7\",\"更新年度\":2023,\"前年同一\":true},[{\"筆ポリゴンID\":\"ec5d6d7f-599a-4dc1-954a-4d50672e235b\",\"更新年度\":2022,\"前年同一\":true},[{\"筆ポリゴンID\":\"b916f12f-59d4-4f7e-86e5-b5c771688f3b\",\"更新年度\":2021,\"前年同一\":true},{\"筆ポリゴンID\":\"b916f12f-59d4-4f7e-86e5-b5c771688f3b\",\"発生年度\":2020}]]]","last_polygon_uuid":"2a5bc809-b247-4917-b956-740cf6cdd2f7","prev_last_polygon_uuid":"ec5d6d7f-599a-4dc1-954a-4d50672e235b","local_government_cd":"013439","point_lng":140.803218947,"point_lat":42.054308632}},{"arcs":[[68]],"type":"Polygon","properties":{"polygon_uuid":"ec6c586b-b25a-4ece-bd5d-fe9301219470","land_type":200,"issue_year":2024,"edit_year":2020,"history":"[{\"筆ポリゴンID\":\"bc1a2d4e-ed9f-4402-a948-8f64be27c322\",\"更新年度\":2023,\"前年同一\":true},[{\"筆ポリゴンID\":\"20da2406-c6f5-4321-b7c5-5cd228d3f60a\",\"更新年度\":2022,\"前年同一\":true},[{\"筆ポリゴンID\":\"7a451e8e-1dbb-4979-a3e0-c92a5e339216\",\"更新年度\":2021,\"前年同一\":true},{\"筆ポリゴンID\":\"7a451e8e-1dbb-4979-a3e0-c92a5e339216\",\"発生年度\":2020}]]]","last_polygon_uuid":"bc1a2d4e-ed9f-4402-a948-8f64be27c322","prev_last_polygon_uuid":"20da2406-c6f5-4321-b7c5-5cd228d3f60a","local_government_cd":"013439","point_lng":140.802842205,"point_lat":42.053695151}},{"arcs":[[69]],"type":"Polygon","properties":{"polygon_uuid":"497d2fa1-9a58-4729-a1d4-9aae9a8028df","land_type":200,"issue_year":2024,"edit_year":2020,"history":"[{\"筆ポリゴンID\":\"60d46ee3-6243-4783-ab5e-3bd9057b79e2\",\"更新年度\":2023,\"前年同一\":true},[{\"筆ポリゴンID\":\"27b41d09-6964-4cb0-83a6-6afaf4941361\",\"更新年度\":2022,\"前年同一\":true},[{\"筆ポリゴンID\":\"c17d7976-db12-4f91-8825-e4c9a2222b99\",\"更新年度\":2021,\"前年同一\":true},{\"筆ポリゴンID\":\"c17d7976-db12-4f91-8825-e4c9a2222b99\",\"発生年度\":2020}]]]","last_polygon_uuid":"60d46ee3-6243-4783-ab5e-3bd9057b79e2","prev_last_polygon_uuid":"27b41d09-6964-4cb0-83a6-6afaf4941361","local_government_cd":"013439","point_lng":140.781227909,"point_lat":42.072413836}},{"arcs":[[70]],"type":"Polygon","properties":{"polygon_uuid":"4c4fcc47-944a-4c48-af3d-53d47d25120c","land_type":200,"issue_year":2024,"edit_year":2020,"history":"[{\"筆ポリゴンID\":\"4904ee49-6e65-4e24-b473-ae2b220a55fa\",\"更新年度\":2023,\"前年同一\":true},[{\"筆ポリゴンID\":\"ce2d27d5-30e3-4ca3-9b65-9dd545f16a54\",\"更新年度\":2022,\"前年同一\":true},[{\"筆ポリゴンID\":\"5854a91a-1e23-4380-b8a5-4402e3273641\",\"更新年度\":2021,\"前年同一\":true},{\"筆ポリゴンID\":\"5854a91a-1e23-4380-b8a5-4402e3273641\",\"発生年度\":2020}]]]","last_polygon_uuid":"4904ee49-6e65-4e24-b473-ae2b220a55fa","prev_last_polygon_uuid":"ce2d27d5-30e3-4ca3-9b65-9dd545f16a54","local_government_cd":"013439","point_lng":140.803625678,"point_lat":42.052706056}},{"arcs":[[71]],"type":"Polygon","properties":{"polygon_uuid":"e57840d4-3935-4cb7-a10f-3af27a10b3a6","land_type":200,"issue_year":2024,"edit_year":2020,"history":"[{\"筆ポリゴンID\":\"1f51381d-e7d1-4cf4-9edf-d1c05064a863\",\"更新年度\":2023,\"前年同一\":true},[{\"筆ポリゴンID\":\"3df2c9a8-f185-4ece-9dd0-c905038be31a\",\"更新年度\":2022,\"前年同一\":true},[{\"筆ポリゴンID\":\"7377b19c-feb5-40d6-a3fd-386881769e3b\",\"更新年度\":2021,\"前年同一\":true},{\"筆ポリゴンID\":\"7377b19c-feb5-40d6-a3fd-386881769e3b\",\"発生年度\":2020}]]]","last_polygon_uuid":"1f51381d-e7d1-4cf4-9edf-d1c05064a863","prev_last_polygon_uuid":"3df2c9a8-f185-4ece-9dd0-c905038be31a","local_government_cd":"013439","point_lng":140.812579049,"point_lat":42.043978694}},{"arcs":[[72]],"type":"Polygon","properties":{"polygon_uuid":"8f5ac654-0dd6-4005-980b-7d8316e62a77","land_type":200,"issue_year":2024,"edit_year":2020,"history":"[{\"筆ポリゴンID\":\"4aebd217-9b63-4fca-8186-03395f61185d\",\"更新年度\":2023,\"前年同一\":true},[{\"筆ポリゴンID\":\"8132b085-9523-428d-80c7-754095c6e9d8\",\"更新年度\":2022,\"前年同一\":true},[{\"筆ポリゴンID\":\"d276d3a7-3078-4e81-82a6-5bed18fca869\",\"更新年度\":2021,\"前年同一\":true},{\"筆ポリゴンID\":\"d276d3a7-3078-4e81-82a6-5bed18fca869\",\"発生年度\":2020}]]]","last_polygon_uuid":"4aebd217-9b63-4fca-8186-03395f61185d","prev_last_polygon_uuid":"8132b085-9523-428d-80c7-754095c6e9d8","local_government_cd":"013439","point_lng":140.782852075,"point_lat":42.080615029}},{"arcs":[[73]],"type":"Polygon","properties":{"polygon_uuid":"eb64160a-5d8e-4da6-bc4e-a7d55df51eeb","land_type":200,"issue_year":2024,"edit_year":2020,"history":"[{\"筆ポリゴンID\":\"a658e6c2-4a6f-4834-85c9-d41211347149\",\"更新年度\":2023,\"前年同一\":true},[{\"筆ポリゴンID\":\"46e70aba-07df-44ed-a63e-b30ad40039b0\",\"更新年度\":2022,\"前年同一\":true},[{\"筆ポリゴンID\":\"7885f3a1-4b6f-479f-b7be-508d355cea72\",\"更新年度\":2021,\"前年同一\":true},{\"筆ポリゴンID\":\"7885f3a1-4b6f-479f-b7be-508d355cea72\",\"発生年度\":2020}]]]","last_polygon_uuid":"a658e6c2-4a6f-4834-85c9-d41211347149","prev_last_polygon_uuid":"46e70aba-07df-44ed-a63e-b30ad40039b0","local_government_cd":"013439","point_lng":140.786746184,"point_lat":42.038178103}},{"arcs":[[74]],"type":"Polygon","properties":{"polygon_uuid":"6638455a-0724-43b4-a9ea-1793b1956acd","land_type":200,"issue_year":2024,"edit_year":2020,"history":"[{\"筆ポリゴンID\":\"b155aa18-d6fc-4b70-bff4-499e2f11c20e\",\"更新年度\":2023,\"前年同一\":true},[{\"筆ポリゴンID\":\"66b6d9f4-449f-46a2-a3c5-d2fb49c9249a\",\"更新年度\":2022,\"前年同一\":true},[{\"筆ポリゴンID\":\"b3b874a2-a5c0-446e-a494-60554736c2b6\",\"更新年度\":2021,\"前年同一\":true},{\"筆ポリゴンID\":\"b3b874a2-a5c0-446e-a494-60554736c2b6\",\"発生年度\":2020}]]]","last_polygon_uuid":"b155aa18-d6fc-4b70-bff4-499e2f11c20e","prev_last_polygon_uuid":"66b6d9f4-449f-46a2-a3c5-d2fb49c9249a","local_government_cd":"013439","point_lng":140.808906187,"point_lat":42.040878886}},{"arcs":[[75]],"type":"Polygon","properties":{"polygon_uuid":"80d8d931-ade6-4f39-83ad-aedf931c26df","land_type":200,"issue_year":2024,"edit_year":2020,"history":"[{\"筆ポリゴンID\":\"a1681394-30db-40a5-a0fb-1434534a9804\",\"更新年度\":2023,\"前年同一\":true},[{\"筆ポリゴンID\":\"1091c31c-e0fc-4797-ac1f-9c3f90cb061e\",\"更新年度\":2022,\"前年同一\":true},[{\"筆ポリゴンID\":\"f35d5ab2-be1a-4429-a28b-9638d11fbc74\",\"更新年度\":2021,\"前年同一\":true},{\"筆ポリゴンID\":\"f35d5ab2-be1a-4429-a28b-9638d11fbc74\",\"発生年度\":2020}]]]","last_polygon_uuid":"a1681394-30db-40a5-a0fb-1434534a9804","prev_last_polygon_uuid":"1091c31c-e0fc-4797-ac1f-9c3f90cb061e","local_government_cd":"013439","point_lng":140.784317542,"point_lat":42.07994706}},{"arcs":[[76]],"type":"Polygon","properties":{"polygon_uuid":"775366ec-ec54-4e50-b45b-571255cdfebf","land_type":200,"issue_year":2024,"edit_year":2020,"history":"[{\"筆ポリゴンID\":\"fe23e7b8-5968-4242-b283-e47b58378758\",\"更新年度\":2023,\"前年同一\":true},[{\"筆ポリゴンID\":\"6983b1ac-fe35-4d5b-a3a4-e790949c50e1\",\"更新年度\":2022,\"前年同一\":true},[{\"筆ポリゴンID\":\"7042e295-ac34-444f-9530-c14cac8b0571\",\"更新年度\":2021,\"前年同一\":true},{\"筆ポリゴンID\":\"7042e295-ac34-444f-9530-c14cac8b0571\",\"発生年度\":2020}]]]","last_polygon_uuid":"fe23e7b8-5968-4242-b283-e47b58378758","prev_last_polygon_uuid":"6983b1ac-fe35-4d5b-a3a4-e790949c50e1","local_government_cd":"013439","point_lng":140.805813468,"point_lat":42.051964081}},{"arcs":[[77]],"type":"Polygon","properties":{"polygon_uuid":"df333214-ee1a-4fbf-a74f-6e653e6a32a8","land_type":200,"issue_year":2024,"edit_year":2020,"history":"[{\"筆ポリゴンID\":\"ffcc35eb-dacd-41d5-a7b0-2e4bb48b422c\",\"更新年度\":2023,\"前年同一\":true},[{\"筆ポリゴンID\":\"1115f749-6fdb-4aea-bcd0-7096a9e373ac\",\"更新年度\":2022,\"前年同一\":true},[{\"筆ポリゴンID\":\"d0bd9aaa-2c75-4959-a92e-f92ef749f7ed\",\"更新年度\":2021,\"前年同一\":true},{\"筆ポリゴンID\":\"d0bd9aaa-2c75-4959-a92e-f92ef749f7ed\",\"発生年度\":2020}]]]","last_polygon_uuid":"ffcc35eb-dacd-41d5-a7b0-2e4bb48b422c","prev_last_polygon_uuid":"1115f749-6fdb-4aea-bcd0-7096a9e373ac","local_government_cd":"013439","point_lng":140.813933514,"point_lat":42.040168623}},{"arcs":[[78]],"type":"Polygon","properties":{"polygon_uuid":"b6014c58-bd1e-482d-a3b8-2fdc09ea27f7","land_type":200,"issue_year":2024,"edit_year":2020,"history":"[{\"筆ポリゴンID\":\"4e8efef7-e889-4a73-9be0-57660fd3d61b\",\"更新年度\":2023,\"前年同一\":true},[{\"筆ポリゴンID\":\"63100252-4161-493f-92f1-778bd39f78b8\",\"更新年度\":2022,\"前年同一\":true},[{\"筆ポリゴンID\":\"cb69bbd8-364d-4f97-a012-9e555a8ee209\",\"更新年度\":2021,\"前年同一\":true},{\"筆ポリゴンID\":\"cb69bbd8-364d-4f97-a012-9e555a8ee209\",\"発生年度\":2020}]]]","last_polygon_uuid":"4e8efef7-e889-4a73-9be0-57660fd3d61b","prev_last_polygon_uuid":"63100252-4161-493f-92f1-778bd39f78b8","local_government_cd":"013439","point_lng":140.764777637,"point_lat":42.074373839}},{"arcs":[[79]],"type":"Polygon","properties":{"polygon_uuid":"6e699a98-2c6a-4448-be27-36a83132da92","land_type":200,"issue_year":2024,"edit_year":2021,"history":"[{\"筆ポリゴンID\":\"ac2799e1-c66a-475b-a936-3f02d636d3b6\",\"更新年度\":2023,\"前年同一\":true},[{\"筆ポリゴンID\":\"5a906626-d8ef-41c4-931d-5984f1e73ee5\",\"更新年度\":2022,\"前年同一\":true},[{\"筆ポリゴンID\":\"8585c6f7-5909-4a49-bf69-b084e6b33e07\",\"更新年度\":2021,\"関連\":true},{\"筆ポリゴンID\":\"8585c6f7-5909-4a49-bf69-b084e6b33e07\",\"発生年度\":2020}]]]","last_polygon_uuid":"ac2799e1-c66a-475b-a936-3f02d636d3b6","prev_last_polygon_uuid":"5a906626-d8ef-41c4-931d-5984f1e73ee5","local_government_cd":"013439","point_lng":140.840005934,"point_lat":42.019474279}},{"arcs":[[80,-28]],"type":"Polygon","properties":{"polygon_uuid":"469ec27b-6b98-4878-8c83-06baf1fb9aa6","land_type":200,"issue_year":2024,"edit_year":2021,"history":"[{\"筆ポリゴンID\":\"36c321c1-c8c1-4890-8309-f46abf44da1b\",\"更新年度\":2023,\"前年同一\":true},[{\"筆ポリゴンID\":\"015bd351-de62-40ad-9885-42d849442141\",\"更新年度\":2022,\"前年同一\":true},[{\"筆ポリゴンID\":\"b841aed6-f492-4dea-aefe-a86e9dc3f3eb\",\"更新年度\":2021,\"関連\":true},{\"筆ポリゴンID\":\"b841aed6-f492-4dea-aefe-a86e9dc3f3eb\",\"発生年度\":2020}]]]","last_polygon_uuid":"36c321c1-c8c1-4890-8309-f46abf44da1b","prev_last_polygon_uuid":"015bd351-de62-40ad-9885-42d849442141","local_government_cd":"013439","point_lng":140.783474959,"point_lat":42.047031825}},{"arcs":[[-34,81,-16,82]],"type":"Polygon","properties":{"polygon_uuid":"885aa1e0-660e-4ec9-91b6-f04ef084f5d6","land_type":200,"issue_year":2024,"edit_year":2021,"history":"[{\"筆ポリゴンID\":\"0ec28fcb-c5ce-40f1-8092-358a4313e2c8\",\"更新年度\":2023,\"前年同一\":true},[{\"筆ポリゴンID\":\"1073e132-da17-44b1-97cb-423b4632b2ef\",\"更新年度\":2022,\"前年同一\":true},[{\"筆ポリゴンID\":\"d0ff7387-7c7d-408b-bba0-535511fab52d\",\"更新年度\":2021,\"関連\":true},{\"筆ポリゴンID\":\"d0ff7387-7c7d-408b-bba0-535511fab52d\",\"発生年度\":2020}]]]","last_polygon_uuid":"0ec28fcb-c5ce-40f1-8092-358a4313e2c8","prev_last_polygon_uuid":"1073e132-da17-44b1-97cb-423b4632b2ef","local_government_cd":"013439","point_lng":140.78131367,"point_lat":42.038589909}},{"arcs":[[83]],"type":"Polygon","properties":{"polygon_uuid":"1e810287-8240-4e9b-93d5-b1901072363c","land_type":200,"issue_year":2024,"edit_year":2021,"history":"[{\"筆ポリゴンID\":\"e1f0eaaa-0304-42bc-a3a0-c47b129d71ca\",\"更新年度\":2023,\"前年同一\":true},[{\"筆ポリゴンID\":\"7b0efec7-1445-4642-9a5f-a937bfbc980a\",\"更新年度\":2022,\"前年同一\":true},[[{\"筆ポリゴンID\":\"8244b6f7-25aa-4b50-926d-5afe3bb3ea2f\",\"更新年度\":2021,\"関連\":true},{\"筆ポリゴンID\":\"8244b6f7-25aa-4b50-926d-5afe3bb3ea2f\",\"発生年度\":2020}],[{\"筆ポリゴンID\":\"97107da3-744f-4b8a-9ca6-1b1962c79286\",\"更新年度\":2021,\"関連\":true},{\"筆ポリゴンID\":\"97107da3-744f-4b8a-9ca6-1b1962c79286\",\"発生年度\":2020}]]]]","last_polygon_uuid":"e1f0eaaa-0304-42bc-a3a0-c47b129d71ca","prev_last_polygon_uuid":"7b0efec7-1445-4642-9a5f-a937bfbc980a","local_government_cd":"013439","point_lng":140.795036895,"point_lat":42.041954914}},{"arcs":[[-41,84],[85]],"type":"Polygon","properties":{"polygon_uuid":"a22c276c-7cdf-4cf3-a9ad-972a466ee645","land_type":200,"issue_year":2024,"edit_year":2021,"history":"[{\"筆ポリゴンID\":\"113593b5-5c58-49c4-aed4-c4eb3a7eec23\",\"更新年度\":2023,\"前年同一\":true},[{\"筆ポリゴンID\":\"1ca4b15e-44db-4f57-bc72-a5c024268b95\",\"更新年度\":2022,\"前年同一\":true},[[{\"筆ポリゴンID\":\"5964c909-f574-4747-be2c-3ad47f45596e\",\"更新年度\":2021,\"関連\":true},{\"筆ポリゴンID\":\"5964c909-f574-4747-be2c-3ad47f45596e\",\"発生年度\":2020}],[{\"筆ポリゴンID\":\"76ef7d62-ac62-4761-a0d2-896b2775eb79\",\"更新年度\":2021,\"関連\":true},{\"筆ポリゴンID\":\"76ef7d62-ac62-4761-a0d2-896b2775eb79\",\"発生年度\":2020}]]]]","last_polygon_uuid":"113593b5-5c58-49c4-aed4-c4eb3a7eec23","prev_last_polygon_uuid":"1ca4b15e-44db-4f57-bc72-a5c024268b95","local_government_cd":"013439","point_lng":140.784649116,"point_lat":42.043162966}},{"arcs":[[-32,86,-30,87]],"type":"Polygon","properties":{"polygon_uuid":"91f6f7ec-4361-485e-be19-b33ca0823b46","land_type":200,"issue_year":2024,"edit_year":2021,"history":"[{\"筆ポリゴンID\":\"835f265d-547e-4643-9789-dccce812ab4b\",\"更新年度\":2023,\"前年同一\":true},[{\"筆ポリゴンID\":\"8f955126-6601-449c-8a41-56245b239d70\",\"更新年度\":2022,\"前年同一\":true},[{\"筆ポリゴンID\":\"4a3cc734-fa09-416f-83a8-fdbd95f3028a\",\"更新年度\":2021,\"関連\":true},{\"筆ポリゴンID\":\"4a3cc734-fa09-416f-83a8-fdbd95f3028a\",\"発生年度\":2020}]]]","last_polygon_uuid":"835f265d-547e-4643-9789-dccce812ab4b","prev_last_polygon_uuid":"8f955126-6601-449c-8a41-56245b239d70","local_government_cd":"013439","point_lng":140.778256402,"point_lat":42.048621727}},{"arcs":[[88]],"type":"Polygon","properties":{"polygon_uuid":"b5426fae-8955-44b4-a78c-ccb51ad4681a","land_type":200,"issue_year":2024,"edit_year":2020,"history":"[{\"筆ポリゴンID\":\"07bc9ab9-a3bd-4a5f-9bd2-0878412a29e0\",\"更新年度\":2023,\"前年同一\":true},[{\"筆ポリゴンID\":\"0b9523b6-c77f-4698-9a94-cbb592d02611\",\"更新年度\":2022,\"前年同一\":true},[{\"筆ポリゴンID\":\"6c29b96d-a04a-40b4-8fbc-9d365a2503af\",\"更新年度\":2021,\"前年同一\":true},{\"筆ポリゴンID\":\"6c29b96d-a04a-40b4-8fbc-9d365a2503af\",\"発生年度\":2020}]]]","last_polygon_uuid":"07bc9ab9-a3bd-4a5f-9bd2-0878412a29e0","prev_last_polygon_uuid":"0b9523b6-c77f-4698-9a94-cbb592d02611","local_government_cd":"013439","point_lng":140.734254718,"point_lat":42.008093728}},{"arcs":[[89]],"type":"Polygon","properties":{"polygon_uuid":"3f3fc22a-298e-4105-8bec-5e1c9ad147c1","land_type":200,"issue_year":2024,"edit_year":2020,"history":"[{\"筆ポリゴンID\":\"202a4c35-6758-4b19-90af-cb132436e0f7\",\"更新年度\":2023,\"前年同一\":true},[{\"筆ポリゴンID\":\"7acef27f-aa51-4cf1-8d4d-4d540c63368e\",\"更新年度\":2022,\"前年同一\":true},[{\"筆ポリゴンID\":\"5d46d41c-aeca-46b3-b8b3-cd62e3236ac3\",\"更新年度\":2021,\"前年同一\":true},{\"筆ポリゴンID\":\"5d46d41c-aeca-46b3-b8b3-cd62e3236ac3\",\"発生年度\":2020}]]]","last_polygon_uuid":"202a4c35-6758-4b19-90af-cb132436e0f7","prev_last_polygon_uuid":"7acef27f-aa51-4cf1-8d4d-4d540c63368e","local_government_cd":"013439","point_lng":140.751183779,"point_lat":42.006967952}},{"arcs":[[90,91]],"type":"Polygon","properties":{"polygon_uuid":"7eea49f7-9f56-4197-98b0-693f918c8394","land_type":200,"issue_year":2024,"edit_year":2020,"history":"[{\"筆ポリゴンID\":\"23e2f69d-9be1-46ad-8b00-bc3a1c2062fc\",\"更新年度\":2023,\"前年同一\":true},[{\"筆ポリゴンID\":\"69b5dc34-0d5a-40fd-8c44-54c8f60dd357\",\"更新年度\":2022,\"前年同一\":true},[{\"筆ポリゴンID\":\"7bb2a1eb-f7c6-46e8-b18f-5a3d870d98f1\",\"更新年度\":2021,\"前年同一\":true},{\"筆ポリゴンID\":\"7bb2a1eb-f7c6-46e8-b18f-5a3d870d98f1\",\"発生年度\":2020}]]]","last_polygon_uuid":"23e2f69d-9be1-46ad-8b00-bc3a1c2062fc","prev_last_polygon_uuid":"69b5dc34-0d5a-40fd-8c44-54c8f60dd357","local_government_cd":"013439","point_lng":140.760578376,"point_lat":42.007714093}},{"arcs":[[92,93]],"type":"Polygon","properties":{"polygon_uuid":"641bfc96-5f96-42c9-8fb6-01f9d7c665d1","land_type":200,"issue_year":2024,"edit_year":2020,"history":"[{\"筆ポリゴンID\":\"c452d22c-8c6c-4d3c-9e41-883c563ce6e6\",\"更新年度\":2023,\"前年同一\":true},[{\"筆ポリゴンID\":\"33ca5783-1030-4ff4-a54e-7367f494d7fc\",\"更新年度\":2022,\"前年同一\":true},[{\"筆ポリゴンID\":\"929eb0a2-1704-479c-bfa2-04b7195d563c\",\"更新年度\":2021,\"前年同一\":true},{\"筆ポリゴンID\":\"929eb0a2-1704-479c-bfa2-04b7195d563c\",\"発生年度\":2020}]]]","last_polygon_uuid":"c452d22c-8c6c-4d3c-9e41-883c563ce6e6","prev_last_polygon_uuid":"33ca5783-1030-4ff4-a54e-7367f494d7fc","local_government_cd":"013439","point_lng":140.751068097,"point_lat":42.008337424}},{"arcs":[[94]],"type":"Polygon","properties":{"polygon_uuid":"8026166e-2638-4d2f-9e0f-a6ed79d65ec7","land_type":200,"issue_year":2024,"edit_year":2020,"history":"[{\"筆ポリゴンID\":\"6a9c20d3-abf2-4057-89a1-79c54b941425\",\"更新年度\":2023,\"前年同一\":true},[{\"筆ポリゴンID\":\"541a5821-a004-4ff0-8f75-1e6f59adf312\",\"更新年度\":2022,\"前年同一\":true},[{\"筆ポリゴンID\":\"bb7d6ed3-bde1-4a5d-b92b-30f26bdcf0c8\",\"更新年度\":2021,\"前年同一\":true},{\"筆ポリゴンID\":\"bb7d6ed3-bde1-4a5d-b92b-30f26bdcf0c8\",\"発生年度\":2020}]]]","last_polygon_uuid":"6a9c20d3-abf2-4057-89a1-79c54b941425","prev_last_polygon_uuid":"541a5821-a004-4ff0-8f75-1e6f59adf312","local_government_cd":"013439","point_lng":140.757453872,"point_lat":42.009427841}},{"arcs":[[-91,95]],"type":"Polygon","properties":{"polygon_uuid":"316a342a-4afd-4301-acf0-02e5c5c50aa6","land_type":200,"issue_year":2024,"edit_year":2020,"history":"[{\"筆ポリゴンID\":\"ffdbc6a4-f191-4302-ab8d-25fde63cf2d0\",\"更新年度\":2023,\"前年同一\":true},[{\"筆ポリゴンID\":\"04ebffde-3448-444e-b720-204b3c9a4d42\",\"更新年度\":2022,\"前年同一\":true},[{\"筆ポリゴンID\":\"8c782329-c0f6-4332-b2d6-8410ce0c60e7\",\"更新年度\":2021,\"前年同一\":true},{\"筆ポリゴンID\":\"8c782329-c0f6-4332-b2d6-8410ce0c60e7\",\"発生年度\":2020}]]]","last_polygon_uuid":"ffdbc6a4-f191-4302-ab8d-25fde63cf2d0","prev_last_polygon_uuid":"04ebffde-3448-444e-b720-204b3c9a4d42","local_government_cd":"013439","point_lng":140.764312416,"point_lat":42.007149158}},{"arcs":[[96]],"type":"Polygon","properties":{"polygon_uuid":"3fe44bf7-cf28-4df7-ba80-cc61cded41d9","land_type":200,"issue_year":2024,"edit_year":2020,"history":"[{\"筆ポリゴンID\":\"0c404641-7bb3-4637-a9ec-034281a2f2e9\",\"更新年度\":2023,\"前年同一\":true},[{\"筆ポリゴンID\":\"1014c2ec-37be-4473-acf0-90b334a520e5\",\"更新年度\":2022,\"前年同一\":true},[{\"筆ポリゴンID\":\"767f22a2-8255-43b4-955b-727b5163d57a\",\"更新年度\":2021,\"前年同一\":true},{\"筆ポリゴンID\":\"767f22a2-8255-43b4-955b-727b5163d57a\",\"発生年度\":2020}]]]","last_polygon_uuid":"0c404641-7bb3-4637-a9ec-034281a2f2e9","prev_last_polygon_uuid":"1014c2ec-37be-4473-acf0-90b334a520e5","local_government_cd":"013439","point_lng":140.75330326,"point_lat":42.00824384}},{"arcs":[[97]],"type":"Polygon","properties":{"polygon_uuid":"7705b14d-d1ab-42c7-9e33-0d6ac64cf20d","land_type":200,"issue_year":2024,"edit_year":2020,"history":"[{\"筆ポリゴンID\":\"b3ab3b53-c10c-48b2-a58b-a8c528069f06\",\"更新年度\":2023,\"前年同一\":true},[{\"筆ポリゴンID\":\"c94374a0-5766-4fec-8fd1-f02d052c74ae\",\"更新年度\":2022,\"前年同一\":true},[{\"筆ポリゴンID\":\"379bc976-f86d-45a3-a6dd-1ef51eb3b9ea\",\"更新年度\":2021,\"前年同一\":true},{\"筆ポリゴンID\":\"379bc976-f86d-45a3-a6dd-1ef51eb3b9ea\",\"発生年度\":2020}]]]","last_polygon_uuid":"b3ab3b53-c10c-48b2-a58b-a8c528069f06","prev_last_polygon_uuid":"c94374a0-5766-4fec-8fd1-f02d052c74ae","local_government_cd":"013439","point_lng":140.757518457,"point_lat":42.008206465}},{"arcs":[[98]],"type":"Polygon","properties":{"polygon_uuid":"00b4561d-7014-46de-b216-d789219e29f2","land_type":200,"issue_year":2024,"edit_year":2020,"history":"[{\"筆ポリゴンID\":\"435e25a9-f993-4960-9db1-67fe9dc1fdf8\",\"更新年度\":2023,\"前年同一\":true},[{\"筆ポリゴンID\":\"cee65fbb-1c13-4084-8b8a-adf93ee9cb6e\",\"更新年度\":2022,\"前年同一\":true},[{\"筆ポリゴンID\":\"f92ec467-be93-422d-9f89-489b328ebb46\",\"更新年度\":2021,\"前年同一\":true},{\"筆ポリゴンID\":\"f92ec467-be93-422d-9f89-489b328ebb46\",\"発生年度\":2020}]]]","last_polygon_uuid":"435e25a9-f993-4960-9db1-67fe9dc1fdf8","prev_last_polygon_uuid":"cee65fbb-1c13-4084-8b8a-adf93ee9cb6e","local_government_cd":"013439","point_lng":140.747184791,"point_lat":42.006831246}},{"arcs":[[99]],"type":"Polygon","properties":{"polygon_uuid":"8c52e7e2-9369-4625-9bf1-b2ca03e8cfef","land_type":200,"issue_year":2024,"edit_year":2020,"history":"[{\"筆ポリゴンID\":\"3809d5fb-3f19-4708-96f1-a76a849663ef\",\"更新年度\":2023,\"前年同一\":true},[{\"筆ポリゴンID\":\"9436e5f7-5030-464c-9459-87c7214f4131\",\"更新年度\":2022,\"前年同一\":true},[{\"筆ポリゴンID\":\"e7a64f19-5d7a-49c4-8462-c0db0fe81d35\",\"更新年度\":2021,\"前年同一\":true},{\"筆ポリゴンID\":\"e7a64f19-5d7a-49c4-8462-c0db0fe81d35\",\"発生年度\":2020}]]]","last_polygon_uuid":"3809d5fb-3f19-4708-96f1-a76a849663ef","prev_last_polygon_uuid":"9436e5f7-5030-464c-9459-87c7214f4131","local_government_cd":"013439","point_lng":140.748592483,"point_lat":42.012409571}},{"arcs":[[100]],"type":"Polygon","properties":{"polygon_uuid":"87df8b0e-fd92-4fab-99c2-ca7982be008b","land_type":200,"issue_year":2024,"edit_year":2020,"history":"[{\"筆ポリゴンID\":\"203c23f3-5bb9-425c-ab7e-d7235c351ae4\",\"更新年度\":2023,\"前年同一\":true},[{\"筆ポリゴンID\":\"0f2deb16-e403-4c76-9564-c9e1aa64df8e\",\"更新年度\":2022,\"前年同一\":true},[{\"筆ポリゴンID\":\"0e94f517-9be4-40d2-8959-5397029eb3fb\",\"更新年度\":2021,\"前年同一\":true},{\"筆ポリゴンID\":\"0e94f517-9be4-40d2-8959-5397029eb3fb\",\"発生年度\":2020}]]]","last_polygon_uuid":"203c23f3-5bb9-425c-ab7e-d7235c351ae4","prev_last_polygon_uuid":"0f2deb16-e403-4c76-9564-c9e1aa64df8e","local_government_cd":"013439","point_lng":140.73770677,"point_lat":42.00717093}},{"arcs":[[101]],"type":"Polygon","properties":{"polygon_uuid":"14bea83f-0ab7-4f09-b0e0-63d0ed5e04bf","land_type":200,"issue_year":2024,"edit_year":2020,"history":"[{\"筆ポリゴンID\":\"2521305c-c147-42be-9db8-165c343a6fda\",\"更新年度\":2023,\"前年同一\":true},[{\"筆ポリゴンID\":\"31e0fd57-0b81-4f55-a85f-de40f5bc38c4\",\"更新年度\":2022,\"前年同一\":true},[{\"筆ポリゴンID\":\"06792869-520b-483d-abda-5fcf8301f4d4\",\"更新年度\":2021,\"前年同一\":true},{\"筆ポリゴンID\":\"06792869-520b-483d-abda-5fcf8301f4d4\",\"発生年度\":2020}]]]","last_polygon_uuid":"2521305c-c147-42be-9db8-165c343a6fda","prev_last_polygon_uuid":"31e0fd57-0b81-4f55-a85f-de40f5bc38c4","local_government_cd":"013439","point_lng":140.747909918,"point_lat":42.006264608}},{"arcs":[[102,-93],[103]],"type":"Polygon","properties":{"polygon_uuid":"3b648848-ed53-4212-8178-a23da39321a4","land_type":200,"issue_year":2024,"edit_year":2020,"history":"[{\"筆ポリゴンID\":\"bcfd842e-9edd-49b4-a7a5-dff46efc68ee\",\"更新年度\":2023,\"前年同一\":true},[{\"筆ポリゴンID\":\"44129870-e35d-41da-971b-72ccf1f16564\",\"更新年度\":2022,\"前年同一\":true},[{\"筆ポリゴンID\":\"8ee9859f-2d3b-4ded-8c42-6c6186717b28\",\"更新年度\":2021,\"前年同一\":true},{\"筆ポリゴンID\":\"8ee9859f-2d3b-4ded-8c42-6c6186717b28\",\"発生年度\":2020}]]]","last_polygon_uuid":"bcfd842e-9edd-49b4-a7a5-dff46efc68ee","prev_last_polygon_uuid":"44129870-e35d-41da-971b-72ccf1f16564","local_government_cd":"013439","point_lng":140.751413661,"point_lat":42.010421206}},{"arcs":[[104]],"type":"Polygon","properties":{"polygon_uuid":"dd31dad9-2438-4b4e-9b1d-58f25f264f3a","land_type":200,"issue_year":2024,"edit_year":2020,"history":"[{\"筆ポリゴンID\":\"a4a0e23c-cccf-4c5f-9c26-3dea2f41866a\",\"更新年度\":2023,\"前年同一\":true},[{\"筆ポリゴンID\":\"bec4ac8b-bf42-4f4a-b091-c6dbf09abe97\",\"更新年度\":2022,\"前年同一\":true},[{\"筆ポリゴンID\":\"be3efc6d-030c-4973-aa4a-a08d11e9ffcd\",\"更新年度\":2021,\"前年同一\":true},{\"筆ポリゴンID\":\"be3efc6d-030c-4973-aa4a-a08d11e9ffcd\",\"発生年度\":2020}]]]","last_polygon_uuid":"a4a0e23c-cccf-4c5f-9c26-3dea2f41866a","prev_last_polygon_uuid":"bec4ac8b-bf42-4f4a-b091-c6dbf09abe97","local_government_cd":"013439","point_lng":140.748635321,"point_lat":42.00719738}},{"arcs":[[105]],"type":"Polygon","properties":{"polygon_uuid":"bd8cdfc9-449e-4694-8fa3-bc2a324d0fc8","land_type":200,"issue_year":2024,"edit_year":2020,"history":"[{\"筆ポリゴンID\":\"2984a7f0-f3ef-46fd-8c15-7b0e1356c56a\",\"更新年度\":2023,\"前年同一\":true},[{\"筆ポリゴンID\":\"6ee21179-d226-4b01-b37b-115025b656e5\",\"更新年度\":2022,\"前年同一\":true},[{\"筆ポリゴンID\":\"df640ac9-40c6-46fa-acdd-bcf536b29c77\",\"更新年度\":2021,\"前年同一\":true},{\"筆ポリゴンID\":\"df640ac9-40c6-46fa-acdd-bcf536b29c77\",\"発生年度\":2020}]]]","last_polygon_uuid":"2984a7f0-f3ef-46fd-8c15-7b0e1356c56a","prev_last_polygon_uuid":"6ee21179-d226-4b01-b37b-115025b656e5","local_government_cd":"013439","point_lng":140.739963687,"point_lat":42.007082605}},{"arcs":[[106]],"type":"Polygon","properties":{"polygon_uuid":"db59aee7-2bcd-4658-9145-b36deadce391","land_type":200,"issue_year":2024,"edit_year":2020,"history":"[{\"筆ポリゴンID\":\"067b0b9a-2e6e-4ae4-92ff-a0166dc48a36\",\"更新年度\":2023,\"前年同一\":true},[{\"筆ポリゴンID\":\"eded8472-8e5b-45f0-a04e-0694cc238c19\",\"更新年度\":2022,\"前年同一\":true},[{\"筆ポリゴンID\":\"4deaebe4-ab5a-4591-9891-a2309294ceca\",\"更新年度\":2021,\"前年同一\":true},{\"筆ポリゴンID\":\"4deaebe4-ab5a-4591-9891-a2309294ceca\",\"発生年度\":2020}]]]","last_polygon_uuid":"067b0b9a-2e6e-4ae4-92ff-a0166dc48a36","prev_last_polygon_uuid":"eded8472-8e5b-45f0-a04e-0694cc238c19","local_government_cd":"013439","point_lng":140.756066695,"point_lat":42.011198808}},{"arcs":[[107]],"type":"Polygon","properties":{"polygon_uuid":"f35bda27-1700-4e8a-adf2-964b26210ea2","land_type":200,"issue_year":2024,"edit_year":2020,"history":"[{\"筆ポリゴンID\":\"efc70c98-65fe-4a75-a48a-8761dda56646\",\"更新年度\":2023,\"前年同一\":true},[{\"筆ポリゴンID\":\"688e7b63-680e-4463-93e6-2c4137d26813\",\"更新年度\":2022,\"前年同一\":true},[{\"筆ポリゴンID\":\"eaa83bc4-08c5-41b2-a8d7-bc4d94481037\",\"更新年度\":2021,\"前年同一\":true},{\"筆ポリゴンID\":\"eaa83bc4-08c5-41b2-a8d7-bc4d94481037\",\"発生年度\":2020}]]]","last_polygon_uuid":"efc70c98-65fe-4a75-a48a-8761dda56646","prev_last_polygon_uuid":"688e7b63-680e-4463-93e6-2c4137d26813","local_government_cd":"013439","point_lng":140.741251095,"point_lat":42.006973784}},{"arcs":[[108]],"type":"Polygon","properties":{"polygon_uuid":"06867daf-8e7a-4e60-8065-aacc9f20d48e","land_type":200,"issue_year":2024,"edit_year":2020,"history":"[{\"筆ポリゴンID\":\"a5b28cb0-3438-4335-84cb-ca019d5274b0\",\"更新年度\":2023,\"前年同一\":true},[{\"筆ポリゴンID\":\"0848c342-542b-4b79-9f9f-16b753cd76b5\",\"更新年度\":2022,\"前年同一\":true},[{\"筆ポリゴンID\":\"e6e5e5ad-a36d-4cb7-9a1a-f15949b81064\",\"更新年度\":2021,\"前年同一\":true},{\"筆ポリゴンID\":\"e6e5e5ad-a36d-4cb7-9a1a-f15949b81064\",\"発生年度\":2020}]]]","last_polygon_uuid":"a5b28cb0-3438-4335-84cb-ca019d5274b0","prev_last_polygon_uuid":"0848c342-542b-4b79-9f9f-16b753cd76b5","local_government_cd":"013439","point_lng":140.768551246,"point_lat":42.006511909}}]}}}