{"type":"Topology","arcs":[[[17901,3027],[-5,48],[4,12],[11,18],[12,7],[87,21],[4,-2],[19,-86],[0,-5],[0,-2],[-116,-38],[-7,0],[-3,0],[-6,27]],[[119,9024],[-119,260],[0,12],[433,445],[206,-498],[-269,-176],[0,-2],[38,-83],[90,-183],[-1,-11],[-209,-106],[-169,342]],[[326,8681],[174,85],[6,-2],[17,-51],[26,-55],[28,-50],[8,-28],[-3,-19],[-100,-165],[-52,14],[-123,256],[1,5],[18,10]],[[3367,10056],[150,-16],[-5,-99],[-150,7],[5,108]],[[3299,18946],[97,32],[9,-43],[-32,-14],[34,-151],[-36,-15],[-72,191]],[[2732,19386],[83,35],[12,-8],[105,-272],[-3,-18],[-10,-16],[13,-46],[84,33],[105,-300],[-84,-33],[-19,62],[-48,-15],[-25,68],[-27,-12],[-192,503],[6,19]],[[17658,1998],[6,12],[21,-7],[2,-7],[54,-98],[2,-3],[229,-50],[2,-1],[14,5],[4,2],[9,10],[12,3],[63,-24],[1,-3],[-3,-12],[-7,-13],[-73,-60],[-39,-36],[-19,-7],[-48,11],[-128,32],[-16,7],[-16,8],[-11,18],[-14,25],[-10,6],[-63,16],[-4,15],[1,49],[8,36],[23,66]],[[17740,2631],[-2,3],[-1,2],[2,4],[5,11],[6,19],[8,31],[6,3],[36,-11],[0,-3],[0,-3],[-19,-59],[-1,-3],[-6,-1],[-34,7]],[[12766,8273],[77,16],[22,-96],[-77,-33],[-22,113]],[[12869,8295],[82,17],[18,-78],[-81,-24],[-19,85]],[[13438,6557],[35,27],[-49,151],[-13,41],[-71,-33],[-5,10],[-50,-23],[7,-26],[-73,-33],[-29,125],[179,70],[23,3],[191,86],[86,-278],[100,-297],[-165,-79],[-74,193],[-55,-43],[-37,106]],[[3364,10349],[11,7],[358,-25],[100,-7],[-29,-141],[-91,12],[-20,-131],[-137,21],[16,135],[-204,27],[-3,46],[-3,13],[2,43]],[[10046,7012],[-8,-8],[-48,-68],[-86,61],[-12,13],[-5,7],[1,14],[110,195],[69,148],[31,59],[6,3],[14,-2],[152,-122],[124,-94],[-56,-68],[44,-56],[-67,-70],[-77,77],[-15,11],[-15,-3],[-6,-3],[-44,-48],[-28,39],[-2,2],[-5,8],[-34,-28],[-18,19],[-53,-58],[28,-28]],[[3757,15166],[-16,10],[-4,23],[20,39],[18,37],[83,-7],[1,0],[85,-8],[70,-118],[-257,24]],[[17311,1009],[-132,-55],[-81,-29],[-64,3],[-12,7],[-69,44],[22,178],[55,53],[330,45],[37,-7],[101,-92],[103,-39],[-49,-152],[-94,38],[-19,-21],[-128,27]],[[16618,1964],[-11,14],[-16,19],[-11,13],[-2,2],[-21,-10],[-13,-1],[-5,2],[-26,18],[-5,3],[-27,37],[196,104],[21,-38],[143,-296],[-81,-58],[-32,-16],[-36,-12],[-21,0],[-39,5],[-66,87],[-19,66],[71,61]],[[3474,12388],[149,-9],[-8,-196],[-115,10],[7,114],[-36,4],[3,77]],[[3639,15730],[-36,6],[2,55],[61,-8],[60,-5],[-15,-236],[-80,7],[8,181]],[[2788,14114],[-163,-46],[11,210],[341,121],[37,-133],[-243,-91],[17,-61]],[[2830,14791],[244,86],[42,-77],[-16,-19],[-81,-31],[-19,14],[-147,-61],[-23,88]],[[2625,11571],[-29,96],[112,34],[83,28],[33,-80],[-73,-38],[6,-61],[-67,-24],[-18,63],[-47,-18]],[[2786,12490],[20,-4],[28,-97],[-8,-12],[-283,-98],[-20,13],[-7,47],[5,52],[0,12],[265,87]],[[2503,11886],[277,96],[267,86],[8,-26],[-244,-77],[26,-84],[0,-12],[-52,-21],[16,-58],[-310,-125],[12,221]],[[3665,15959],[-49,5],[0,64],[79,0],[0,13],[40,-3],[20,-31],[-5,-173],[-90,5],[5,120]],[[2909,14133],[-94,-30],[-1,0],[-15,69],[156,52],[65,22],[18,-39],[98,12],[6,-54],[-195,-35],[-31,1],[-7,2]],[[2892,12634],[28,-119],[-60,-17],[-28,115],[60,21]],[[2886,14911],[155,53],[22,-66],[7,-12],[-159,-56],[-25,81]],[[11141,5492],[0,25],[-126,-8],[33,118],[87,7],[11,-61],[16,-44],[2,-7],[8,-33],[19,-77],[78,8],[-4,16],[-5,17],[2,7],[63,15],[-23,145],[1,2],[62,10],[18,-146],[24,-279],[-244,-18],[-1,3],[-21,300]],[[16223,570],[4,6],[9,0],[39,-6],[2,26],[38,-6],[-29,-299],[-88,17],[-1,8],[26,254]],[[9321,6218],[-2,9],[1,6],[148,172],[110,-125],[-15,-15],[122,-160],[-57,-60],[-8,7],[-35,-24],[-104,139],[-10,1],[-103,-85],[-47,135]],[[3574,13705],[172,-6],[5,-4],[5,-4],[-10,-77],[-11,-9],[-167,16],[-5,9],[-5,22],[4,48],[12,5]],[[17411,517],[-2,22],[12,4],[15,1],[335,-57],[31,-2],[104,2],[42,-1],[105,-12],[88,5],[105,8],[25,-439],[-810,115],[-50,354]],[[17554,2540],[20,60],[8,11],[21,15],[13,8],[23,7],[17,-3],[70,-45],[6,-9],[-11,-57],[-15,-76],[-37,-203],[-8,-55],[-8,-92],[-2,-4],[-8,0],[-7,3],[-51,18],[-54,29],[-36,31],[-27,27],[-3,12],[1,9],[0,7],[6,34],[46,168],[36,105]],[[3220,16757],[129,44],[9,-1],[5,-16],[4,-15],[2,-19],[-5,-4],[-139,-41],[-10,44],[5,8]],[[15205,2463],[301,13],[14,1],[2,-2],[10,-6],[35,-66],[7,-4],[7,-3],[5,0],[4,4],[1,5],[12,1],[12,1],[2,1],[3,3],[3,4],[7,4],[6,1],[28,-1],[5,1],[8,3],[96,-43],[23,-26],[89,-144],[89,-175],[0,-7],[-4,-7],[-63,-49],[-15,0],[-745,473],[-4,5],[1,4],[11,7],[50,2]],[[14835,3772],[0,5],[2,2],[72,8],[0,10],[307,55],[10,-53],[-2,-5],[-4,-3],[-73,-15],[2,-12],[-292,-42],[-7,1],[-15,49]],[[2800,16649],[22,11],[18,12],[334,127],[20,2],[24,-98],[-111,-40],[-137,-50],[-16,-13],[24,-100],[-138,-50],[-40,199]],[[16808,2005],[27,26],[-22,42],[131,106],[99,-202],[-2,-7],[-5,-8],[-148,-100],[-80,143]],[[2209,10337],[10,13],[79,26],[199,72],[31,66],[7,1],[49,-110],[9,-6],[41,-121],[-108,-38],[-9,12],[-253,-83],[-6,2],[-49,166]],[[10040,5647],[229,200],[-21,90],[116,43],[65,-59],[11,-30],[-118,-45],[94,-298],[-71,-44],[-7,21],[-26,-16],[-50,130],[-3,2],[-56,-14],[-14,38],[-18,-3],[-12,18],[-67,-49],[4,-12],[6,-15],[-49,-8],[-13,51]],[[9135,5573],[160,117],[44,-61],[26,21],[27,-54],[-182,-146],[-75,123]],[[17585,2095],[6,11],[28,-13],[16,-12],[-48,-170],[5,-6],[2,-9],[-14,-38],[-1,-34],[-3,-10],[-69,-59],[-8,-1],[-8,4],[-2,6],[96,331]],[[17485,2163],[89,-58],[3,-5],[1,-4],[-93,-325],[-31,-68],[-7,-16],[-8,-3],[-143,9],[-36,9],[-4,5],[0,8],[86,245],[52,107],[83,100],[8,-4]],[[3757,15166],[693,-65],[250,-35],[2,-12],[-7,-15],[-34,-58],[-24,-19],[-905,97],[-3,6],[12,99],[16,2]],[[3121,14792],[119,30],[16,-2],[-4,-55],[-102,-46],[-23,-3],[-14,55],[8,21]],[[16328,1737],[-13,31],[-4,21],[0,14],[2,16],[11,16],[46,30],[11,-1],[3,-4],[63,-152],[0,-3],[-31,-31],[-23,8],[-19,3],[-5,3],[-1,4],[0,3],[-1,10],[-4,13],[0,7],[-5,7],[-3,9],[-17,-13],[-4,0],[-6,9]],[[16391,1860],[-4,9],[10,13],[34,23],[18,-3],[7,-2],[8,-10],[77,-153],[32,-53],[2,-16],[0,-9],[-4,-5],[-61,-48],[-6,1],[-7,3],[-10,16],[-96,234]],[[17473,1719],[9,8],[3,4],[28,20],[31,28],[2,1],[2,-4],[-2,-69],[-5,-5],[-32,-14],[-43,-6],[-5,0],[-3,1],[-1,2],[16,34]],[[16705,1692],[-3,16],[0,6],[13,14],[93,57],[48,34],[3,-3],[90,-178],[-1,-2],[-85,-93],[-12,-10],[-13,0],[-38,-5],[-20,1],[-27,25],[-25,26],[-8,16],[-5,15],[-10,81]],[[16415,1652],[2,10],[2,6],[28,21],[7,1],[5,-3],[9,-30],[0,-9],[1,-10],[-5,-11],[-13,-23],[-5,-14],[-1,-10],[-1,-14],[-1,-6],[-7,-30],[-5,-13],[-3,-4],[-7,-6],[-5,0],[-29,17],[-2,2],[-2,4],[2,7],[3,14],[27,101]],[[3625,15537],[92,-6],[-13,-184],[-66,2],[11,96],[-23,4],[-1,88]],[[16870,1404],[83,31],[11,0],[2,-6],[1,-7],[15,-227],[0,-4],[-48,-34],[-2,0],[-1,3],[-30,105],[-32,91],[-7,41],[0,2],[3,2],[5,3]],[[17467,1653],[4,7],[4,3],[7,2],[43,7],[30,11],[11,-5],[1,-3],[1,-2],[-42,-136],[-2,-5],[-6,-12],[-23,-99],[-4,-4],[-4,-3],[-53,14],[-2,1],[-3,1],[24,123],[14,100]],[[17569,1597],[3,1],[26,-16],[0,-3],[-31,-92],[-19,-49],[-4,-2],[-26,18],[0,5],[51,138]],[[17102,1524],[76,114],[13,10],[19,13],[12,3],[44,3],[68,-2],[60,-6],[53,0],[3,-3],[2,-3],[-11,-65],[-14,-67],[-20,-95],[-32,-85],[-31,-52],[-21,-30],[-278,-40],[-6,1],[-3,4],[-2,9],[-22,34],[-11,20],[-4,35],[-5,37],[1,20],[1,9],[9,22],[3,9],[25,20],[17,14],[54,71]],[[10060,5553],[2,11],[2,4],[9,10],[15,3],[6,-3],[29,-91],[20,13],[40,14],[27,-76],[-65,-41],[5,-28],[-45,-30],[-45,214]],[[16414,1420],[-1,8],[1,2],[4,2],[9,7],[14,7],[18,27],[56,-38],[-2,-7],[1,-6],[64,-49],[0,-3],[-5,-9],[-66,-76],[-24,-21],[-9,-4],[-2,0],[-10,5],[-48,155]],[[2788,14114],[15,-1],[25,-39],[63,17],[22,-72],[157,39],[11,-2],[5,-16],[14,-55],[-11,-5],[-107,-34],[-83,-26],[-11,-11],[-269,-99],[-11,2],[-4,6],[17,226],[3,11],[164,59]],[[9618,5283],[412,358],[3,-2],[63,-307],[-404,-254],[-3,1],[-3,0],[0,3],[-68,201]],[[10717,5399],[4,4],[63,22],[5,0],[2,-2],[10,-115],[1,-6],[0,-2],[71,10],[6,-17],[4,-1],[19,0],[13,-70],[-1,-2],[-3,-2],[-101,-14],[-70,-14],[-4,0],[-4,44],[-12,54],[-3,111]],[[16741,1381],[93,10],[6,-2],[3,-1],[2,-3],[6,-7],[0,-9],[2,-8],[2,-5],[50,-155],[16,-49],[0,-11],[-3,-11],[-5,-7],[-5,-8],[-5,-9],[-1,-10],[-1,-14],[-1,-21],[-2,-25],[-2,-14],[-9,-20],[-14,-12],[-166,-99],[-35,-15],[-15,1],[-12,0],[-11,2],[-13,4],[-35,35],[-66,83],[-14,33],[-9,36],[-4,45],[-2,77],[5,38],[2,7],[39,50],[41,53],[14,17],[11,8],[9,4],[10,1],[9,0],[8,-2],[11,-33],[2,0],[44,13],[6,3],[23,24],[3,3],[7,2],[6,1]],[[2413,16258],[147,53],[264,97],[245,96],[145,45],[15,-40],[-6,-8],[22,-58],[-80,-22],[-26,59],[-53,-30],[10,-23],[-36,-14],[24,-54],[-63,-26],[20,-96],[-555,-198],[-28,71],[-45,148]],[[8193,6829],[24,22],[69,77],[122,-143],[65,87],[-19,24],[50,63],[42,-57],[-594,-679],[-132,183],[373,423]],[[16924,80],[-1,3],[42,73],[15,26],[2,11],[3,23],[149,-21],[-34,-186],[-5,-6],[-6,-3],[-102,48],[-63,32]],[[2976,14555],[-324,-111],[-10,45],[3,68],[0,17],[301,111],[30,-130]],[[16612,737],[-4,9],[0,6],[1,5],[296,185],[6,0],[3,-2],[-4,-22],[-9,-22],[-24,-34],[-28,-35],[-14,-24],[-11,-29],[-33,-41],[-44,-44],[-72,-54],[-9,-4],[-7,0],[-6,10],[-41,96]],[[14914,2633],[-31,33],[-3,8],[4,10],[6,5],[22,0],[417,39],[17,0],[11,5],[27,28],[4,4],[2,0],[6,-5],[109,-222],[11,-21],[4,-16],[0,-6],[-6,-1],[-404,-19],[-9,0],[-5,0],[-36,28],[-62,51],[-84,79]],[[3130,14608],[-3,75],[136,62],[-7,-93],[-126,-44]],[[16673,577],[-7,30],[1,6],[3,3],[68,50],[5,-4],[1,-3],[7,-30],[-52,-61],[-13,-17],[-2,0],[-4,0],[-4,3],[-1,4],[0,5],[-1,4],[-1,10]],[[16523,409],[-64,191],[2,15],[31,113],[16,44],[10,17],[12,12],[14,2],[37,-21],[74,-193],[4,-30],[-2,-27],[-5,-39],[-10,-23],[-20,-23],[-99,-38]],[[2510,12246],[18,16],[169,58],[209,73],[31,-77],[-4,-18],[-226,-76],[10,-17],[121,41],[28,-73],[-102,-44],[34,-98],[-279,-96],[-28,14],[7,149],[9,37],[13,44],[-1,12],[-10,19],[1,36]],[[16510,404],[-24,-10],[-4,4],[-15,56],[-2,2],[-39,-18],[1,33],[17,119],[8,4],[58,-190]],[[3328,19860],[21,-69],[-23,-10],[25,-97],[-167,-66],[-24,64],[138,52],[-30,103],[14,9],[26,14],[20,0]],[[3142,18269],[221,90],[18,-85],[12,-11],[18,-114],[-198,-73],[-71,193]],[[2878,17250],[219,75]],[[3097,17325],[48,18],[55,-198]],[[3200,17145],[-244,-93]],[[2956,17052],[-29,-11],[-47,203],[-2,6]],[[7544,29989],[6,22],[5,2],[11,0],[208,-110],[0,-5],[0,-4],[-115,-303],[-4,-4],[-6,1],[-199,97],[-4,5],[-1,3],[99,296]],[[2384,18793],[167,54],[52,8],[16,-2],[79,-208],[42,-103],[-39,-14],[-79,195],[-187,-76],[-50,133],[-1,13]],[[2409,18318],[357,128],[6,-13],[59,-166],[260,89],[182,-486],[-509,-190],[-88,-18],[-5,16],[16,82],[-4,96],[-4,69],[-13,56],[-15,29],[-13,15],[-251,73],[-10,15],[-30,130],[-9,35],[-2,13],[45,14],[28,13]],[[2318,18857],[-208,-73]],[[2110,18784],[-217,-77],[-15,5],[3,14],[117,271],[93,34],[60,-177],[61,19],[7,-8],[85,29],[14,-37]],[[2327,19638],[36,68],[45,-108],[192,37],[67,-156],[-242,-92],[-98,251]],[[3225,16822],[-7,35],[138,48],[8,4],[11,1],[7,-4],[6,-6],[3,-9],[0,-5],[-14,-8],[-152,-56]],[[7703,30312],[65,71],[8,0],[2,-1],[123,-108],[1,-6],[0,-4],[-23,-50],[-90,-201],[-1,-2],[-3,-1],[-3,0],[-7,3],[-209,110],[-5,2],[0,2],[7,15],[3,6],[132,164]],[[2318,18857],[117,-291],[-102,-54],[-15,26],[-95,-31],[-113,277]],[[7391,30321],[-6,9],[1,9],[3,3],[270,237],[6,7],[14,-1],[13,-6],[5,-6],[31,-68],[18,-49],[-2,-6],[-1,-9],[-7,-3],[-256,-207],[-3,-5],[-5,0],[-5,5],[-4,5],[-72,85]],[[3037,18546],[139,51],[3,-10],[33,-125],[-30,-9],[27,-75],[5,-37],[0,-26],[-80,-31],[-92,243],[-5,19]],[[3200,17145],[109,36],[24,-91],[45,2],[24,-4],[-7,-89],[-85,-13],[-10,84],[-27,-2],[-3,13],[-150,-46],[38,-164],[-9,-10],[-29,-11],[-23,14],[-33,144],[-35,-16],[-15,-61],[-16,-21],[-27,-9],[-25,0],[-7,17],[-6,28],[6,17],[10,9],[23,2],[-16,78]],[[2587,19946],[-58,184],[141,314],[10,22],[18,20],[134,54],[81,-216],[705,253],[-1,-155],[-18,0],[-14,44],[-189,-71],[28,-143],[-837,-306]],[[3058,17523],[39,-198]],[[2878,17250],[-43,192]],[[2835,17442],[223,81]],[[2650,18966],[185,68],[94,-235],[-131,-45],[16,-49],[-71,-37],[-97,272],[2,25],[2,1]],[[7289,30063],[20,37],[7,6],[7,2],[160,-85],[4,-7],[-1,-10],[-88,-267],[-4,-5],[-9,0],[-5,0],[-169,94],[0,6],[-1,5],[79,224]],[[2887,18484],[51,18],[27,-83],[6,-4],[20,6],[10,-20],[19,-51],[-77,-27],[-56,161]],[[2835,17442],[-43,189],[12,12],[3,20],[-1,11],[323,125],[9,-36],[44,10],[27,-87],[209,68],[3,-15],[6,-5],[-6,-80],[-363,-131]]],"transform":{"scale":[0.000002803455913743178,0.0000017516329693324894],"translate":[141.451685446,43.039414959]},"objects":{"2024_011088":{"type":"GeometryCollection","geometries":[{"arcs":[[0]],"type":"Polygon","properties":{"polygon_uuid":"db172c66-e3d1-4247-9f12-912921dbdfc9","land_type":200,"issue_year":2024,"edit_year":2020,"history":"[{\"筆ポリゴンID\":\"a807b34e-d690-419e-9a3e-63c06bf98e38\",\"更新年度\":2023,\"前年同一\":true},[{\"筆ポリゴンID\":\"2364eca5-755c-4401-a4e9-6cc9b009a9b3\",\"更新年度\":2022,\"前年同一\":true},[{\"筆ポリゴンID\":\"db83951c-e975-400b-b290-56271a59b1c7\",\"更新年度\":2021,\"前年同一\":true},{\"筆ポリゴンID\":\"db83951c-e975-400b-b290-56271a59b1c7\",\"発生年度\":2020}]]]","last_polygon_uuid":"a807b34e-d690-419e-9a3e-63c06bf98e38","prev_last_polygon_uuid":"2364eca5-755c-4401-a4e9-6cc9b009a9b3","local_government_cd":"011088","point_lng":141.502040577,"point_lat":43.044786928}},{"arcs":[[1]],"type":"Polygon","properties":{"polygon_uuid":"d664b7c3-6564-462f-a43d-cdb40db1a400","land_type":200,"issue_year":2024,"edit_year":2020,"history":"[{\"筆ポリゴンID\":\"68bb0843-6564-4244-b566-1622da370f0d\",\"更新年度\":2023,\"前年同一\":true},[{\"筆ポリゴンID\":\"2b5adc3f-f09a-4350-ae62-5e5a1badabe4\",\"更新年度\":2022,\"前年同一\":true},[{\"筆ポリゴンID\":\"515b4daf-bc6d-4a8b-88c1-91419da53fce\",\"更新年度\":2021,\"前年同一\":true},{\"筆ポリゴンID\":\"515b4daf-bc6d-4a8b-88c1-91419da53fce\",\"発生年度\":2020}]]]","last_polygon_uuid":"68bb0843-6564-4244-b566-1622da370f0d","prev_last_polygon_uuid":"2b5adc3f-f09a-4350-ae62-5e5a1badabe4","local_government_cd":"011088","point_lng":141.452585853,"point_lat":43.055564466}},{"arcs":[[2]],"type":"Polygon","properties":{"polygon_uuid":"88c48294-090a-47cf-8ff3-323ff48d6a76","land_type":200,"issue_year":2024,"edit_year":2020,"history":"[{\"筆ポリゴンID\":\"88a270e2-6cb2-41b5-8c37-6368f88385c9\",\"更新年度\":2023,\"前年同一\":true},[{\"筆ポリゴンID\":\"f500ff63-3031-47f2-898a-4f9f847b9c5c\",\"更新年度\":2022,\"前年同一\":true},[{\"筆ポリゴンID\":\"7801ff2f-e223-4c12-8863-afe86dafbc52\",\"更新年度\":2021,\"前年同一\":true},{\"筆ポリゴンID\":\"7801ff2f-e223-4c12-8863-afe86dafbc52\",\"発生年度\":2020}]]]","last_polygon_uuid":"88a270e2-6cb2-41b5-8c37-6368f88385c9","prev_last_polygon_uuid":"f500ff63-3031-47f2-898a-4f9f847b9c5c","local_government_cd":"011088","point_lng":141.452963209,"point_lat":43.054460298}},{"arcs":[[3]],"type":"Polygon","properties":{"polygon_uuid":"ee7be532-2f6c-4f81-bb7e-e0a3a81303a8","land_type":200,"issue_year":2024,"edit_year":2020,"history":"[{\"筆ポリゴンID\":\"e5ad2d39-fe8b-443c-bbb2-c74d516d59db\",\"更新年度\":2023,\"前年同一\":true},[{\"筆ポリゴンID\":\"3dd12758-0f33-4052-8534-aa6e3da75380\",\"更新年度\":2022,\"前年同一\":true},[{\"筆ポリゴンID\":\"b04394dc-9b77-4502-a2d1-3d1685b245df\",\"更新年度\":2021,\"前年同一\":true},{\"筆ポリゴンID\":\"b04394dc-9b77-4502-a2d1-3d1685b245df\",\"発生年度\":2020}]]]","last_polygon_uuid":"e5ad2d39-fe8b-443c-bbb2-c74d516d59db","prev_last_polygon_uuid":"3dd12758-0f33-4052-8534-aa6e3da75380","local_government_cd":"011088","point_lng":141.461325365,"point_lat":43.056925028}},{"arcs":[[4]],"type":"Polygon","properties":{"polygon_uuid":"11774b60-5746-4301-ae31-d59be0560c96","land_type":200,"issue_year":2024,"edit_year":2020,"history":"[{\"筆ポリゴンID\":\"667c4417-71d9-47df-b3b5-ceebac1ee02c\",\"更新年度\":2023,\"前年同一\":true},[{\"筆ポリゴンID\":\"1a4cc2bf-01cb-4cac-9c96-4acac8457636\",\"更新年度\":2022,\"前年同一\":true},[{\"筆ポリゴンID\":\"1d6c182c-ab8d-4ed4-8dda-1d92308decfb\",\"更新年度\":2021,\"前年同一\":true},{\"筆ポリゴンID\":\"1d6c182c-ab8d-4ed4-8dda-1d92308decfb\",\"発生年度\":2020}]]]","last_polygon_uuid":"667c4417-71d9-47df-b3b5-ceebac1ee02c","prev_last_polygon_uuid":"1a4cc2bf-01cb-4cac-9c96-4acac8457636","local_government_cd":"011088","point_lng":141.461106576,"point_lat":43.072483515}},{"arcs":[[5]],"type":"Polygon","properties":{"polygon_uuid":"bd547612-73b2-426f-9c9c-95a782991751","land_type":200,"issue_year":2024,"edit_year":2020,"history":"[{\"筆ポリゴンID\":\"a0147438-df6c-4e25-a9bc-46ffd47dfa50\",\"更新年度\":2023,\"前年同一\":true},[{\"筆ポリゴンID\":\"f4e7ec1c-b441-4912-b36b-908398c7ee42\",\"更新年度\":2022,\"前年同一\":true},[{\"筆ポリゴンID\":\"1f0d536a-a1b7-4093-8920-00ed2987b664\",\"更新年度\":2021,\"前年同一\":true},{\"筆ポリゴンID\":\"1f0d536a-a1b7-4093-8920-00ed2987b664\",\"発生年度\":2020}]]]","last_polygon_uuid":"a0147438-df6c-4e25-a9bc-46ffd47dfa50","prev_last_polygon_uuid":"f4e7ec1c-b441-4912-b36b-908398c7ee42","local_government_cd":"011088","point_lng":141.459868722,"point_lat":43.072820709}},{"arcs":[[6]],"type":"Polygon","properties":{"polygon_uuid":"9f3a6fa6-1024-4344-b70a-09b7c9b3f45d","land_type":200,"issue_year":2024,"edit_year":2020,"history":"[{\"筆ポリゴンID\":\"e8cebfbd-c23a-4d7c-8d79-a47f53f32b62\",\"更新年度\":2023,\"前年同一\":true},[{\"筆ポリゴンID\":\"e2a55e53-9e49-42c1-b7d5-68021def925a\",\"更新年度\":2022,\"前年同一\":true},[{\"筆ポリゴンID\":\"78eb1b40-cb6c-4a43-a941-e4ba1a7381a6\",\"更新年度\":2021,\"前年同一\":true},{\"筆ポリゴンID\":\"78eb1b40-cb6c-4a43-a941-e4ba1a7381a6\",\"発生年度\":2020}]]]","last_polygon_uuid":"e8cebfbd-c23a-4d7c-8d79-a47f53f32b62","prev_last_polygon_uuid":"e2a55e53-9e49-42c1-b7d5-68021def925a","local_government_cd":"011088","point_lng":141.501658533,"point_lat":43.042618056}},{"arcs":[[7]],"type":"Polygon","properties":{"polygon_uuid":"0539f75a-821c-402b-a070-7f342b09f6aa","land_type":200,"issue_year":2024,"edit_year":2020,"history":"[{\"筆ポリゴンID\":\"13d4aaab-00a3-4b3d-b3c2-a2050c431f08\",\"更新年度\":2023,\"前年同一\":true},[{\"筆ポリゴンID\":\"df30389e-c575-4c68-be6b-4889230517b8\",\"更新年度\":2022,\"前年同一\":true},[{\"筆ポリゴンID\":\"1d281148-8932-46e1-9b35-bff2956881e1\",\"更新年度\":2021,\"前年同一\":true},{\"筆ポリゴンID\":\"1d281148-8932-46e1-9b35-bff2956881e1\",\"発生年度\":2020}]]]","last_polygon_uuid":"13d4aaab-00a3-4b3d-b3c2-a2050c431f08","prev_last_polygon_uuid":"df30389e-c575-4c68-be6b-4889230517b8","local_government_cd":"011088","point_lng":141.501501435,"point_lat":43.044079838}},{"arcs":[[8]],"type":"Polygon","properties":{"polygon_uuid":"1d3cff43-eb63-4bfe-90bc-cb4f262b4bd8","land_type":200,"issue_year":2024,"edit_year":2020,"history":"[{\"筆ポリゴンID\":\"bb2e721f-0246-4892-aebc-dfbc8f1b1929\",\"更新年度\":2023,\"前年同一\":true},[{\"筆ポリゴンID\":\"7fde211f-79c6-44aa-b521-b7f5eca20346\",\"更新年度\":2022,\"前年同一\":true},[{\"筆ポリゴンID\":\"bb2a4852-3706-400f-8024-2a1fabc14dbe\",\"更新年度\":2021,\"前年同一\":true},{\"筆ポリゴンID\":\"bb2a4852-3706-400f-8024-2a1fabc14dbe\",\"発生年度\":2020}]]]","last_polygon_uuid":"bb2e721f-0246-4892-aebc-dfbc8f1b1929","prev_last_polygon_uuid":"7fde211f-79c6-44aa-b521-b7f5eca20346","local_government_cd":"011088","point_lng":141.487610872,"point_lat":43.053827537}},{"arcs":[[9]],"type":"Polygon","properties":{"polygon_uuid":"97952681-8c4d-4cc0-907d-746f178f6e3c","land_type":200,"issue_year":2024,"edit_year":2020,"history":"[{\"筆ポリゴンID\":\"87204674-2d05-4687-b83b-8d502f505e22\",\"更新年度\":2023,\"前年同一\":true},[{\"筆ポリゴンID\":\"60f01453-3775-405f-a0ea-b569937bac94\",\"更新年度\":2022,\"前年同一\":true},[{\"筆ポリゴンID\":\"2014aa41-6b69-44a8-8c73-87ccaa63b639\",\"更新年度\":2021,\"前年同一\":true},{\"筆ポリゴンID\":\"2014aa41-6b69-44a8-8c73-87ccaa63b639\",\"発生年度\":2020}]]]","last_polygon_uuid":"87204674-2d05-4687-b83b-8d502f505e22","prev_last_polygon_uuid":"60f01453-3775-405f-a0ea-b569937bac94","local_government_cd":"011088","point_lng":141.487902562,"point_lat":43.053888253}},{"arcs":[[10]],"type":"Polygon","properties":{"polygon_uuid":"0d539a3c-cfc9-4bcb-8085-4d1ac2f65bdb","land_type":200,"issue_year":2024,"edit_year":2020,"history":"[{\"筆ポリゴンID\":\"4f0c6572-732e-4e72-a7c2-dbe842029a0b\",\"更新年度\":2023,\"前年同一\":true},[{\"筆ポリゴンID\":\"399b6b64-0367-467e-ba97-79c32085647b\",\"更新年度\":2022,\"前年同一\":true},[{\"筆ポリゴンID\":\"7e2c9d56-aef8-48f2-8ecb-f6043cab8425\",\"更新年度\":2021,\"前年同一\":true},{\"筆ポリゴンID\":\"7e2c9d56-aef8-48f2-8ecb-f6043cab8425\",\"発生年度\":2020}]]]","last_polygon_uuid":"4f0c6572-732e-4e72-a7c2-dbe842029a0b","prev_last_polygon_uuid":"399b6b64-0367-467e-ba97-79c32085647b","local_government_cd":"011088","point_lng":141.489618809,"point_lat":43.0510654}},{"arcs":[[11]],"type":"Polygon","properties":{"polygon_uuid":"90124075-b609-460e-9cdb-f5d09b9ae743","land_type":200,"issue_year":2024,"edit_year":2021,"history":"[{\"筆ポリゴンID\":\"cfc697ee-9427-440b-ba31-d8bbcf6981c1\",\"更新年度\":2023,\"前年同一\":true},[{\"筆ポリゴンID\":\"cae247d0-44f4-43ed-abc6-952b1603894c\",\"更新年度\":2022,\"前年同一\":true},[{\"筆ポリゴンID\":\"f96c1813-865e-40d0-ad09-8a72704b6cec\",\"更新年度\":2021,\"関連\":true},{\"筆ポリゴンID\":\"f96c1813-865e-40d0-ad09-8a72704b6cec\",\"発生年度\":2020}]]]","last_polygon_uuid":"cfc697ee-9427-440b-ba31-d8bbcf6981c1","prev_last_polygon_uuid":"cae247d0-44f4-43ed-abc6-952b1603894c","local_government_cd":"011088","point_lng":141.461806518,"point_lat":43.057358416}},{"arcs":[[12]],"type":"Polygon","properties":{"polygon_uuid":"4578d432-9d28-4f46-8ac6-ede9d9b18ad4","land_type":200,"issue_year":2024,"edit_year":2020,"history":"[{\"筆ポリゴンID\":\"f9465f65-61a6-4cc4-b175-9d5af8298348\",\"更新年度\":2023,\"前年同一\":true},[{\"筆ポリゴンID\":\"c82dc02a-1d39-46bc-a343-6934e2422b2b\",\"更新年度\":2022,\"前年同一\":true},[{\"筆ポリゴンID\":\"c794a2c2-4e18-4f36-9c7c-a6c0d7b0d9e9\",\"更新年度\":2021,\"前年同一\":true},{\"筆ポリゴンID\":\"c794a2c2-4e18-4f36-9c7c-a6c0d7b0d9e9\",\"発生年度\":2020}]]]","last_polygon_uuid":"f9465f65-61a6-4cc4-b175-9d5af8298348","prev_last_polygon_uuid":"c82dc02a-1d39-46bc-a343-6934e2422b2b","local_government_cd":"011088","point_lng":141.480110659,"point_lat":43.052000991}},{"arcs":[[13]],"type":"Polygon","properties":{"polygon_uuid":"d598c6ee-c3cf-4539-98fa-3cde6444a6a2","land_type":200,"issue_year":2024,"edit_year":2021,"history":"[{\"筆ポリゴンID\":\"85e986e8-f44a-4a27-8f70-b5040fb1adb4\",\"更新年度\":2023,\"前年同一\":true},[{\"筆ポリゴンID\":\"b29f1c73-518c-4d10-ad99-6b7f9f0e32ac\",\"更新年度\":2022,\"前年同一\":true},[[{\"筆ポリゴンID\":\"201cc847-36b1-4cea-af89-dad825df0914\",\"更新年度\":2021,\"関連\":true},{\"筆ポリゴンID\":\"201cc847-36b1-4cea-af89-dad825df0914\",\"発生年度\":2020}],[{\"筆ポリゴンID\":\"7538d0cd-e64d-40f2-bdb6-030eefa5725a\",\"更新年度\":2021,\"関連\":true},{\"筆ポリゴンID\":\"7538d0cd-e64d-40f2-bdb6-030eefa5725a\",\"発生年度\":2020}]]]]","last_polygon_uuid":"85e986e8-f44a-4a27-8f70-b5040fb1adb4","prev_last_polygon_uuid":"b29f1c73-518c-4d10-ad99-6b7f9f0e32ac","local_government_cd":"011088","point_lng":141.462524503,"point_lat":43.066051777}},{"arcs":[[14]],"type":"Polygon","properties":{"polygon_uuid":"cc0c3008-bb54-49a9-9b06-90ad36e80325","land_type":200,"issue_year":2024,"edit_year":2020,"history":"[{\"筆ポリゴンID\":\"2cb6053a-8f3b-4786-a431-842a8e896777\",\"更新年度\":2023,\"前年同一\":true},[{\"筆ポリゴンID\":\"7231631c-4d62-4285-b7a8-1cd08bc07a7f\",\"更新年度\":2022,\"前年同一\":true},[{\"筆ポリゴンID\":\"85ec9aa8-c578-4bbf-b4b2-d82be7cbc74d\",\"更新年度\":2021,\"前年同一\":true},{\"筆ポリゴンID\":\"85ec9aa8-c578-4bbf-b4b2-d82be7cbc74d\",\"発生年度\":2020}]]]","last_polygon_uuid":"2cb6053a-8f3b-4786-a431-842a8e896777","prev_last_polygon_uuid":"7231631c-4d62-4285-b7a8-1cd08bc07a7f","local_government_cd":"011088","point_lng":141.500046368,"point_lat":43.041327471}},{"arcs":[[15]],"type":"Polygon","properties":{"polygon_uuid":"fddf5515-ce18-4493-a1e1-c21b3d1600d8","land_type":200,"issue_year":2024,"edit_year":2020,"history":"[{\"筆ポリゴンID\":\"f49689c3-d464-42af-923b-c00baa78af84\",\"更新年度\":2023,\"前年同一\":true},[{\"筆ポリゴンID\":\"d4325deb-9176-4fca-bc7d-e49b911af5ac\",\"更新年度\":2022,\"前年同一\":true},[{\"筆ポリゴンID\":\"872d048c-6e83-4bf1-b781-a5f4254540db\",\"更新年度\":2021,\"前年同一\":true},{\"筆ポリゴンID\":\"872d048c-6e83-4bf1-b781-a5f4254540db\",\"発生年度\":2020}]]]","last_polygon_uuid":"f49689c3-d464-42af-923b-c00baa78af84","prev_last_polygon_uuid":"d4325deb-9176-4fca-bc7d-e49b911af5ac","local_government_cd":"011088","point_lng":141.49841522,"point_lat":43.042811444}},{"arcs":[[16]],"type":"Polygon","properties":{"polygon_uuid":"e55c479e-888e-4f38-861d-3013f5697a7d","land_type":200,"issue_year":2024,"edit_year":2020,"history":"[{\"筆ポリゴンID\":\"69984eb1-4215-4a90-a201-dcba0e74aeee\",\"更新年度\":2023,\"前年同一\":true},[{\"筆ポリゴンID\":\"bf9afb76-2bc4-42a2-858c-7db45ca0f232\",\"更新年度\":2022,\"前年同一\":true},[{\"筆ポリゴンID\":\"88d77fa4-50db-4a34-a4cc-0a967890af47\",\"更新年度\":2021,\"前年同一\":true},{\"筆ポリゴンID\":\"88d77fa4-50db-4a34-a4cc-0a967890af47\",\"発生年度\":2020}]]]","last_polygon_uuid":"69984eb1-4215-4a90-a201-dcba0e74aeee","prev_last_polygon_uuid":"bf9afb76-2bc4-42a2-858c-7db45ca0f232","local_government_cd":"011088","point_lng":141.461649591,"point_lat":43.060945867}},{"arcs":[[17]],"type":"Polygon","properties":{"polygon_uuid":"db875a5c-01b3-4886-86c7-1fe6e2eb85a9","land_type":200,"issue_year":2024,"edit_year":2020,"history":"[{\"筆ポリゴンID\":\"82e1935e-1e84-4ecc-8ed4-307d639d0b2e\",\"更新年度\":2023,\"前年同一\":true},[{\"筆ポリゴンID\":\"0698a0e9-5f67-4326-b1e6-4ae64f76a0d9\",\"更新年度\":2022,\"前年同一\":true},[{\"筆ポリゴンID\":\"7b4173b2-d721-42a7-a606-3e26cd15b453\",\"更新年度\":2021,\"前年同一\":true},{\"筆ポリゴンID\":\"7b4173b2-d721-42a7-a606-3e26cd15b453\",\"発生年度\":2020}]]]","last_polygon_uuid":"82e1935e-1e84-4ecc-8ed4-307d639d0b2e","prev_last_polygon_uuid":"0698a0e9-5f67-4326-b1e6-4ae64f76a0d9","local_government_cd":"011088","point_lng":141.461979996,"point_lat":43.066869675}},{"arcs":[[18]],"type":"Polygon","properties":{"polygon_uuid":"375f1234-0dba-47f2-8911-252cc37632e6","land_type":200,"issue_year":2024,"edit_year":2020,"history":"[{\"筆ポリゴンID\":\"9176195a-5266-4a14-a3ae-22d6bf846579\",\"更新年度\":2023,\"前年同一\":true},[{\"筆ポリゴンID\":\"63798b69-7d92-4e60-ad87-40cf6257ba01\",\"更新年度\":2022,\"前年同一\":true},[{\"筆ポリゴンID\":\"9fd574e2-f0d6-4566-bc17-79904f7825c0\",\"更新年度\":2021,\"前年同一\":true},{\"筆ポリゴンID\":\"9fd574e2-f0d6-4566-bc17-79904f7825c0\",\"発生年度\":2020}]]]","last_polygon_uuid":"9176195a-5266-4a14-a3ae-22d6bf846579","prev_last_polygon_uuid":"63798b69-7d92-4e60-ad87-40cf6257ba01","local_government_cd":"011088","point_lng":141.459527916,"point_lat":43.064363896}},{"arcs":[[19]],"type":"Polygon","properties":{"polygon_uuid":"4e6bc51c-b836-4db9-942d-d2074ec2ef82","land_type":200,"issue_year":2024,"edit_year":2020,"history":"[{\"筆ポリゴンID\":\"4910f8ea-7d60-401d-9ae4-5dfd96ef8635\",\"更新年度\":2023,\"前年同一\":true},[{\"筆ポリゴンID\":\"6cfc4b0d-c86c-4a2b-9603-6d786b2074c0\",\"更新年度\":2022,\"前年同一\":true},[{\"筆ポリゴンID\":\"5d51bfda-d918-4c38-9add-4cad90e25d27\",\"更新年度\":2021,\"前年同一\":true},{\"筆ポリゴンID\":\"5d51bfda-d918-4c38-9add-4cad90e25d27\",\"発生年度\":2020}]]]","last_polygon_uuid":"4910f8ea-7d60-401d-9ae4-5dfd96ef8635","prev_last_polygon_uuid":"6cfc4b0d-c86c-4a2b-9603-6d786b2074c0","local_government_cd":"011088","point_lng":141.460020356,"point_lat":43.065325011}},{"arcs":[[20]],"type":"Polygon","properties":{"polygon_uuid":"7b7a55ef-3544-4f19-b71a-2e4357d56014","land_type":200,"issue_year":2024,"edit_year":2020,"history":"[{\"筆ポリゴンID\":\"b3dd6f78-e882-467b-a689-91099a833964\",\"更新年度\":2023,\"前年同一\":true},[{\"筆ポリゴンID\":\"437f39b7-1d17-48ff-9930-6d59e7f23eeb\",\"更新年度\":2022,\"前年同一\":true},[{\"筆ポリゴンID\":\"1d1635fa-3431-48ed-8267-eff975009fcb\",\"更新年度\":2021,\"前年同一\":true},{\"筆ポリゴンID\":\"1d1635fa-3431-48ed-8267-eff975009fcb\",\"発生年度\":2020}]]]","last_polygon_uuid":"b3dd6f78-e882-467b-a689-91099a833964","prev_last_polygon_uuid":"437f39b7-1d17-48ff-9930-6d59e7f23eeb","local_government_cd":"011088","point_lng":141.459281686,"point_lat":43.059795609}},{"arcs":[[21]],"type":"Polygon","properties":{"polygon_uuid":"d3588711-38dd-4e02-a5d1-8948f96cd0f3","land_type":200,"issue_year":2024,"edit_year":2020,"history":"[{\"筆ポリゴンID\":\"59970961-a842-4030-82fd-f66b6bb35bcb\",\"更新年度\":2023,\"前年同一\":true},[{\"筆ポリゴンID\":\"d0109d99-4b0b-46ae-b3f3-cbe390f45b12\",\"更新年度\":2022,\"前年同一\":true},[{\"筆ポリゴンID\":\"ef81dd33-6c8d-4fd5-95c4-f2f1afc1fa1f\",\"更新年度\":2021,\"前年同一\":true},{\"筆ポリゴンID\":\"ef81dd33-6c8d-4fd5-95c4-f2f1afc1fa1f\",\"発生年度\":2020}]]]","last_polygon_uuid":"59970961-a842-4030-82fd-f66b6bb35bcb","prev_last_polygon_uuid":"d0109d99-4b0b-46ae-b3f3-cbe390f45b12","local_government_cd":"011088","point_lng":141.459167907,"point_lat":43.061111092}},{"arcs":[[22]],"type":"Polygon","properties":{"polygon_uuid":"11f51ebb-0c2d-43f5-8f7b-cf43481ec10b","land_type":200,"issue_year":2024,"edit_year":2020,"history":"[{\"筆ポリゴンID\":\"ff122d94-e041-4e7c-9e21-1f6cf9d4d801\",\"更新年度\":2023,\"前年同一\":true},[{\"筆ポリゴンID\":\"b5b697cc-ba18-4f14-8a6e-4a4acd75afdc\",\"更新年度\":2022,\"前年同一\":true},[{\"筆ポリゴンID\":\"50261829-69c9-47e0-a703-2ef96861f45d\",\"更新年度\":2021,\"前年同一\":true},{\"筆ポリゴンID\":\"50261829-69c9-47e0-a703-2ef96861f45d\",\"発生年度\":2020}]]]","last_polygon_uuid":"ff122d94-e041-4e7c-9e21-1f6cf9d4d801","prev_last_polygon_uuid":"b5b697cc-ba18-4f14-8a6e-4a4acd75afdc","local_government_cd":"011088","point_lng":141.459194936,"point_lat":43.06017372}},{"arcs":[[23]],"type":"Polygon","properties":{"polygon_uuid":"e57676d8-dafa-4078-88bb-ace3f2a5d696","land_type":200,"issue_year":2024,"edit_year":2020,"history":"[{\"筆ポリゴンID\":\"a505cbd9-6dfc-4d11-81b2-d547bbf54477\",\"更新年度\":2023,\"前年同一\":true},[{\"筆ポリゴンID\":\"6d3c0787-e303-422c-8d5a-4fc05ec3dead\",\"更新年度\":2022,\"前年同一\":true},[{\"筆ポリゴンID\":\"10f0f04b-7b5d-453c-8ffe-f9e80d4cb5ea\",\"更新年度\":2021,\"前年同一\":true},{\"筆ポリゴンID\":\"10f0f04b-7b5d-453c-8ffe-f9e80d4cb5ea\",\"発生年度\":2020}]]]","last_polygon_uuid":"a505cbd9-6dfc-4d11-81b2-d547bbf54477","prev_last_polygon_uuid":"6d3c0787-e303-422c-8d5a-4fc05ec3dead","local_government_cd":"011088","point_lng":141.462051489,"point_lat":43.067342668}},{"arcs":[[24]],"type":"Polygon","properties":{"polygon_uuid":"7f3fe563-c79d-44ae-98cb-b06e0ce9b635","land_type":200,"issue_year":2024,"edit_year":2020,"history":"[{\"筆ポリゴンID\":\"5bc407e6-3154-4bfa-abfb-bf3044d2937b\",\"更新年度\":2023,\"前年同一\":true},[{\"筆ポリゴンID\":\"a0c303b0-d837-4e7d-b513-ae2473a76ede\",\"更新年度\":2022,\"前年同一\":true},[{\"筆ポリゴンID\":\"96bd6f53-f688-4fa5-aae0-2237607d8aed\",\"更新年度\":2021,\"前年同一\":true},{\"筆ポリゴンID\":\"96bd6f53-f688-4fa5-aae0-2237607d8aed\",\"発生年度\":2020}]]]","last_polygon_uuid":"5bc407e6-3154-4bfa-abfb-bf3044d2937b","prev_last_polygon_uuid":"a0c303b0-d837-4e7d-b513-ae2473a76ede","local_government_cd":"011088","point_lng":141.459998281,"point_lat":43.064243295}},{"arcs":[[25]],"type":"Polygon","properties":{"polygon_uuid":"92e1d350-a6aa-49f7-b71c-27473870e229","land_type":200,"issue_year":2024,"edit_year":2020,"history":"[{\"筆ポリゴンID\":\"35f1c8c4-365c-41c6-96fe-c2ba9334d80b\",\"更新年度\":2023,\"前年同一\":true},[{\"筆ポリゴンID\":\"e6b0c303-5926-4290-852c-dabe9932e9f7\",\"更新年度\":2022,\"前年同一\":true},[{\"筆ポリゴンID\":\"96e83964-5d93-4e99-bd98-319b2d2fdde7\",\"更新年度\":2021,\"前年同一\":true},{\"筆ポリゴンID\":\"96e83964-5d93-4e99-bd98-319b2d2fdde7\",\"発生年度\":2020}]]]","last_polygon_uuid":"35f1c8c4-365c-41c6-96fe-c2ba9334d80b","prev_last_polygon_uuid":"e6b0c303-5926-4290-852c-dabe9932e9f7","local_government_cd":"011088","point_lng":141.459748802,"point_lat":43.061424013}},{"arcs":[[26]],"type":"Polygon","properties":{"polygon_uuid":"f84591a1-ff82-490f-93ec-01784f19f7b1","land_type":200,"issue_year":2024,"edit_year":2020,"history":"[{\"筆ポリゴンID\":\"40be4e2b-9d1b-46af-b406-a24ea1e1891f\",\"更新年度\":2023,\"前年同一\":true},[{\"筆ポリゴンID\":\"4baa28cf-ed56-4cf1-9605-8dc9d1219dbd\",\"更新年度\":2022,\"前年同一\":true},[{\"筆ポリゴンID\":\"56dbec23-dfad-4007-8d5c-49772e59b817\",\"更新年度\":2021,\"前年同一\":true},{\"筆ポリゴンID\":\"56dbec23-dfad-4007-8d5c-49772e59b817\",\"発生年度\":2020}]]]","last_polygon_uuid":"40be4e2b-9d1b-46af-b406-a24ea1e1891f","prev_last_polygon_uuid":"4baa28cf-ed56-4cf1-9605-8dc9d1219dbd","local_government_cd":"011088","point_lng":141.46002964,"point_lat":43.065510117}},{"arcs":[[27]],"type":"Polygon","properties":{"polygon_uuid":"b1a6431f-9711-4508-99e7-4fa483ee495c","land_type":200,"issue_year":2024,"edit_year":2020,"history":"[{\"筆ポリゴンID\":\"108b74f7-28bc-4338-ab06-df333fac7685\",\"更新年度\":2023,\"前年同一\":true},[{\"筆ポリゴンID\":\"3255e3a6-5523-49eb-800f-56a95cd18aec\",\"更新年度\":2022,\"前年同一\":true},[{\"筆ポリゴンID\":\"f06ec7b1-8865-4cf6-b5ee-6d428f2ba8cb\",\"更新年度\":2021,\"前年同一\":true},{\"筆ポリゴンID\":\"f06ec7b1-8865-4cf6-b5ee-6d428f2ba8cb\",\"発生年度\":2020}]]]","last_polygon_uuid":"108b74f7-28bc-4338-ab06-df333fac7685","prev_last_polygon_uuid":"3255e3a6-5523-49eb-800f-56a95cd18aec","local_government_cd":"011088","point_lng":141.483231423,"point_lat":43.048858564}},{"arcs":[[28]],"type":"Polygon","properties":{"polygon_uuid":"9674b9c2-e6b7-419e-8944-31669ca3037e","land_type":200,"issue_year":2024,"edit_year":2020,"history":"[{\"筆ポリゴンID\":\"44a40265-50c9-4a91-8f81-6a3c8c1de750\",\"更新年度\":2023,\"前年同一\":true},[{\"筆ポリゴンID\":\"977940f8-6715-4ce7-b833-67627d3e3273\",\"更新年度\":2022,\"前年同一\":true},[{\"筆ポリゴンID\":\"3c19f5d4-22d8-4732-ba8b-a63b2c1a6b8d\",\"更新年度\":2021,\"前年同一\":true},{\"筆ポリゴンID\":\"3c19f5d4-22d8-4732-ba8b-a63b2c1a6b8d\",\"発生年度\":2020}]]]","last_polygon_uuid":"44a40265-50c9-4a91-8f81-6a3c8c1de750","prev_last_polygon_uuid":"977940f8-6715-4ce7-b833-67627d3e3273","local_government_cd":"011088","point_lng":141.497258997,"point_lat":43.040186542}},{"arcs":[[29]],"type":"Polygon","properties":{"polygon_uuid":"f84b5184-a6c6-4dfb-8812-e15b59b75c5a","land_type":200,"issue_year":2024,"edit_year":2020,"history":"[{\"筆ポリゴンID\":\"9a4b797e-b661-4460-af59-05237095fedb\",\"更新年度\":2023,\"前年同一\":true},[{\"筆ポリゴンID\":\"79a42c37-7d13-4f37-a288-2985786363cc\",\"更新年度\":2022,\"前年同一\":true},[{\"筆ポリゴンID\":\"8e980b44-ab98-4e0f-9a6d-f8d457b7155b\",\"更新年度\":2021,\"前年同一\":true},{\"筆ポリゴンID\":\"8e980b44-ab98-4e0f-9a6d-f8d457b7155b\",\"発生年度\":2020}]]]","last_polygon_uuid":"9a4b797e-b661-4460-af59-05237095fedb","prev_last_polygon_uuid":"79a42c37-7d13-4f37-a288-2985786363cc","local_government_cd":"011088","point_lng":141.478293952,"point_lat":43.050288062}},{"arcs":[[30]],"type":"Polygon","properties":{"polygon_uuid":"ac431fca-1907-41c8-930d-307bb1b27809","land_type":200,"issue_year":2024,"edit_year":2020,"history":"[{\"筆ポリゴンID\":\"f6441bab-45a7-48d9-b8d4-0b3611c87bef\",\"更新年度\":2023,\"前年同一\":true},[{\"筆ポリゴンID\":\"f74cf5a7-97a0-4e26-a669-20ae67f1ff1a\",\"更新年度\":2022,\"前年同一\":true},[{\"筆ポリゴンID\":\"942f0255-1d51-4805-bf9b-01d23a51025c\",\"更新年度\":2021,\"前年同一\":true},{\"筆ポリゴンID\":\"942f0255-1d51-4805-bf9b-01d23a51025c\",\"発生年度\":2020}]]]","last_polygon_uuid":"f6441bab-45a7-48d9-b8d4-0b3611c87bef","prev_last_polygon_uuid":"f74cf5a7-97a0-4e26-a669-20ae67f1ff1a","local_government_cd":"011088","point_lng":141.461938808,"point_lat":43.063338412}},{"arcs":[[31]],"type":"Polygon","properties":{"polygon_uuid":"1e648fe7-fe47-4594-a0c2-f3697c4206f7","land_type":200,"issue_year":2024,"edit_year":2020,"history":"[{\"筆ポリゴンID\":\"74c408a4-1f98-4bcc-9b8b-22c7bd43088e\",\"更新年度\":2023,\"前年同一\":true},[{\"筆ポリゴンID\":\"e2d4df9a-b8be-4e22-be26-9b45b04d4bd8\",\"更新年度\":2022,\"前年同一\":true},[{\"筆ポリゴンID\":\"5e90e212-fb33-45ca-b223-444217aceced\",\"更新年度\":2021,\"前年同一\":true},{\"筆ポリゴンID\":\"5e90e212-fb33-45ca-b223-444217aceced\",\"発生年度\":2020}]]]","last_polygon_uuid":"74c408a4-1f98-4bcc-9b8b-22c7bd43088e","prev_last_polygon_uuid":"e2d4df9a-b8be-4e22-be26-9b45b04d4bd8","local_government_cd":"011088","point_lng":141.501745055,"point_lat":43.039944062}},{"arcs":[[32]],"type":"Polygon","properties":{"polygon_uuid":"a122d4a1-b32d-4ca1-9ba9-bcc273ebb0af","land_type":200,"issue_year":2024,"edit_year":2020,"history":"[{\"筆ポリゴンID\":\"1ec1dff0-017c-4425-b977-a65cf8c39ded\",\"更新年度\":2023,\"前年同一\":true},[{\"筆ポリゴンID\":\"d46d5afd-af2b-436a-895c-24db8dcf6114\",\"更新年度\":2022,\"前年同一\":true},[{\"筆ポリゴンID\":\"b2b3b6db-9785-4b2f-a129-7debb9356166\",\"更新年度\":2021,\"前年同一\":true},{\"筆ポリゴンID\":\"b2b3b6db-9785-4b2f-a129-7debb9356166\",\"発生年度\":2020}]]]","last_polygon_uuid":"1ec1dff0-017c-4425-b977-a65cf8c39ded","prev_last_polygon_uuid":"d46d5afd-af2b-436a-895c-24db8dcf6114","local_government_cd":"011088","point_lng":141.501032449,"point_lat":43.043565914}},{"arcs":[[33]],"type":"Polygon","properties":{"polygon_uuid":"c9a1b5ad-4d81-4f18-9d10-25972ef18764","land_type":200,"issue_year":2024,"edit_year":2020,"history":"[{\"筆ポリゴンID\":\"0e3de850-417d-43d8-9313-2cbf73a72f66\",\"更新年度\":2023,\"前年同一\":true},[{\"筆ポリゴンID\":\"8ea6f844-e7ef-40da-aabd-d76dbeb0b019\",\"更新年度\":2022,\"前年同一\":true},[{\"筆ポリゴンID\":\"cd7c32a3-c473-4975-bdbc-2208d97fc073\",\"更新年度\":2021,\"前年同一\":true},{\"筆ポリゴンID\":\"cd7c32a3-c473-4975-bdbc-2208d97fc073\",\"発生年度\":2020}]]]","last_polygon_uuid":"0e3de850-417d-43d8-9313-2cbf73a72f66","prev_last_polygon_uuid":"8ea6f844-e7ef-40da-aabd-d76dbeb0b019","local_government_cd":"011088","point_lng":141.460918059,"point_lat":43.068760906}},{"arcs":[[34]],"type":"Polygon","properties":{"polygon_uuid":"c0400abf-2a8c-4921-b07b-4773df009574","land_type":200,"issue_year":2024,"edit_year":2020,"history":"[{\"筆ポリゴンID\":\"ce7d846d-ec41-4d5d-89fd-7dfb66d9806a\",\"更新年度\":2023,\"前年同一\":true},[{\"筆ポリゴンID\":\"25618e2e-1133-414b-ae77-95d8e2a4697f\",\"更新年度\":2022,\"前年同一\":true},[{\"筆ポリゴンID\":\"96ed2563-f28e-47c9-80f0-bf958504c311\",\"更新年度\":2021,\"前年同一\":true},{\"筆ポリゴンID\":\"96ed2563-f28e-47c9-80f0-bf958504c311\",\"発生年度\":2020}]]]","last_polygon_uuid":"ce7d846d-ec41-4d5d-89fd-7dfb66d9806a","prev_last_polygon_uuid":"25618e2e-1133-414b-ae77-95d8e2a4697f","local_government_cd":"011088","point_lng":141.495481478,"point_lat":43.043389027}},{"arcs":[[35]],"type":"Polygon","properties":{"polygon_uuid":"ec698552-7bbe-41ce-a4e3-3fc377566c8a","land_type":200,"issue_year":2024,"edit_year":2020,"history":"[{\"筆ポリゴンID\":\"f4d25922-bcc0-427a-ac48-8c3d99545e97\",\"更新年度\":2023,\"前年同一\":true},[{\"筆ポリゴンID\":\"eb9b20f1-a2c1-4f19-ae6f-8f7ae4ab988d\",\"更新年度\":2022,\"前年同一\":true},[{\"筆ポリゴンID\":\"4d5713cb-04ed-421c-94f3-808d908d9858\",\"更新年度\":2021,\"前年同一\":true},{\"筆ポリゴンID\":\"4d5713cb-04ed-421c-94f3-808d908d9858\",\"発生年度\":2020}]]]","last_polygon_uuid":"f4d25922-bcc0-427a-ac48-8c3d99545e97","prev_last_polygon_uuid":"eb9b20f1-a2c1-4f19-ae6f-8f7ae4ab988d","local_government_cd":"011088","point_lng":141.493832832,"point_lat":43.046043271}},{"arcs":[[36]],"type":"Polygon","properties":{"polygon_uuid":"eb53b75f-e1dd-4406-8933-ae89c39a7962","land_type":200,"issue_year":2024,"edit_year":2020,"history":"[{\"筆ポリゴンID\":\"a51b643e-1d75-4d3e-9d4a-b0f6c7fddf3f\",\"更新年度\":2023,\"前年同一\":true},[{\"筆ポリゴンID\":\"b604bb9d-e387-4c2e-b235-b673ba952588\",\"更新年度\":2022,\"前年同一\":true},[{\"筆ポリゴンID\":\"a3028538-cc4e-4186-ad59-c5dfa693abde\",\"更新年度\":2021,\"前年同一\":true},{\"筆ポリゴンID\":\"a3028538-cc4e-4186-ad59-c5dfa693abde\",\"発生年度\":2020}]]]","last_polygon_uuid":"a51b643e-1d75-4d3e-9d4a-b0f6c7fddf3f","prev_last_polygon_uuid":"b604bb9d-e387-4c2e-b235-b673ba952588","local_government_cd":"011088","point_lng":141.460037973,"point_lat":43.068562993}},{"arcs":[[37]],"type":"Polygon","properties":{"polygon_uuid":"619ef7ff-daa7-41c3-815f-47c442bae50e","land_type":200,"issue_year":2024,"edit_year":2020,"history":"[{\"筆ポリゴンID\":\"aedcbed7-9458-4306-aeed-652907593b06\",\"更新年度\":2023,\"前年同一\":true},[{\"筆ポリゴンID\":\"3e12f790-f4c6-42cb-99df-364459fbea91\",\"更新年度\":2022,\"前年同一\":true},[{\"筆ポリゴンID\":\"cdc1f17a-3bc8-4aa5-af1b-25bc1bf865e8\",\"更新年度\":2021,\"前年同一\":true},{\"筆ポリゴンID\":\"cdc1f17a-3bc8-4aa5-af1b-25bc1bf865e8\",\"発生年度\":2020}]]]","last_polygon_uuid":"aedcbed7-9458-4306-aeed-652907593b06","prev_last_polygon_uuid":"3e12f790-f4c6-42cb-99df-364459fbea91","local_government_cd":"011088","point_lng":141.499121446,"point_lat":43.042945908}},{"arcs":[[38]],"type":"Polygon","properties":{"polygon_uuid":"9f186898-4d2a-4efe-906d-7ddb8945f0d0","land_type":200,"issue_year":2024,"edit_year":2020,"history":"[{\"筆ポリゴンID\":\"8a1dca99-eda0-481b-aa80-93f90c1dd96f\",\"更新年度\":2023,\"前年同一\":true},[{\"筆ポリゴンID\":\"6b0ee6fc-83ca-49e5-94f2-605c21fca73f\",\"更新年度\":2022,\"前年同一\":true},[{\"筆ポリゴンID\":\"79f5241c-e117-4d6c-b20a-aa74b6e436a8\",\"更新年度\":2021,\"前年同一\":true},{\"筆ポリゴンID\":\"79f5241c-e117-4d6c-b20a-aa74b6e436a8\",\"発生年度\":2020}]]]","last_polygon_uuid":"8a1dca99-eda0-481b-aa80-93f90c1dd96f","prev_last_polygon_uuid":"6b0ee6fc-83ca-49e5-94f2-605c21fca73f","local_government_cd":"011088","point_lng":141.45847509,"point_lat":43.057491826}},{"arcs":[[39]],"type":"Polygon","properties":{"polygon_uuid":"4f45a955-9a71-4a88-a676-9e3b4e1f982a","land_type":200,"issue_year":2024,"edit_year":2020,"history":"[{\"筆ポリゴンID\":\"dd3fdcad-0202-4332-88ef-88a9214773b0\",\"更新年度\":2023,\"前年同一\":true},[{\"筆ポリゴンID\":\"469fae29-4d91-4f04-ac14-88109a8c8c1f\",\"更新年度\":2022,\"前年同一\":true},[{\"筆ポリゴンID\":\"cbafe1c8-51fc-44d8-8985-d91ecbd83e5b\",\"更新年度\":2021,\"前年同一\":true},{\"筆ポリゴンID\":\"cbafe1c8-51fc-44d8-8985-d91ecbd83e5b\",\"発生年度\":2020}]]]","last_polygon_uuid":"dd3fdcad-0202-4332-88ef-88a9214773b0","prev_last_polygon_uuid":"469fae29-4d91-4f04-ac14-88109a8c8c1f","local_government_cd":"011088","point_lng":141.480505949,"point_lat":43.049458996}},{"arcs":[[40]],"type":"Polygon","properties":{"polygon_uuid":"75e48976-7827-494d-b6d4-6b0b0549fde8","land_type":200,"issue_year":2024,"edit_year":2020,"history":"[{\"筆ポリゴンID\":\"343a7dc7-d87e-4703-adb9-c0d30862027f\",\"更新年度\":2023,\"前年同一\":true},[{\"筆ポリゴンID\":\"3e83b4fd-73c4-458f-b477-d6ee6abc957e\",\"更新年度\":2022,\"前年同一\":true},[{\"筆ポリゴンID\":\"345d593c-f84c-43d7-ba08-9bb43f0d2502\",\"更新年度\":2021,\"前年同一\":true},{\"筆ポリゴンID\":\"345d593c-f84c-43d7-ba08-9bb43f0d2502\",\"発生年度\":2020}]]]","last_polygon_uuid":"343a7dc7-d87e-4703-adb9-c0d30862027f","prev_last_polygon_uuid":"3e83b4fd-73c4-458f-b477-d6ee6abc957e","local_government_cd":"011088","point_lng":141.477643523,"point_lat":43.04917994}},{"arcs":[[41]],"type":"Polygon","properties":{"polygon_uuid":"307f5ba8-34c3-46b1-957c-32b960ee7486","land_type":200,"issue_year":2024,"edit_year":2020,"history":"[{\"筆ポリゴンID\":\"366af8d3-75c5-464b-9302-c06cc0d82393\",\"更新年度\":2023,\"前年同一\":true},[{\"筆ポリゴンID\":\"1688c91c-9a82-4141-aba2-505501bee68f\",\"更新年度\":2022,\"前年同一\":true},[{\"筆ポリゴンID\":\"5483f10a-f695-4ace-8f71-97ed76c0690e\",\"更新年度\":2021,\"前年同一\":true},{\"筆ポリゴンID\":\"5483f10a-f695-4ace-8f71-97ed76c0690e\",\"発生年度\":2020}]]]","last_polygon_uuid":"366af8d3-75c5-464b-9302-c06cc0d82393","prev_last_polygon_uuid":"1688c91c-9a82-4141-aba2-505501bee68f","local_government_cd":"011088","point_lng":141.50092793,"point_lat":43.042788137}},{"arcs":[[42]],"type":"Polygon","properties":{"polygon_uuid":"050e7cc7-7649-4c06-b521-4c9979e048f7","land_type":200,"issue_year":2024,"edit_year":2020,"history":"[{\"筆ポリゴンID\":\"81376a3c-1c40-4124-afc9-7b8aa0f16162\",\"更新年度\":2023,\"前年同一\":true},[{\"筆ポリゴンID\":\"c032e4b6-5012-4c7d-93ee-92d9142f8e72\",\"更新年度\":2022,\"前年同一\":true},[{\"筆ポリゴンID\":\"5e729b40-701b-49e8-be47-4fbf91161fdb\",\"更新年度\":2021,\"前年同一\":true},{\"筆ポリゴンID\":\"5e729b40-701b-49e8-be47-4fbf91161fdb\",\"発生年度\":2020}]]]","last_polygon_uuid":"81376a3c-1c40-4124-afc9-7b8aa0f16162","prev_last_polygon_uuid":"c032e4b6-5012-4c7d-93ee-92d9142f8e72","local_government_cd":"011088","point_lng":141.500533434,"point_lat":43.042749547}},{"arcs":[[43]],"type":"Polygon","properties":{"polygon_uuid":"b75fede9-30c6-45a1-b9e5-b8fa9d9397e7","land_type":200,"issue_year":2024,"edit_year":2020,"history":"[{\"筆ポリゴンID\":\"38e9cf1e-919e-48ee-8b8d-f14d0a45173c\",\"更新年度\":2023,\"前年同一\":true},[{\"筆ポリゴンID\":\"ed3fe49d-b483-4b90-a03e-6f50afc1bd1e\",\"更新年度\":2022,\"前年同一\":true},[{\"筆ポリゴンID\":\"201cc847-36b1-4cea-af89-dad825df0914\",\"更新年度\":2021,\"前年同一\":true},{\"筆ポリゴンID\":\"201cc847-36b1-4cea-af89-dad825df0914\",\"発生年度\":2020}]]]","last_polygon_uuid":"38e9cf1e-919e-48ee-8b8d-f14d0a45173c","prev_last_polygon_uuid":"ed3fe49d-b483-4b90-a03e-6f50afc1bd1e","local_government_cd":"011088","point_lng":141.463491656,"point_lat":43.065803684}},{"arcs":[[44]],"type":"Polygon","properties":{"polygon_uuid":"e2783563-3429-4562-bb22-1d4a637b438d","land_type":200,"issue_year":2024,"edit_year":2020,"history":"[{\"筆ポリゴンID\":\"ab823cbc-3d89-4732-a8fb-3d63012fe4f4\",\"更新年度\":2023,\"前年同一\":true},[{\"筆ポリゴンID\":\"1390da28-225b-441d-b198-dd0a499e6a28\",\"更新年度\":2022,\"前年同一\":true},[{\"筆ポリゴンID\":\"450c3d1c-a674-4aeb-9984-d3a84a11882d\",\"更新年度\":2021,\"前年同一\":true},{\"筆ポリゴンID\":\"450c3d1c-a674-4aeb-9984-d3a84a11882d\",\"発生年度\":2020}]]]","last_polygon_uuid":"ab823cbc-3d89-4732-a8fb-3d63012fe4f4","prev_last_polygon_uuid":"1390da28-225b-441d-b198-dd0a499e6a28","local_government_cd":"011088","point_lng":141.460609654,"point_lat":43.065289812}},{"arcs":[[45]],"type":"Polygon","properties":{"polygon_uuid":"c712e281-fe9f-4973-a80a-93c3ca86a66b","land_type":200,"issue_year":2024,"edit_year":2020,"history":"[{\"筆ポリゴンID\":\"0b1009e6-56a7-4c1e-b6fe-275398afc64b\",\"更新年度\":2023,\"前年同一\":true},[{\"筆ポリゴンID\":\"722c7559-0e66-463a-969b-820a96e7cf1c\",\"更新年度\":2022,\"前年同一\":true},[{\"筆ポリゴンID\":\"0720b785-83a7-4779-aecd-18f4f3b80f2d\",\"更新年度\":2021,\"前年同一\":true},{\"筆ポリゴンID\":\"0720b785-83a7-4779-aecd-18f4f3b80f2d\",\"発生年度\":2020}]]]","last_polygon_uuid":"0b1009e6-56a7-4c1e-b6fe-275398afc64b","prev_last_polygon_uuid":"722c7559-0e66-463a-969b-820a96e7cf1c","local_government_cd":"011088","point_lng":141.4975939,"point_lat":43.042512135}},{"arcs":[[46]],"type":"Polygon","properties":{"polygon_uuid":"f2af5834-23a6-44e9-9f8e-73f5e096c8ac","land_type":200,"issue_year":2024,"edit_year":2020,"history":"[{\"筆ポリゴンID\":\"b503b7a3-5b78-401c-9d3c-ef2fb98a0e2c\",\"更新年度\":2023,\"前年同一\":true},[{\"筆ポリゴンID\":\"19697b22-0288-4084-a8b3-e7c1d2d3b6ad\",\"更新年度\":2022,\"前年同一\":true},[{\"筆ポリゴンID\":\"86fc254f-3f11-47f8-b393-f256834e4170\",\"更新年度\":2021,\"前年同一\":true},{\"筆ポリゴンID\":\"86fc254f-3f11-47f8-b393-f256834e4170\",\"発生年度\":2020}]]]","last_polygon_uuid":"b503b7a3-5b78-401c-9d3c-ef2fb98a0e2c","prev_last_polygon_uuid":"19697b22-0288-4084-a8b3-e7c1d2d3b6ad","local_government_cd":"011088","point_lng":141.497890712,"point_lat":43.04248943}},{"arcs":[[47]],"type":"Polygon","properties":{"polygon_uuid":"a36c8c3f-a514-44bf-9230-46fb8c8cbdb4","land_type":200,"issue_year":2024,"edit_year":2020,"history":"[{\"筆ポリゴンID\":\"ce634c68-1ecb-43ec-a027-6c7629680bbe\",\"更新年度\":2023,\"前年同一\":true},[{\"筆ポリゴンID\":\"b91b1273-ece6-4d72-8196-c1a857fb61db\",\"更新年度\":2022,\"前年同一\":true},[{\"筆ポリゴンID\":\"ae43e5d5-bf30-483c-b157-99c8b820a6b6\",\"更新年度\":2021,\"前年同一\":true},{\"筆ポリゴンID\":\"ae43e5d5-bf30-483c-b157-99c8b820a6b6\",\"発生年度\":2020}]]]","last_polygon_uuid":"ce634c68-1ecb-43ec-a027-6c7629680bbe","prev_last_polygon_uuid":"b91b1273-ece6-4d72-8196-c1a857fb61db","local_government_cd":"011088","point_lng":141.500777068,"point_lat":43.042429877}},{"arcs":[[48]],"type":"Polygon","properties":{"polygon_uuid":"65c58ee1-ca36-4599-8d46-d18b41108a28","land_type":200,"issue_year":2024,"edit_year":2020,"history":"[{\"筆ポリゴンID\":\"55a918ae-f6c2-4791-9d2b-48fcbf849296\",\"更新年度\":2023,\"前年同一\":true},[{\"筆ポリゴンID\":\"5f4c7948-2835-4c0b-8321-d90e55df65dc\",\"更新年度\":2022,\"前年同一\":true},[{\"筆ポリゴンID\":\"d2b1818a-7d07-4180-846d-d559d11424a4\",\"更新年度\":2021,\"前年同一\":true},{\"筆ポリゴンID\":\"d2b1818a-7d07-4180-846d-d559d11424a4\",\"発生年度\":2020}]]]","last_polygon_uuid":"55a918ae-f6c2-4791-9d2b-48fcbf849296","prev_last_polygon_uuid":"5f4c7948-2835-4c0b-8321-d90e55df65dc","local_government_cd":"011088","point_lng":141.498837145,"point_lat":43.042324616}},{"arcs":[[49]],"type":"Polygon","properties":{"polygon_uuid":"45243962-4f83-418f-8624-7921540a2743","land_type":200,"issue_year":2024,"edit_year":2020,"history":"[{\"筆ポリゴンID\":\"0ab2573c-7d99-42eb-b28e-d1d5a5ff5241\",\"更新年度\":2023,\"前年同一\":true},[{\"筆ポリゴンID\":\"0c5d27a8-2836-4578-88bb-99d0000d044a\",\"更新年度\":2022,\"前年同一\":true},[{\"筆ポリゴンID\":\"a4512ecb-858d-413d-8703-0b5807403a3b\",\"更新年度\":2021,\"前年同一\":true},{\"筆ポリゴンID\":\"a4512ecb-858d-413d-8703-0b5807403a3b\",\"発生年度\":2020}]]]","last_polygon_uuid":"0ab2573c-7d99-42eb-b28e-d1d5a5ff5241","prev_last_polygon_uuid":"0c5d27a8-2836-4578-88bb-99d0000d044a","local_government_cd":"011088","point_lng":141.497738163,"point_lat":43.042213312}},{"arcs":[[50]],"type":"Polygon","properties":{"polygon_uuid":"f7cc7f2f-25c3-4ef1-b0fa-51131cd90070","land_type":200,"issue_year":2024,"edit_year":2020,"history":"[{\"筆ポリゴンID\":\"b2bffeeb-a48d-429e-9b2a-97723c40bb9a\",\"更新年度\":2023,\"前年同一\":true},[{\"筆ポリゴンID\":\"6d712d18-2cf8-40c4-aa71-464bd9718abd\",\"更新年度\":2022,\"前年同一\":true},[{\"筆ポリゴンID\":\"8589d29a-d795-41a0-8cab-3dc9dfcd6af6\",\"更新年度\":2021,\"前年同一\":true},{\"筆ポリゴンID\":\"8589d29a-d795-41a0-8cab-3dc9dfcd6af6\",\"発生年度\":2020}]]]","last_polygon_uuid":"b2bffeeb-a48d-429e-9b2a-97723c40bb9a","prev_last_polygon_uuid":"6d712d18-2cf8-40c4-aa71-464bd9718abd","local_government_cd":"011088","point_lng":141.461980575,"point_lat":43.06647464}},{"arcs":[[51]],"type":"Polygon","properties":{"polygon_uuid":"570ef7bf-5746-4ee4-b4c9-f4f31a40dd26","land_type":200,"issue_year":2024,"edit_year":2020,"history":"[{\"筆ポリゴンID\":\"48707c43-3cb7-4295-b555-2557e37b0032\",\"更新年度\":2023,\"前年同一\":true},[{\"筆ポリゴンID\":\"747e37db-5628-47e2-98e3-efd18d3bf7f5\",\"更新年度\":2022,\"前年同一\":true},[{\"筆ポリゴンID\":\"e524008a-4386-4763-8ac3-e9be3525ab0c\",\"更新年度\":2021,\"前年同一\":true},{\"筆ポリゴンID\":\"e524008a-4386-4763-8ac3-e9be3525ab0c\",\"発生年度\":2020}]]]","last_polygon_uuid":"48707c43-3cb7-4295-b555-2557e37b0032","prev_last_polygon_uuid":"747e37db-5628-47e2-98e3-efd18d3bf7f5","local_government_cd":"011088","point_lng":141.499151942,"point_lat":43.041710532}},{"arcs":[[52]],"type":"Polygon","properties":{"polygon_uuid":"880882d5-6bbd-44d9-a7a2-4ba86da42dd7","land_type":200,"issue_year":2024,"edit_year":2020,"history":"[{\"筆ポリゴンID\":\"6694ca3d-d3fb-4724-84e1-7e55d1dff9fd\",\"更新年度\":2023,\"前年同一\":true},[{\"筆ポリゴンID\":\"2b4ed8f2-66e4-4417-818d-6bfa8b53d46e\",\"更新年度\":2022,\"前年同一\":true},[{\"筆ポリゴンID\":\"318c9ec2-93d9-4b5a-a6eb-86f6f4fabd86\",\"更新年度\":2021,\"前年同一\":true},{\"筆ポリゴンID\":\"318c9ec2-93d9-4b5a-a6eb-86f6f4fabd86\",\"発生年度\":2020}]]]","last_polygon_uuid":"6694ca3d-d3fb-4724-84e1-7e55d1dff9fd","prev_last_polygon_uuid":"2b4ed8f2-66e4-4417-818d-6bfa8b53d46e","local_government_cd":"011088","point_lng":141.500726272,"point_lat":43.042138981}},{"arcs":[[53]],"type":"Polygon","properties":{"polygon_uuid":"bd85bade-231a-40e0-9dcf-f4dffdc08668","land_type":200,"issue_year":2024,"edit_year":2020,"history":"[{\"筆ポリゴンID\":\"7de00774-87e2-45c2-8780-69cb8d908a54\",\"更新年度\":2023,\"前年同一\":true},[{\"筆ポリゴンID\":\"5cdf3ab0-3a30-4143-819b-ea1745a4e882\",\"更新年度\":2022,\"前年同一\":true},[{\"筆ポリゴンID\":\"53fc9fb6-ce78-4bba-8f97-e682cce81729\",\"更新年度\":2021,\"前年同一\":true},{\"筆ポリゴンID\":\"53fc9fb6-ce78-4bba-8f97-e682cce81729\",\"発生年度\":2020}]]]","last_polygon_uuid":"7de00774-87e2-45c2-8780-69cb8d908a54","prev_last_polygon_uuid":"5cdf3ab0-3a30-4143-819b-ea1745a4e882","local_government_cd":"011088","point_lng":141.500908621,"point_lat":43.042071468}},{"arcs":[[54]],"type":"Polygon","properties":{"polygon_uuid":"58fa343e-8750-44b1-8df2-24696629a20e","land_type":200,"issue_year":2024,"edit_year":2020,"history":"[{\"筆ポリゴンID\":\"fb4f054c-5fa2-4152-a768-97a817f10824\",\"更新年度\":2023,\"前年同一\":true},[{\"筆ポリゴンID\":\"e6ed0d6b-b4a3-48c0-a30e-0cddc5248b53\",\"更新年度\":2022,\"前年同一\":true},[{\"筆ポリゴンID\":\"d24d9cab-087b-4110-9b4a-f050a63e9a3d\",\"更新年度\":2021,\"前年同一\":true},{\"筆ポリゴンID\":\"d24d9cab-087b-4110-9b4a-f050a63e9a3d\",\"発生年度\":2020}]]]","last_polygon_uuid":"fb4f054c-5fa2-4152-a768-97a817f10824","prev_last_polygon_uuid":"e6ed0d6b-b4a3-48c0-a30e-0cddc5248b53","local_government_cd":"011088","point_lng":141.499979448,"point_lat":43.041940147}},{"arcs":[[55]],"type":"Polygon","properties":{"polygon_uuid":"0e3b436c-faf5-4c9a-9e1a-b01408faebeb","land_type":200,"issue_year":2024,"edit_year":2020,"history":"[{\"筆ポリゴンID\":\"5ccdb835-3036-40ee-92a1-7bea58324fd5\",\"更新年度\":2023,\"前年同一\":true},[{\"筆ポリゴンID\":\"f51de0ac-9d38-4b64-a492-72e77d371894\",\"更新年度\":2022,\"前年同一\":true},[{\"筆ポリゴンID\":\"a7c492cf-b4f3-4c85-aac1-a503bcf0684f\",\"更新年度\":2021,\"前年同一\":true},{\"筆ポリゴンID\":\"a7c492cf-b4f3-4c85-aac1-a503bcf0684f\",\"発生年度\":2020}]]]","last_polygon_uuid":"5ccdb835-3036-40ee-92a1-7bea58324fd5","prev_last_polygon_uuid":"f51de0ac-9d38-4b64-a492-72e77d371894","local_government_cd":"011088","point_lng":141.480072962,"point_lat":43.048977387}},{"arcs":[[56]],"type":"Polygon","properties":{"polygon_uuid":"bd01c293-33da-48a3-9737-b6f1eed76567","land_type":200,"issue_year":2024,"edit_year":2020,"history":"[{\"筆ポリゴンID\":\"632eb8cf-f2ae-4959-aa25-2b6505c267dc\",\"更新年度\":2023,\"前年同一\":true},[{\"筆ポリゴンID\":\"a3da415b-8222-4bcc-8a4f-38c7259598dd\",\"更新年度\":2022,\"前年同一\":true},[{\"筆ポリゴンID\":\"5d34164f-4412-468c-a627-ab3f7f3ab0dc\",\"更新年度\":2021,\"前年同一\":true},{\"筆ポリゴンID\":\"5d34164f-4412-468c-a627-ab3f7f3ab0dc\",\"発生年度\":2020}]]]","last_polygon_uuid":"632eb8cf-f2ae-4959-aa25-2b6505c267dc","prev_last_polygon_uuid":"a3da415b-8222-4bcc-8a4f-38c7259598dd","local_government_cd":"011088","point_lng":141.497904963,"point_lat":43.041812571}},{"arcs":[[57]],"type":"Polygon","properties":{"polygon_uuid":"69daa56d-47fa-4eb6-90d3-64c6babef2d0","land_type":200,"issue_year":2024,"edit_year":2020,"history":"[{\"筆ポリゴンID\":\"4e7445f6-297f-45c7-9b4e-86f88e12a9a3\",\"更新年度\":2023,\"前年同一\":true},[{\"筆ポリゴンID\":\"2b9578fc-3b67-4e11-9085-5cb8cbbce630\",\"更新年度\":2022,\"前年同一\":true},[{\"筆ポリゴンID\":\"2bd47700-c1d8-4c23-8524-af09ea59dcc1\",\"更新年度\":2021,\"前年同一\":true},{\"筆ポリゴンID\":\"2bd47700-c1d8-4c23-8524-af09ea59dcc1\",\"発生年度\":2020}]]]","last_polygon_uuid":"4e7445f6-297f-45c7-9b4e-86f88e12a9a3","prev_last_polygon_uuid":"2b9578fc-3b67-4e11-9085-5cb8cbbce630","local_government_cd":"011088","point_lng":141.45953293,"point_lat":43.063893821}},{"arcs":[[58]],"type":"Polygon","properties":{"polygon_uuid":"398093b7-30b2-4860-9955-95e69397d9fe","land_type":200,"issue_year":2024,"edit_year":2020,"history":"[{\"筆ポリゴンID\":\"463a88ed-0fc4-40be-bea1-bfddcbbcdf9f\",\"更新年度\":2023,\"前年同一\":true},[{\"筆ポリゴンID\":\"472cca53-8c9f-4340-a941-fcc1a23576f1\",\"更新年度\":2022,\"前年同一\":true},[{\"筆ポリゴンID\":\"046c8ecb-dd09-40ce-a4ac-0e84c785e0aa\",\"更新年度\":2021,\"前年同一\":true},{\"筆ポリゴンID\":\"046c8ecb-dd09-40ce-a4ac-0e84c785e0aa\",\"発生年度\":2020}]]]","last_polygon_uuid":"463a88ed-0fc4-40be-bea1-bfddcbbcdf9f","prev_last_polygon_uuid":"472cca53-8c9f-4340-a941-fcc1a23576f1","local_government_cd":"011088","point_lng":141.479353239,"point_lat":43.048773921}},{"arcs":[[59]],"type":"Polygon","properties":{"polygon_uuid":"fef96aa6-b5c5-44f8-96c8-ee39760eb3b7","land_type":200,"issue_year":2024,"edit_year":2020,"history":"[{\"筆ポリゴンID\":\"94da4834-d1cd-42b3-a7bc-3c4383a6c803\",\"更新年度\":2023,\"前年同一\":true},[{\"筆ポリゴンID\":\"15bd1c37-1747-4de6-a0be-52877eabf17f\",\"更新年度\":2022,\"前年同一\":true},[{\"筆ポリゴンID\":\"90aa8660-bdb0-499e-bd51-562e03b36aa8\",\"更新年度\":2021,\"前年同一\":true},{\"筆ポリゴンID\":\"90aa8660-bdb0-499e-bd51-562e03b36aa8\",\"発生年度\":2020}]]]","last_polygon_uuid":"94da4834-d1cd-42b3-a7bc-3c4383a6c803","prev_last_polygon_uuid":"15bd1c37-1747-4de6-a0be-52877eabf17f","local_government_cd":"011088","point_lng":141.481948994,"point_lat":43.048677819}},{"arcs":[[60]],"type":"Polygon","properties":{"polygon_uuid":"5f155c2a-79d9-48df-a656-ed3e3cd1e990","land_type":200,"issue_year":2024,"edit_year":2020,"history":"[{\"筆ポリゴンID\":\"61588538-dfa8-486b-b7fb-10e9bc0d68db\",\"更新年度\":2023,\"前年同一\":true},[{\"筆ポリゴンID\":\"c6dc58f3-9532-4e9c-b000-8a2197a6132b\",\"更新年度\":2022,\"前年同一\":true},[{\"筆ポリゴンID\":\"7031399c-de6d-401c-9d49-b7f2f973cc70\",\"更新年度\":2021,\"前年同一\":true},{\"筆ポリゴンID\":\"7031399c-de6d-401c-9d49-b7f2f973cc70\",\"発生年度\":2020}]]]","last_polygon_uuid":"61588538-dfa8-486b-b7fb-10e9bc0d68db","prev_last_polygon_uuid":"c6dc58f3-9532-4e9c-b000-8a2197a6132b","local_government_cd":"011088","point_lng":141.49850907,"point_lat":43.041411649}},{"arcs":[[61]],"type":"Polygon","properties":{"polygon_uuid":"89d1db77-b783-454b-9e87-7a1e92f0ff79","land_type":200,"issue_year":2024,"edit_year":2020,"history":"[{\"筆ポリゴンID\":\"f3442875-6844-453d-9481-b2e3af62ee4c\",\"更新年度\":2023,\"前年同一\":true},[{\"筆ポリゴンID\":\"c721dbb8-1ebb-4198-8283-64ec57176c0e\",\"更新年度\":2022,\"前年同一\":true},[{\"筆ポリゴンID\":\"9aa7b4ac-1932-41d9-b62c-c1ab0aae5724\",\"更新年度\":2021,\"前年同一\":true},{\"筆ポリゴンID\":\"9aa7b4ac-1932-41d9-b62c-c1ab0aae5724\",\"発生年度\":2020}]]]","last_polygon_uuid":"f3442875-6844-453d-9481-b2e3af62ee4c","prev_last_polygon_uuid":"c721dbb8-1ebb-4198-8283-64ec57176c0e","local_government_cd":"011088","point_lng":141.459497744,"point_lat":43.067933715}},{"arcs":[[62]],"type":"Polygon","properties":{"polygon_uuid":"b586ab72-09da-4a57-a7fd-29c2729d43d3","land_type":200,"issue_year":2024,"edit_year":2020,"history":"[{\"筆ポリゴンID\":\"4283b971-1d56-4ea3-b73f-7c65acb609de\",\"更新年度\":2023,\"前年同一\":true},[{\"筆ポリゴンID\":\"9aae9cbb-0bad-499b-bef0-f8833d1db416\",\"更新年度\":2022,\"前年同一\":true},[{\"筆ポリゴンID\":\"82dcb4c9-c05c-440c-b35c-549b17eb1a39\",\"更新年度\":2021,\"前年同一\":true},{\"筆ポリゴンID\":\"82dcb4c9-c05c-440c-b35c-549b17eb1a39\",\"発生年度\":2020}]]]","last_polygon_uuid":"4283b971-1d56-4ea3-b73f-7c65acb609de","prev_last_polygon_uuid":"9aae9cbb-0bad-499b-bef0-f8833d1db416","local_government_cd":"011088","point_lng":141.474500971,"point_lat":43.050965897}},{"arcs":[[63]],"type":"Polygon","properties":{"polygon_uuid":"7348bfac-63cf-44aa-b968-730b4163dfae","land_type":200,"issue_year":2024,"edit_year":2020,"history":"[{\"筆ポリゴンID\":\"94d3e679-60b8-4ca7-a917-dd897a672b20\",\"更新年度\":2023,\"前年同一\":true},[{\"筆ポリゴンID\":\"efedab6b-1d72-47f5-8920-905ba2d1d754\",\"更新年度\":2022,\"前年同一\":true},[{\"筆ポリゴンID\":\"494642b1-8084-46f8-aa2e-e2458b1aa0c5\",\"更新年度\":2021,\"前年同一\":true},{\"筆ポリゴンID\":\"494642b1-8084-46f8-aa2e-e2458b1aa0c5\",\"発生年度\":2020}]]]","last_polygon_uuid":"94d3e679-60b8-4ca7-a917-dd897a672b20","prev_last_polygon_uuid":"efedab6b-1d72-47f5-8920-905ba2d1d754","local_government_cd":"011088","point_lng":141.499454626,"point_lat":43.039617641}},{"arcs":[[64]],"type":"Polygon","properties":{"polygon_uuid":"95cd3dd6-62ee-42ed-b58b-04bc919b51a0","land_type":200,"issue_year":2024,"edit_year":2020,"history":"[{\"筆ポリゴンID\":\"b9903feb-097a-416c-848c-62f80a16ab3e\",\"更新年度\":2023,\"前年同一\":true},[{\"筆ポリゴンID\":\"4e98fa43-8adb-4c1d-8751-7c0ead8f21a4\",\"更新年度\":2022,\"前年同一\":true},[{\"筆ポリゴンID\":\"4cce8fa8-e805-4ac4-8abe-f8206bac851f\",\"更新年度\":2021,\"前年同一\":true},{\"筆ポリゴンID\":\"4cce8fa8-e805-4ac4-8abe-f8206bac851f\",\"発生年度\":2020}]]]","last_polygon_uuid":"b9903feb-097a-416c-848c-62f80a16ab3e","prev_last_polygon_uuid":"4e98fa43-8adb-4c1d-8751-7c0ead8f21a4","local_government_cd":"011088","point_lng":141.459547218,"point_lat":43.064924746}},{"arcs":[[65]],"type":"Polygon","properties":{"polygon_uuid":"ea972587-08ed-4dba-9392-c4b522673091","land_type":200,"issue_year":2024,"edit_year":2020,"history":"[{\"筆ポリゴンID\":\"acc6529c-da45-4fa1-9005-f1ea3615ea0b\",\"更新年度\":2023,\"前年同一\":true},[{\"筆ポリゴンID\":\"a09a73b8-5fb2-4e85-ab8e-444e3596cb2c\",\"更新年度\":2022,\"前年同一\":true},[{\"筆ポリゴンID\":\"dd1cd29b-813f-4427-9830-f3236ef22982\",\"更新年度\":2021,\"前年同一\":true},{\"筆ポリゴンID\":\"dd1cd29b-813f-4427-9830-f3236ef22982\",\"発生年度\":2020}]]]","last_polygon_uuid":"acc6529c-da45-4fa1-9005-f1ea3615ea0b","prev_last_polygon_uuid":"a09a73b8-5fb2-4e85-ab8e-444e3596cb2c","local_government_cd":"011088","point_lng":141.498633871,"point_lat":43.040776055}},{"arcs":[[66]],"type":"Polygon","properties":{"polygon_uuid":"54efee52-3314-47c3-b9d5-b751c24ec6d0","land_type":200,"issue_year":2024,"edit_year":2020,"history":"[{\"筆ポリゴンID\":\"5a509250-4786-4956-a0dd-a7bd68761b23\",\"更新年度\":2023,\"前年同一\":true},[{\"筆ポリゴンID\":\"55fd9a30-d683-4914-9b43-41b588cf8c90\",\"更新年度\":2022,\"前年同一\":true},[{\"筆ポリゴンID\":\"1ecd1d90-bd97-4d55-bfa3-e59b56403ae5\",\"更新年度\":2021,\"前年同一\":true},{\"筆ポリゴンID\":\"1ecd1d90-bd97-4d55-bfa3-e59b56403ae5\",\"発生年度\":2020}]]]","last_polygon_uuid":"5a509250-4786-4956-a0dd-a7bd68761b23","prev_last_polygon_uuid":"55fd9a30-d683-4914-9b43-41b588cf8c90","local_government_cd":"011088","point_lng":141.49436159,"point_lat":43.043975046}},{"arcs":[[67]],"type":"Polygon","properties":{"polygon_uuid":"d5a3bb80-56cb-447d-ade7-335ffa4759ee","land_type":200,"issue_year":2024,"edit_year":2020,"history":"[{\"筆ポリゴンID\":\"8b37efff-1dd7-46ad-a39d-f5b4f394f915\",\"更新年度\":2023,\"前年同一\":true},[{\"筆ポリゴンID\":\"c87aa2eb-ce6c-4521-8d9e-01451f47a4ad\",\"更新年度\":2022,\"前年同一\":true},[{\"筆ポリゴンID\":\"96cc2f1d-8aa8-4869-af93-cd130c558ef5\",\"更新年度\":2021,\"前年同一\":true},{\"筆ポリゴンID\":\"96cc2f1d-8aa8-4869-af93-cd130c558ef5\",\"発生年度\":2020}]]]","last_polygon_uuid":"8b37efff-1dd7-46ad-a39d-f5b4f394f915","prev_last_polygon_uuid":"c87aa2eb-ce6c-4521-8d9e-01451f47a4ad","local_government_cd":"011088","point_lng":141.460644601,"point_lat":43.065116821}},{"arcs":[[68]],"type":"Polygon","properties":{"polygon_uuid":"029caa4d-d0b4-4274-9cc6-d1594efa35b8","land_type":200,"issue_year":2024,"edit_year":2020,"history":"[{\"筆ポリゴンID\":\"fa988325-000a-4a72-b5ab-cb783c1da1bc\",\"更新年度\":2023,\"前年同一\":true},[{\"筆ポリゴンID\":\"16d97422-3d28-4d03-82fa-14b1a5336345\",\"更新年度\":2022,\"前年同一\":true},[{\"筆ポリゴンID\":\"72116ac8-1808-4552-bae2-1b227547603f\",\"更新年度\":2021,\"前年同一\":true},{\"筆ポリゴンID\":\"72116ac8-1808-4552-bae2-1b227547603f\",\"発生年度\":2020}]]]","last_polygon_uuid":"fa988325-000a-4a72-b5ab-cb783c1da1bc","prev_last_polygon_uuid":"16d97422-3d28-4d03-82fa-14b1a5336345","local_government_cd":"011088","point_lng":141.498519744,"point_lat":43.040484548}},{"arcs":[[69]],"type":"Polygon","properties":{"polygon_uuid":"96287019-018c-4723-9e11-1210f42a1f91","land_type":200,"issue_year":2024,"edit_year":2020,"history":"[{\"筆ポリゴンID\":\"dcb531da-484c-4301-9d3e-1517f8be68bb\",\"更新年度\":2023,\"前年同一\":true},[{\"筆ポリゴンID\":\"dd8a9555-59f4-488b-b37e-8e52d3d04f85\",\"更新年度\":2022,\"前年同一\":true},[{\"筆ポリゴンID\":\"cac896ba-94a4-4584-b716-7c8985ff54f4\",\"更新年度\":2021,\"前年同一\":true},{\"筆ポリゴンID\":\"cac896ba-94a4-4584-b716-7c8985ff54f4\",\"発生年度\":2020}]]]","last_polygon_uuid":"dcb531da-484c-4301-9d3e-1517f8be68bb","prev_last_polygon_uuid":"dd8a9555-59f4-488b-b37e-8e52d3d04f85","local_government_cd":"011088","point_lng":141.498105997,"point_lat":43.040461669}},{"arcs":[[70]],"type":"Polygon","properties":{"polygon_uuid":"78cbadd9-258e-4068-81af-a9d395da58e7","land_type":200,"issue_year":2024,"edit_year":2020,"history":"[{\"筆ポリゴンID\":\"a7b03be5-3e07-41ca-8035-97572662b99f\",\"更新年度\":2023,\"前年同一\":true},[{\"筆ポリゴンID\":\"6d2489cc-cba2-4815-827b-cafdaf56d5d1\",\"更新年度\":2022,\"前年同一\":true},[{\"筆ポリゴンID\":\"d2db8dfb-e729-495d-84cc-18853a28a678\",\"更新年度\":2021,\"前年同一\":true},{\"筆ポリゴンID\":\"d2db8dfb-e729-495d-84cc-18853a28a678\",\"発生年度\":2020}]]]","last_polygon_uuid":"a7b03be5-3e07-41ca-8035-97572662b99f","prev_last_polygon_uuid":"6d2489cc-cba2-4815-827b-cafdaf56d5d1","local_government_cd":"011088","point_lng":141.459195733,"point_lat":43.060720934}},{"arcs":[[71]],"type":"Polygon","properties":{"polygon_uuid":"2e0c6843-d621-4bc5-a8f2-d7653e520bd3","land_type":200,"issue_year":2024,"edit_year":2020,"history":"[{\"筆ポリゴンID\":\"7e42e50c-c2a0-4bc1-8563-f15ac587e410\",\"更新年度\":2023,\"前年同一\":true},[{\"筆ポリゴンID\":\"b836800a-4a78-4b8d-899e-0b236844e38b\",\"更新年度\":2022,\"前年同一\":true},[{\"筆ポリゴンID\":\"1e604bac-acf4-442f-adfb-7a3d67b6e2a4\",\"更新年度\":2021,\"前年同一\":true},{\"筆ポリゴンID\":\"1e604bac-acf4-442f-adfb-7a3d67b6e2a4\",\"発生年度\":2020}]]]","last_polygon_uuid":"7e42e50c-c2a0-4bc1-8563-f15ac587e410","prev_last_polygon_uuid":"b836800a-4a78-4b8d-899e-0b236844e38b","local_government_cd":"011088","point_lng":141.497837365,"point_lat":43.040265228}},{"arcs":[[72]],"type":"Polygon","properties":{"polygon_uuid":"234f0433-51a6-4603-8d34-765f2e1b51e2","land_type":200,"issue_year":2024,"edit_year":2020,"history":"[{\"筆ポリゴンID\":\"e62a663f-72f3-4296-be2b-50a2c184a05e\",\"更新年度\":2023,\"前年同一\":true},[{\"筆ポリゴンID\":\"ec6981d9-b8ef-4a61-9f1d-dc0aaa8f7bbb\",\"更新年度\":2022,\"前年同一\":true},[{\"筆ポリゴンID\":\"95d646fb-1bb3-43fc-9598-b5d9abdace32\",\"更新年度\":2021,\"前年同一\":true},{\"筆ポリゴンID\":\"95d646fb-1bb3-43fc-9598-b5d9abdace32\",\"発生年度\":2020}]]]","last_polygon_uuid":"e62a663f-72f3-4296-be2b-50a2c184a05e","prev_last_polygon_uuid":"ec6981d9-b8ef-4a61-9f1d-dc0aaa8f7bbb","local_government_cd":"011088","point_lng":141.460865146,"point_lat":43.073964196}},{"arcs":[[73]],"type":"Polygon","properties":{"polygon_uuid":"4198b82c-bceb-4ab2-9c16-72bc565803a6","land_type":200,"issue_year":2024,"edit_year":2020,"history":"[{\"筆ポリゴンID\":\"a8115f0e-1b3f-478a-b117-4d6d0defa8ac\",\"更新年度\":2023,\"前年同一\":true},[{\"筆ポリゴンID\":\"fd7becc5-3344-49dc-a9be-264964456c13\",\"更新年度\":2022,\"前年同一\":true},[{\"筆ポリゴンID\":\"3972f3fe-fecf-4f89-81d5-02aaec5c9d15\",\"更新年度\":2021,\"前年同一\":true},{\"筆ポリゴンID\":\"3972f3fe-fecf-4f89-81d5-02aaec5c9d15\",\"発生年度\":2020}]]]","last_polygon_uuid":"a8115f0e-1b3f-478a-b117-4d6d0defa8ac","prev_last_polygon_uuid":"fd7becc5-3344-49dc-a9be-264964456c13","local_government_cd":"011088","point_lng":141.460890383,"point_lat":43.0713219}},{"arcs":[[74,75,76,77]],"type":"Polygon","properties":{"polygon_uuid":"bc0677cf-56df-44a6-8858-4d513b228538","land_type":200,"issue_year":2024,"edit_year":2020,"history":"[{\"筆ポリゴンID\":\"824e422f-d9cf-46ae-a8f8-6d8468c5674e\",\"更新年度\":2023,\"前年同一\":true},[{\"筆ポリゴンID\":\"99a6f04f-733a-40ef-aa18-e6d6b49d7d0d\",\"更新年度\":2022,\"前年同一\":true},[{\"筆ポリゴンID\":\"040f926e-ae8b-488d-98f9-5f0c243dbb63\",\"更新年度\":2021,\"前年同一\":true},{\"筆ポリゴンID\":\"040f926e-ae8b-488d-98f9-5f0c243dbb63\",\"発生年度\":2020}]]]","last_polygon_uuid":"824e422f-d9cf-46ae-a8f8-6d8468c5674e","prev_last_polygon_uuid":"99a6f04f-733a-40ef-aa18-e6d6b49d7d0d","local_government_cd":"011088","point_lng":141.460198845,"point_lat":43.069532045}},{"arcs":[[78]],"type":"Polygon","properties":{"polygon_uuid":"ad3d92b2-f1af-4a81-b5d1-b3c6180f8923","land_type":200,"issue_year":2024,"edit_year":2020,"history":"[{\"筆ポリゴンID\":\"a2d9c674-0481-4ea4-91cd-9cdebf7c18a6\",\"更新年度\":2023,\"前年同一\":true},[{\"筆ポリゴンID\":\"e660a52e-fdef-4f93-b30c-959b148a9576\",\"更新年度\":2022,\"前年同一\":true},[{\"筆ポリゴンID\":\"d5eecbf3-4bbc-44f2-af01-44b816156353\",\"更新年度\":2021,\"前年同一\":true},{\"筆ポリゴンID\":\"d5eecbf3-4bbc-44f2-af01-44b816156353\",\"発生年度\":2020}]]]","last_polygon_uuid":"a2d9c674-0481-4ea4-91cd-9cdebf7c18a6","prev_last_polygon_uuid":"e660a52e-fdef-4f93-b30c-959b148a9576","local_government_cd":"011088","point_lng":141.473013307,"point_lat":43.091613218}},{"arcs":[[79]],"type":"Polygon","properties":{"polygon_uuid":"ccbcdb68-5d04-4479-8e17-3a46875a01fe","land_type":200,"issue_year":2024,"edit_year":2020,"history":"[{\"筆ポリゴンID\":\"33e8b514-d742-4070-8845-94c8befb9bc2\",\"更新年度\":2023,\"前年同一\":true},[{\"筆ポリゴンID\":\"9c0052b8-df3f-45fd-a173-76edd277b2df\",\"更新年度\":2022,\"前年同一\":true},[{\"筆ポリゴンID\":\"8cb49417-b14d-4fd1-8d64-3dd64b0734c4\",\"更新年度\":2021,\"前年同一\":true},{\"筆ポリゴンID\":\"8cb49417-b14d-4fd1-8d64-3dd64b0734c4\",\"発生年度\":2020}]]]","last_polygon_uuid":"33e8b514-d742-4070-8845-94c8befb9bc2","prev_last_polygon_uuid":"9c0052b8-df3f-45fd-a173-76edd277b2df","local_government_cd":"011088","point_lng":141.45884087,"point_lat":43.072230241}},{"arcs":[[80]],"type":"Polygon","properties":{"polygon_uuid":"fcc95902-7c9e-4cae-96f8-2703b335a255","land_type":200,"issue_year":2024,"edit_year":2020,"history":"[{\"筆ポリゴンID\":\"002b234d-b051-4ee9-9982-f3d04369202c\",\"更新年度\":2023,\"前年同一\":true},[{\"筆ポリゴンID\":\"d7cac1e0-841c-4d28-bcc0-0d1e9c3a0c0a\",\"更新年度\":2022,\"前年同一\":true},[{\"筆ポリゴンID\":\"eb5be1dc-87b1-4a55-81d8-61c7d4ab6322\",\"更新年度\":2021,\"前年同一\":true},{\"筆ポリゴンID\":\"eb5be1dc-87b1-4a55-81d8-61c7d4ab6322\",\"発生年度\":2020}]]]","last_polygon_uuid":"002b234d-b051-4ee9-9982-f3d04369202c","prev_last_polygon_uuid":"d7cac1e0-841c-4d28-bcc0-0d1e9c3a0c0a","local_government_cd":"011088","point_lng":141.459609106,"point_lat":43.071075127}},{"arcs":[[81,82]],"type":"Polygon","properties":{"polygon_uuid":"810d79ee-1d27-4224-952c-17fc1d1a8215","land_type":200,"issue_year":2024,"edit_year":2020,"history":"[{\"筆ポリゴンID\":\"6dcc9e7f-f169-4a7d-b740-8eb4cdbf34e7\",\"更新年度\":2023,\"前年同一\":true},[{\"筆ポリゴンID\":\"5425eebc-2086-4e4b-9024-a1700ccc85f2\",\"更新年度\":2022,\"前年同一\":true},[{\"筆ポリゴンID\":\"60922fd1-0d35-4ad0-a5eb-cd16ceaa255f\",\"更新年度\":2021,\"前年同一\":true},{\"筆ポリゴンID\":\"60922fd1-0d35-4ad0-a5eb-cd16ceaa255f\",\"発生年度\":2020}]]]","last_polygon_uuid":"6dcc9e7f-f169-4a7d-b740-8eb4cdbf34e7","prev_last_polygon_uuid":"5425eebc-2086-4e4b-9024-a1700ccc85f2","local_government_cd":"011088","point_lng":141.457446798,"point_lat":43.072449094}},{"arcs":[[83]],"type":"Polygon","properties":{"polygon_uuid":"0e0879a2-1230-4354-91fc-b424d288e350","land_type":200,"issue_year":2024,"edit_year":2020,"history":"[{\"筆ポリゴンID\":\"bd128c17-fa11-4b37-907c-25c9b4fd027a\",\"更新年度\":2023,\"前年同一\":true},[{\"筆ポリゴンID\":\"d1566dbf-af75-4b53-adf3-07ffa252f528\",\"更新年度\":2022,\"前年同一\":true},[{\"筆ポリゴンID\":\"eb377f0e-46ad-4fa6-9be3-94ceb0c4aa3f\",\"更新年度\":2021,\"前年同一\":true},{\"筆ポリゴンID\":\"eb377f0e-46ad-4fa6-9be3-94ceb0c4aa3f\",\"発生年度\":2020}]]]","last_polygon_uuid":"bd128c17-fa11-4b37-907c-25c9b4fd027a","prev_last_polygon_uuid":"d1566dbf-af75-4b53-adf3-07ffa252f528","local_government_cd":"011088","point_lng":141.458670553,"point_lat":43.07362647}},{"arcs":[[84]],"type":"Polygon","properties":{"polygon_uuid":"163ad3c6-f14f-45da-bb3f-171020280a8d","land_type":200,"issue_year":2024,"edit_year":2020,"history":"[{\"筆ポリゴンID\":\"83b2df4d-5841-4d22-8aa5-c5d5a5a4b397\",\"更新年度\":2023,\"前年同一\":true},[{\"筆ポリゴンID\":\"26eb8df0-d4c5-4de7-abbd-79fe11e262eb\",\"更新年度\":2022,\"前年同一\":true},[{\"筆ポリゴンID\":\"e828fcc8-297c-4169-94b3-5320b7758ee2\",\"更新年度\":2021,\"前年同一\":true},{\"筆ポリゴンID\":\"e828fcc8-297c-4169-94b3-5320b7758ee2\",\"発生年度\":2020}]]]","last_polygon_uuid":"83b2df4d-5841-4d22-8aa5-c5d5a5a4b397","prev_last_polygon_uuid":"26eb8df0-d4c5-4de7-abbd-79fe11e262eb","local_government_cd":"011088","point_lng":141.460944178,"point_lat":43.068962157}},{"arcs":[[85]],"type":"Polygon","properties":{"polygon_uuid":"4f3d0267-63a5-4be0-8c3c-65bca56eca37","land_type":200,"issue_year":2024,"edit_year":2020,"history":"[{\"筆ポリゴンID\":\"759d4869-d5f0-459f-9799-194c9c81f3f2\",\"更新年度\":2023,\"前年同一\":true},[{\"筆ポリゴンID\":\"9656c01e-f759-45cb-9de6-f963be05527b\",\"更新年度\":2022,\"前年同一\":true},[{\"筆ポリゴンID\":\"51dd4db2-3c63-48a5-8b53-3bae50689331\",\"更新年度\":2021,\"前年同一\":true},{\"筆ポリゴンID\":\"51dd4db2-3c63-48a5-8b53-3bae50689331\",\"発生年度\":2020}]]]","last_polygon_uuid":"759d4869-d5f0-459f-9799-194c9c81f3f2","prev_last_polygon_uuid":"9656c01e-f759-45cb-9de6-f963be05527b","local_government_cd":"011088","point_lng":141.473401019,"point_lat":43.092300593}},{"arcs":[[-82,86]],"type":"Polygon","properties":{"polygon_uuid":"63bf0353-4447-46ab-aa04-dffb7b952947","land_type":200,"issue_year":2024,"edit_year":2020,"history":"[{\"筆ポリゴンID\":\"28a53cd1-4f50-41d1-9f6d-bf60d2cab2b8\",\"更新年度\":2023,\"前年同一\":true},[{\"筆ポリゴンID\":\"d01f39cd-47a5-4747-8454-725d30efd63e\",\"更新年度\":2022,\"前年同一\":true},[{\"筆ポリゴンID\":\"67a899b3-0e61-478b-b40b-3c20e01b03d4\",\"更新年度\":2021,\"前年同一\":true},{\"筆ポリゴンID\":\"67a899b3-0e61-478b-b40b-3c20e01b03d4\",\"発生年度\":2020}]]]","last_polygon_uuid":"28a53cd1-4f50-41d1-9f6d-bf60d2cab2b8","prev_last_polygon_uuid":"d01f39cd-47a5-4747-8454-725d30efd63e","local_government_cd":"011088","point_lng":141.458061178,"point_lat":43.072128683}},{"arcs":[[87]],"type":"Polygon","properties":{"polygon_uuid":"c3031be7-f2c3-4d4e-9297-b6c70a5c2e7e","land_type":200,"issue_year":2024,"edit_year":2020,"history":"[{\"筆ポリゴンID\":\"000d1352-a978-452c-a5ce-0276e072a1e5\",\"更新年度\":2023,\"前年同一\":true},[{\"筆ポリゴンID\":\"c744c079-e323-4440-be0b-030d17dd95fd\",\"更新年度\":2022,\"前年同一\":true},[{\"筆ポリゴンID\":\"df3bdc28-7d57-4260-b1f8-d42fd98ae18e\",\"更新年度\":2021,\"前年同一\":true},{\"筆ポリゴンID\":\"df3bdc28-7d57-4260-b1f8-d42fd98ae18e\",\"発生年度\":2020}]]]","last_polygon_uuid":"000d1352-a978-452c-a5ce-0276e072a1e5","prev_last_polygon_uuid":"c744c079-e323-4440-be0b-030d17dd95fd","local_government_cd":"011088","point_lng":141.472917026,"point_lat":43.092673988}},{"arcs":[[88]],"type":"Polygon","properties":{"polygon_uuid":"b6bdf487-d950-4817-8868-89b152b15f7b","land_type":200,"issue_year":2024,"edit_year":2020,"history":"[{\"筆ポリゴンID\":\"8e80dfe9-8260-476d-a519-33bdef986f0a\",\"更新年度\":2023,\"前年同一\":true},[{\"筆ポリゴンID\":\"1ab8a82e-5679-463d-9353-3a302feb1cec\",\"更新年度\":2022,\"前年同一\":true},[{\"筆ポリゴンID\":\"ef5c26f6-8efe-420e-aa1f-49f50ec3b0d1\",\"更新年度\":2021,\"前年同一\":true},{\"筆ポリゴンID\":\"ef5c26f6-8efe-420e-aa1f-49f50ec3b0d1\",\"発生年度\":2020}]]]","last_polygon_uuid":"8e80dfe9-8260-476d-a519-33bdef986f0a","prev_last_polygon_uuid":"1ab8a82e-5679-463d-9353-3a302feb1cec","local_government_cd":"011088","point_lng":141.460484156,"point_lat":43.071732273}},{"arcs":[[-77,89]],"type":"Polygon","properties":{"polygon_uuid":"2f2c6f17-51b1-4878-8647-5cf64751ba67","land_type":200,"issue_year":2024,"edit_year":2020,"history":"[{\"筆ポリゴンID\":\"4bd8779a-2f35-4341-97c7-e909bd3c8d25\",\"更新年度\":2023,\"前年同一\":true},[{\"筆ポリゴンID\":\"aadefa15-9b36-4754-b85d-285ab65b46a0\",\"更新年度\":2022,\"前年同一\":true},[{\"筆ポリゴンID\":\"b2984947-1679-40cd-be34-f03f0e0f0474\",\"更新年度\":2021,\"前年同一\":true},{\"筆ポリゴンID\":\"b2984947-1679-40cd-be34-f03f0e0f0474\",\"発生年度\":2020}]]]","last_polygon_uuid":"4bd8779a-2f35-4341-97c7-e909bd3c8d25","prev_last_polygon_uuid":"aadefa15-9b36-4754-b85d-285ab65b46a0","local_government_cd":"011088","point_lng":141.460534256,"point_lat":43.069252578}},{"arcs":[[90]],"type":"Polygon","properties":{"polygon_uuid":"65ff60fd-ff61-4029-8ce4-afd2dfeb2452","land_type":200,"issue_year":2024,"edit_year":2020,"history":"[{\"筆ポリゴンID\":\"1d6851ac-1a29-4ccc-94f4-e7d23436e95d\",\"更新年度\":2023,\"前年同一\":true},[{\"筆ポリゴンID\":\"9660466f-d77e-42d3-8dda-df3ee109f4d9\",\"更新年度\":2022,\"前年同一\":true},[{\"筆ポリゴンID\":\"1feb3295-b66c-4a0c-942c-0ed9bf775a8d\",\"更新年度\":2021,\"前年同一\":true},{\"筆ポリゴンID\":\"1feb3295-b66c-4a0c-942c-0ed9bf775a8d\",\"発生年度\":2020}]]]","last_polygon_uuid":"1d6851ac-1a29-4ccc-94f4-e7d23436e95d","prev_last_polygon_uuid":"9660466f-d77e-42d3-8dda-df3ee109f4d9","local_government_cd":"011088","point_lng":141.460020995,"point_lat":43.074918766}},{"arcs":[[91,-75,92,93]],"type":"Polygon","properties":{"polygon_uuid":"d6e37edc-fdb5-4680-a40b-c8b7a7adb049","land_type":200,"issue_year":2024,"edit_year":2020,"history":"[{\"筆ポリゴンID\":\"69735c44-6d17-4620-865f-2adb856b6400\",\"更新年度\":2023,\"前年同一\":true},[{\"筆ポリゴンID\":\"44d7fddf-3e67-429b-a8da-615e84233d36\",\"更新年度\":2022,\"前年同一\":true},[{\"筆ポリゴンID\":\"20205b70-5daf-4afe-bca8-e15657396c59\",\"更新年度\":2021,\"前年同一\":true},{\"筆ポリゴンID\":\"20205b70-5daf-4afe-bca8-e15657396c59\",\"発生年度\":2020}]]]","last_polygon_uuid":"69735c44-6d17-4620-865f-2adb856b6400","prev_last_polygon_uuid":"44d7fddf-3e67-429b-a8da-615e84233d36","local_government_cd":"011088","point_lng":141.460004253,"point_lat":43.069868224}},{"arcs":[[94]],"type":"Polygon","properties":{"polygon_uuid":"fab87e15-2d1c-4357-b57b-3e30b7c55ce2","land_type":200,"issue_year":2024,"edit_year":2020,"history":"[{\"筆ポリゴンID\":\"d2fbaff5-c2d7-408d-9600-8c65bc0a4471\",\"更新年度\":2023,\"前年同一\":true},[{\"筆ポリゴンID\":\"56daa4cd-332c-4bf4-8a35-48f4ef9cc557\",\"更新年度\":2022,\"前年同一\":true},[{\"筆ポリゴンID\":\"cbafc9a4-f01e-47e6-ba0e-fd1c7bf18611\",\"更新年度\":2021,\"前年同一\":true},{\"筆ポリゴンID\":\"cbafc9a4-f01e-47e6-ba0e-fd1c7bf18611\",\"発生年度\":2020}]]]","last_polygon_uuid":"d2fbaff5-c2d7-408d-9600-8c65bc0a4471","prev_last_polygon_uuid":"56daa4cd-332c-4bf4-8a35-48f4ef9cc557","local_government_cd":"011088","point_lng":141.459480636,"point_lat":43.072462104}},{"arcs":[[95]],"type":"Polygon","properties":{"polygon_uuid":"06f3defd-bf37-46ec-b049-93d58407ab7f","land_type":200,"issue_year":2024,"edit_year":2020,"history":"[{\"筆ポリゴンID\":\"8e522024-6381-4fcc-8858-48e3b6459d9d\",\"更新年度\":2023,\"前年同一\":true},[{\"筆ポリゴンID\":\"f8936396-0132-4f55-b961-1ea1ec54c78a\",\"更新年度\":2022,\"前年同一\":true},[{\"筆ポリゴンID\":\"19d432e7-99a9-41d9-a267-cd2b1cd55c08\",\"更新年度\":2021,\"前年同一\":true},{\"筆ポリゴンID\":\"19d432e7-99a9-41d9-a267-cd2b1cd55c08\",\"発生年度\":2020}]]]","last_polygon_uuid":"8e522024-6381-4fcc-8858-48e3b6459d9d","prev_last_polygon_uuid":"f8936396-0132-4f55-b961-1ea1ec54c78a","local_government_cd":"011088","point_lng":141.472290547,"point_lat":43.091826541}},{"arcs":[[96]],"type":"Polygon","properties":{"polygon_uuid":"6ff4349c-cf83-46a9-a803-7d1f47608e92","land_type":200,"issue_year":2024,"edit_year":2020,"history":"[{\"筆ポリゴンID\":\"56edea12-6a3b-4080-b400-5f148355fc2c\",\"更新年度\":2023,\"前年同一\":true},[{\"筆ポリゴンID\":\"37f684e3-763c-449e-964e-2a62cd2bb60c\",\"更新年度\":2022,\"前年同一\":true},[{\"筆ポリゴンID\":\"555652b8-af8b-4e64-85d0-e482691c212e\",\"更新年度\":2021,\"前年同一\":true},{\"筆ポリゴンID\":\"555652b8-af8b-4e64-85d0-e482691c212e\",\"発生年度\":2020}]]]","last_polygon_uuid":"56edea12-6a3b-4080-b400-5f148355fc2c","prev_last_polygon_uuid":"37f684e3-763c-449e-964e-2a62cd2bb60c","local_government_cd":"011088","point_lng":141.459955151,"point_lat":43.071656771}},{"arcs":[[-94,97]],"type":"Polygon","properties":{"polygon_uuid":"323f85b8-4f86-4ffa-ba25-2d1df95c7b0d","land_type":200,"issue_year":2024,"edit_year":2020,"history":"[{\"筆ポリゴンID\":\"bc01600b-a161-4b65-a8d8-a9f592c74774\",\"更新年度\":2023,\"前年同一\":true},[{\"筆ポリゴンID\":\"001067a0-1ea8-47e4-bea8-efb1f86dcfa9\",\"更新年度\":2022,\"前年同一\":true},[{\"筆ポリゴンID\":\"7a692734-e494-4b4c-ae9a-b2aac660772a\",\"更新年度\":2021,\"前年同一\":true},{\"筆ポリゴンID\":\"7a692734-e494-4b4c-ae9a-b2aac660772a\",\"発生年度\":2020}]]]","last_polygon_uuid":"bc01600b-a161-4b65-a8d8-a9f592c74774","prev_last_polygon_uuid":"001067a0-1ea8-47e4-bea8-efb1f86dcfa9","local_government_cd":"011088","point_lng":141.460273871,"point_lat":43.070300737}}]}}}