{"type":"Topology","arcs":[[[566,449],[61,-22],[-2,-30],[-16,-25],[-55,52],[12,25]],[[301,678],[69,-71],[61,-60],[58,-49],[66,-40],[-10,-27],[-57,22],[-154,142],[-53,62],[20,21]],[[1064,747],[-9,-66]],[[1055,681],[-19,-168],[-130,4],[-25,11],[32,41],[26,-1],[5,28],[58,-7],[5,52],[-52,12],[-29,-40],[-17,5],[-23,-22],[-19,14],[81,88],[-8,12],[17,21],[31,6],[33,19],[18,7],[25,-16]],[[1064,747],[39,-11],[42,-11],[19,-7],[20,-30],[19,-11],[2,-15],[-56,1],[-44,10],[-50,8]],[[637,421],[135,-51],[-2,-23],[-30,8],[-10,-29],[-110,40],[17,55]],[[46,948],[73,-93],[-28,-43],[133,-107],[-43,-70],[-135,79],[-27,38],[-11,26],[-8,30],[1,47],[45,93]],[[817,363],[173,-15],[0,-33],[-118,-7],[-55,21],[0,34]],[[1202,283],[15,-107],[-65,-16],[-65,-24],[-35,-31],[-64,-47],[-33,-28],[-36,-23],[-30,-7],[-38,2],[-41,17],[-59,23],[-3,117],[6,47],[41,2],[39,5],[2,41],[366,29]],[[711,206],[10,-71],[-7,-35],[-17,-48],[-99,49],[-43,56],[-49,57],[-45,55],[-30,46],[-58,68],[-70,72],[-76,111],[53,62],[120,-118],[82,-77],[116,-80],[-1,-22],[-37,-56],[59,-32],[-25,-56],[18,-10],[51,103],[56,-35],[-8,-39]],[[22545,11635],[259,-19],[-19,-50],[-33,-28],[-20,-42],[-16,-59],[4,-66],[-10,-70],[14,-159],[-7,-49],[-28,-79],[-27,-67],[-44,-50],[-66,-82],[-46,-24],[-72,57],[21,54],[12,86],[2,48],[-19,107],[-35,105],[-31,144],[-13,62],[-52,87],[26,99],[200,-5]],[[22628,10139],[69,4],[71,29],[42,58],[28,10],[55,-19],[68,-54],[24,-65],[0,-44],[-17,-73],[-65,-118],[-65,-108],[-42,15],[-60,46],[-80,27],[-86,15],[-59,3],[-25,-16],[-113,174],[-35,37],[97,23],[16,2],[57,18],[121,9],[-1,27]],[[22362,12134],[237,30],[106,-91],[88,-97],[91,-165],[22,-35],[8,-68],[-77,-64],[-263,13],[-110,-3],[-112,4],[-6,148],[13,120],[-21,97],[-5,88],[29,23]],[[22208,10058],[104,-14],[45,-34],[78,-130],[4,-186],[-7,-96],[7,-43],[48,-43],[44,-9],[101,-23],[42,-22],[-137,-115],[-174,-138],[-90,-53],[-101,-21],[-48,0],[-62,8],[-35,18],[-42,72],[-12,107],[-4,86],[37,52],[35,39],[29,55],[15,64],[27,142],[27,157],[31,127],[38,0]]],"transform":{"scale":[0.00000396196084402898,0.0000027226999342321507],"translate":[141.971011664,43.488052694]},"objects":{"2024_012271":{"type":"GeometryCollection","geometries":[{"arcs":[[0]],"type":"Polygon","properties":{"polygon_uuid":"7b963e39-9e93-48b6-9330-853fe0d0c8ad","land_type":200,"issue_year":2024,"edit_year":2020,"history":"[{\"筆ポリゴンID\":\"da27a317-154c-43b9-9b07-1db8cbf4836f\",\"更新年度\":2023,\"前年同一\":true},[{\"筆ポリゴンID\":\"2f3cbd1b-b353-4d0d-bae5-7055e307c4c0\",\"更新年度\":2022,\"前年同一\":true},[{\"筆ポリゴンID\":\"a869947e-0541-4fee-a3fa-3e2d6fe446d8\",\"更新年度\":2021,\"前年同一\":true},{\"筆ポリゴンID\":\"a869947e-0541-4fee-a3fa-3e2d6fe446d8\",\"発生年度\":2020}]]]","last_polygon_uuid":"da27a317-154c-43b9-9b07-1db8cbf4836f","prev_last_polygon_uuid":"2f3cbd1b-b353-4d0d-bae5-7055e307c4c0","local_government_cd":"012271","point_lng":141.973365994,"point_lat":43.489180598}},{"arcs":[[1]],"type":"Polygon","properties":{"polygon_uuid":"0341abd6-75bc-4d09-a3dd-a392a599fe88","land_type":200,"issue_year":2024,"edit_year":2020,"history":"[{\"筆ポリゴンID\":\"c4f3df2d-f8f2-4826-a3a7-8ee80c9f5164\",\"更新年度\":2023,\"前年同一\":true},[{\"筆ポリゴンID\":\"528ec8fc-ea88-4335-b5ff-1ce26f488b07\",\"更新年度\":2022,\"前年同一\":true},[{\"筆ポリゴンID\":\"70df7d29-74dd-42d3-bbf7-2637e8955529\",\"更新年度\":2021,\"前年同一\":true},{\"筆ポリゴンID\":\"70df7d29-74dd-42d3-bbf7-2637e8955529\",\"発生年度\":2020}]]]","last_polygon_uuid":"c4f3df2d-f8f2-4826-a3a7-8ee80c9f5164","prev_last_polygon_uuid":"528ec8fc-ea88-4335-b5ff-1ce26f488b07","local_government_cd":"012271","point_lng":141.972657284,"point_lat":43.489539343}},{"arcs":[[2,3]],"type":"Polygon","properties":{"polygon_uuid":"090947ff-2904-4a36-b043-87faa6290806","land_type":200,"issue_year":2024,"edit_year":2020,"history":"[{\"筆ポリゴンID\":\"ab037b2c-32f5-4953-99f7-86d81ecb8261\",\"更新年度\":2023,\"前年同一\":true},[{\"筆ポリゴンID\":\"9c47ad64-66e2-4f71-a28f-2c5ba03816be\",\"更新年度\":2022,\"前年同一\":true},[{\"筆ポリゴンID\":\"3288daad-49cc-4b67-bbe5-50eaf71bda56\",\"更新年度\":2021,\"前年同一\":true},{\"筆ポリゴンID\":\"3288daad-49cc-4b67-bbe5-50eaf71bda56\",\"発生年度\":2020}]]]","last_polygon_uuid":"ab037b2c-32f5-4953-99f7-86d81ecb8261","prev_last_polygon_uuid":"9c47ad64-66e2-4f71-a28f-2c5ba03816be","local_government_cd":"012271","point_lng":141.974913343,"point_lat":43.489762957}},{"arcs":[[4,-3]],"type":"Polygon","properties":{"polygon_uuid":"472af701-f541-4539-9615-d586b5f2883b","land_type":200,"issue_year":2024,"edit_year":2020,"history":"[{\"筆ポリゴンID\":\"dcb398d5-a763-41d2-ab6b-592111bff8f6\",\"更新年度\":2023,\"前年同一\":true},[{\"筆ポリゴンID\":\"cf00c7ae-7fea-4a59-8e4e-812387e11dae\",\"更新年度\":2022,\"前年同一\":true},[{\"筆ポリゴンID\":\"391f066b-9163-4343-811b-0bc0028cafb6\",\"更新年度\":2021,\"前年同一\":true},{\"筆ポリゴンID\":\"391f066b-9163-4343-811b-0bc0028cafb6\",\"発生年度\":2020}]]]","last_polygon_uuid":"dcb398d5-a763-41d2-ab6b-592111bff8f6","prev_last_polygon_uuid":"cf00c7ae-7fea-4a59-8e4e-812387e11dae","local_government_cd":"012271","point_lng":141.97545531,"point_lat":43.489954517}},{"arcs":[[5]],"type":"Polygon","properties":{"polygon_uuid":"1b6d5b78-3726-42fe-b5c9-da4f07d9961f","land_type":200,"issue_year":2024,"edit_year":2020,"history":"[{\"筆ポリゴンID\":\"269504fe-0c31-4e73-8205-add69985a031\",\"更新年度\":2023,\"前年同一\":true},[{\"筆ポリゴンID\":\"d6f29d5c-7427-41f5-aa56-82b2ba255ad1\",\"更新年度\":2022,\"前年同一\":true},[{\"筆ポリゴンID\":\"b1dd85be-2f4b-4044-9b5f-91758a6c837d\",\"更新年度\":2021,\"前年同一\":true},{\"筆ポリゴンID\":\"b1dd85be-2f4b-4044-9b5f-91758a6c837d\",\"発生年度\":2020}]]]","last_polygon_uuid":"269504fe-0c31-4e73-8205-add69985a031","prev_last_polygon_uuid":"d6f29d5c-7427-41f5-aa56-82b2ba255ad1","local_government_cd":"012271","point_lng":141.973746185,"point_lat":43.489066073}},{"arcs":[[6]],"type":"Polygon","properties":{"polygon_uuid":"45dbfbda-7f2e-4460-8880-87d09468f35a","land_type":200,"issue_year":2024,"edit_year":2020,"history":"[{\"筆ポリゴンID\":\"64fdf4d6-f55f-40fc-b7da-c9d27c5520cc\",\"更新年度\":2023,\"前年同一\":true},[{\"筆ポリゴンID\":\"824de1a4-976e-4bb4-9110-5a74420ee996\",\"更新年度\":2022,\"前年同一\":true},[{\"筆ポリゴンID\":\"e1791559-c6f7-4650-bc72-362c1ea36d84\",\"更新年度\":2021,\"前年同一\":true},{\"筆ポリゴンID\":\"e1791559-c6f7-4650-bc72-362c1ea36d84\",\"発生年度\":2020}]]]","last_polygon_uuid":"64fdf4d6-f55f-40fc-b7da-c9d27c5520cc","prev_last_polygon_uuid":"824de1a4-976e-4bb4-9110-5a74420ee996","local_government_cd":"012271","point_lng":141.971377022,"point_lat":43.490165745}},{"arcs":[[7]],"type":"Polygon","properties":{"polygon_uuid":"ff7ed343-d630-4803-8189-a857a47012e1","land_type":200,"issue_year":2024,"edit_year":2020,"history":"[{\"筆ポリゴンID\":\"1423cdb7-f908-4c92-b31b-13bd79f6e5a5\",\"更新年度\":2023,\"前年同一\":true},[{\"筆ポリゴンID\":\"831238b8-a04f-46ce-a98c-8539aba1c67c\",\"更新年度\":2022,\"前年同一\":true},[{\"筆ポリゴンID\":\"2d84d66d-043c-4171-92dd-251b55ceb2de\",\"更新年度\":2021,\"前年同一\":true},{\"筆ポリゴンID\":\"2d84d66d-043c-4171-92dd-251b55ceb2de\",\"発生年度\":2020}]]]","last_polygon_uuid":"1423cdb7-f908-4c92-b31b-13bd79f6e5a5","prev_last_polygon_uuid":"831238b8-a04f-46ce-a98c-8539aba1c67c","local_government_cd":"012271","point_lng":141.974582023,"point_lat":43.488964111}},{"arcs":[[8]],"type":"Polygon","properties":{"polygon_uuid":"8dcdc5c2-8452-4414-9796-e6a345579647","land_type":200,"issue_year":2024,"edit_year":2020,"history":"[{\"筆ポリゴンID\":\"fedf4915-0562-4bfb-9b52-3d777ce5e666\",\"更新年度\":2023,\"前年同一\":true},[{\"筆ポリゴンID\":\"279117b6-8082-4ef4-8dfc-71482d3b7fed\",\"更新年度\":2022,\"前年同一\":true},[{\"筆ポリゴンID\":\"86990cb4-f116-46cd-b2ea-a8cde0f02924\",\"更新年度\":2021,\"前年同一\":true},{\"筆ポリゴンID\":\"86990cb4-f116-46cd-b2ea-a8cde0f02924\",\"発生年度\":2020}]]]","last_polygon_uuid":"fedf4915-0562-4bfb-9b52-3d777ce5e666","prev_last_polygon_uuid":"279117b6-8082-4ef4-8dfc-71482d3b7fed","local_government_cd":"012271","point_lng":141.974796158,"point_lat":43.488478261}},{"arcs":[[9]],"type":"Polygon","properties":{"polygon_uuid":"7164e4cb-f235-49b9-aa82-e4587131cc2d","land_type":200,"issue_year":2024,"edit_year":2020,"history":"[{\"筆ポリゴンID\":\"508b5716-7095-4aaa-9ddd-3a4b5ac51b49\",\"更新年度\":2023,\"前年同一\":true},[{\"筆ポリゴンID\":\"ef39a731-b146-46e4-b71a-d88762f35431\",\"更新年度\":2022,\"前年同一\":true},[{\"筆ポリゴンID\":\"ceff8324-255d-4311-b91c-3fd8e9ab79f9\",\"更新年度\":2021,\"前年同一\":true},{\"筆ポリゴンID\":\"ceff8324-255d-4311-b91c-3fd8e9ab79f9\",\"発生年度\":2020}]]]","last_polygon_uuid":"508b5716-7095-4aaa-9ddd-3a4b5ac51b49","prev_last_polygon_uuid":"ef39a731-b146-46e4-b71a-d88762f35431","local_government_cd":"012271","point_lng":141.972971798,"point_lat":43.488953253}},{"arcs":[[10]],"type":"Polygon","properties":{"polygon_uuid":"84a88ba8-c4a8-4cef-a1c0-20dafdd7aef2","land_type":200,"issue_year":2024,"edit_year":2020,"history":"[{\"筆ポリゴンID\":\"10cab1ca-e7c2-466a-a763-e60dd48a34ec\",\"更新年度\":2023,\"前年同一\":true},[{\"筆ポリゴンID\":\"d9738adc-c128-43f9-ad57-6c1f91a6f1b2\",\"更新年度\":2022,\"前年同一\":true},[{\"筆ポリゴンID\":\"4a22477f-b4f9-4322-bf9c-82dc1aba34ef\",\"更新年度\":2021,\"前年同一\":true},{\"筆ポリゴンID\":\"4a22477f-b4f9-4322-bf9c-82dc1aba34ef\",\"発生年度\":2020}]]]","last_polygon_uuid":"10cab1ca-e7c2-466a-a763-e60dd48a34ec","prev_last_polygon_uuid":"d9738adc-c128-43f9-ad57-6c1f91a6f1b2","local_government_cd":"012271","point_lng":142.060382266,"point_lat":43.518804471}},{"arcs":[[11]],"type":"Polygon","properties":{"polygon_uuid":"9415107b-3c6b-4fea-8202-cd1afd5e5706","land_type":200,"issue_year":2024,"edit_year":2020,"history":"[{\"筆ポリゴンID\":\"317e5016-984d-41d3-a13f-918d96a60966\",\"更新年度\":2023,\"前年同一\":true},[{\"筆ポリゴンID\":\"42e1d854-0bbf-4eb3-837d-59aa7b95936d\",\"更新年度\":2022,\"前年同一\":true},[{\"筆ポリゴンID\":\"df3c8384-2ced-4c0b-9490-06011d789780\",\"更新年度\":2021,\"前年同一\":true},{\"筆ポリゴンID\":\"df3c8384-2ced-4c0b-9490-06011d789780\",\"発生年度\":2020}]]]","last_polygon_uuid":"317e5016-984d-41d3-a13f-918d96a60966","prev_last_polygon_uuid":"42e1d854-0bbf-4eb3-837d-59aa7b95936d","local_government_cd":"012271","point_lng":142.061011249,"point_lat":43.515286066}},{"arcs":[[12]],"type":"Polygon","properties":{"polygon_uuid":"3fdbcb94-5297-49b5-9ace-ddaafeb3ed41","land_type":200,"issue_year":2024,"edit_year":2020,"history":"[{\"筆ポリゴンID\":\"5729ef64-a41e-4e36-8b95-e278f8f811de\",\"更新年度\":2023,\"前年同一\":true},[{\"筆ポリゴンID\":\"8b09691a-dc53-4df9-a21c-c3279a94b653\",\"更新年度\":2022,\"前年同一\":true},[{\"筆ポリゴンID\":\"1cf8597c-167f-4d5d-a77e-a9249ccd095a\",\"更新年度\":2021,\"前年同一\":true},{\"筆ポリゴンID\":\"1cf8597c-167f-4d5d-a77e-a9249ccd095a\",\"発生年度\":2020}]]]","last_polygon_uuid":"5729ef64-a41e-4e36-8b95-e278f8f811de","prev_last_polygon_uuid":"8b09691a-dc53-4df9-a21c-c3279a94b653","local_government_cd":"012271","point_lng":142.060510336,"point_lat":43.520390428}},{"arcs":[[13]],"type":"Polygon","properties":{"polygon_uuid":"e849e601-29af-4b29-b8db-ac66237a90ca","land_type":200,"issue_year":2024,"edit_year":2020,"history":"[{\"筆ポリゴンID\":\"a668d110-8fa9-409d-af6d-e6b9bae0c596\",\"更新年度\":2023,\"前年同一\":true},[{\"筆ポリゴンID\":\"5876d82c-9a7f-4517-ba6e-a6b3a9ae82a5\",\"更新年度\":2022,\"前年同一\":true},[{\"筆ポリゴンID\":\"743a46d5-06b2-403b-90d3-70a95f79ccc1\",\"更新年度\":2021,\"前年同一\":true},{\"筆ポリゴンID\":\"743a46d5-06b2-403b-90d3-70a95f79ccc1\",\"発生年度\":2020}]]]","last_polygon_uuid":"a668d110-8fa9-409d-af6d-e6b9bae0c596","prev_last_polygon_uuid":"5876d82c-9a7f-4517-ba6e-a6b3a9ae82a5","local_government_cd":"012271","point_lng":142.059207679,"point_lat":43.514023911}}]}}}