{"type":"Topology","arcs":[[[568,679],[-7,-97],[-22,-53],[-4,-55],[5,-33],[-30,-200],[-38,-98],[-70,56],[-48,5],[-99,29],[-108,44],[-89,89],[-58,41],[134,55],[60,-2],[36,19],[48,34],[81,38],[113,2],[60,123],[36,3]],[[962,170],[-91,-25],[-35,19],[-24,-3],[5,-24],[51,-103],[-153,-34],[16,192],[14,85],[24,25],[26,17],[36,-10],[34,-11],[36,-34],[26,-39],[35,-55]]],"transform":{"scale":[0.0000027255363825580537,0.0000025271192930702676],"translate":[141.948068316,43.481963458]},"objects":{"2024_014257":{"type":"GeometryCollection","geometries":[{"arcs":[[0]],"type":"Polygon","properties":{"polygon_uuid":"e6d99a56-bb9e-4848-8d48-d681a08ba00e","land_type":200,"issue_year":2024,"edit_year":2020,"history":"[{\"筆ポリゴンID\":\"da1cd3f5-00dd-4d86-b48a-5a0230925893\",\"更新年度\":2023,\"前年同一\":true},[{\"筆ポリゴンID\":\"a453baa8-bba7-478e-9d24-f7a0d1a1eea2\",\"更新年度\":2022,\"前年同一\":true},[{\"筆ポリゴンID\":\"fa1ade94-3e29-420c-b86d-16191df6d2a0\",\"更新年度\":2021,\"前年同一\":true},{\"筆ポリゴンID\":\"fa1ade94-3e29-420c-b86d-16191df6d2a0\",\"発生年度\":2020}]]]","last_polygon_uuid":"da1cd3f5-00dd-4d86-b48a-5a0230925893","prev_last_polygon_uuid":"a453baa8-bba7-478e-9d24-f7a0d1a1eea2","local_government_cd":"014257","point_lng":141.949005273,"point_lat":43.482938802}},{"arcs":[[1]],"type":"Polygon","properties":{"polygon_uuid":"88274b2a-0366-4de8-9c76-25f7472b5bee","land_type":200,"issue_year":2024,"edit_year":2021,"history":"[{\"筆ポリゴンID\":\"1f3af2d6-db07-4d1e-89e8-e668086b9236\",\"更新年度\":2023,\"前年同一\":true},[{\"筆ポリゴンID\":\"fdadcdc6-a90b-42fc-9a77-2dd778713b7c\",\"更新年度\":2022,\"前年同一\":true},[{\"筆ポリゴンID\":\"cf166bf5-3377-4e10-a6fd-13e58ab3eb4e\",\"更新年度\":2021,\"関連\":true},{\"筆ポリゴンID\":\"cf166bf5-3377-4e10-a6fd-13e58ab3eb4e\",\"発生年度\":2020}]]]","last_polygon_uuid":"1f3af2d6-db07-4d1e-89e8-e668086b9236","prev_last_polygon_uuid":"fdadcdc6-a90b-42fc-9a77-2dd778713b7c","local_government_cd":"014257","point_lng":141.950279206,"point_lat":43.482388203}}]}}}