{"type":"Topology","arcs":[[[110,11183],[57,-34],[80,-37],[69,5],[87,0],[37,-2],[62,1],[80,-7],[70,-22],[108,-25],[116,-10],[61,-3],[98,-52],[35,-12],[31,-13]],[[1101,10972],[-5,-10],[-55,-110],[-29,-75],[-23,-21],[-32,-7],[-82,26],[-106,42],[-76,40],[-29,41],[-68,38],[-43,20],[-58,8],[-61,-20],[-68,-21],[-59,-4],[-83,7],[-90,15],[-47,16],[-9,40],[7,103],[25,83]],[[3266,4745],[20,53],[38,101]],[[3324,4899],[57,-22],[2,-5]],[[3383,4872],[-54,-138],[-57,8],[-6,3]],[[3279,4986],[-80,-211]],[[3199,4775],[-8,-11],[-5,2],[-84,48],[-3,7],[-1,1],[21,69],[49,116],[7,3],[104,-24]],[[3279,4986],[60,-13],[6,-3],[3,-6],[-24,-65]],[[3266,4745],[-67,30]],[[5311,3582],[19,61],[14,31],[17,19],[34,5],[29,-15],[69,-35],[58,-14],[47,1],[20,-13],[7,-21],[-20,-177],[-11,-66],[-23,-96],[-33,-99],[-24,-10],[-38,-8],[-48,18],[-95,52],[-29,9],[-21,18],[-14,28],[-5,17],[44,224],[-6,43],[9,28]],[[110,11183],[-10,19],[-37,49],[-63,64],[107,167],[21,2],[72,15],[97,1],[70,-7],[8,18],[38,-15],[11,22],[76,4],[188,-1],[43,-22],[44,-9],[21,-5],[23,20],[36,-11],[39,-3],[36,4],[79,0],[82,-19],[189,-82],[2,-17],[-7,-44],[-174,-361]],[[7505,855],[46,-37],[5,-73],[18,-78],[45,-44],[40,-74],[45,-83],[53,-96],[-222,-370],[-22,0],[-126,165],[-90,109],[-113,190],[-109,193],[48,176],[129,-113],[145,-126],[27,36],[-29,37],[-252,229],[68,106],[25,50],[25,47],[16,44],[6,25],[8,17],[21,2],[19,-16],[45,-37],[32,-29],[78,-72],[19,-178]],[[5262,4294],[1,2],[49,-13],[110,-41],[161,-77],[-56,-206],[-13,-34],[-25,-17],[-33,-4],[-38,-1],[-72,43],[-62,44],[-31,38],[-4,45],[7,109],[6,112]],[[3383,4872],[48,-19],[-44,-113],[-55,3],[51,129]]],"transform":{"scale":[0.000001940171329121858,0.0000013032989064401612],"translate":[141.258781334,43.028735014]},"objects":{"2024_011011":{"type":"GeometryCollection","geometries":[{"arcs":[[0,1]],"type":"Polygon","properties":{"polygon_uuid":"1dba1043-38bb-40da-9e88-eb1ef9beaff4","land_type":200,"issue_year":2024,"edit_year":2020,"history":"[{\"筆ポリゴンID\":\"29996564-6256-402b-b48b-5daafda706f5\",\"更新年度\":2023,\"前年同一\":true},[{\"筆ポリゴンID\":\"2b0ef02c-56b4-4c58-851f-b93109a2a288\",\"更新年度\":2022,\"前年同一\":true},[{\"筆ポリゴンID\":\"1260ed49-3d13-479d-8a60-c96b35837a34\",\"更新年度\":2021,\"前年同一\":true},{\"筆ポリゴンID\":\"1260ed49-3d13-479d-8a60-c96b35837a34\",\"発生年度\":2020}]]]","last_polygon_uuid":"29996564-6256-402b-b48b-5daafda706f5","prev_last_polygon_uuid":"2b0ef02c-56b4-4c58-851f-b93109a2a288","local_government_cd":"011011","point_lng":141.259948641,"point_lat":43.043042925}},{"arcs":[[2,3,4]],"type":"Polygon","properties":{"polygon_uuid":"6c5c49f6-9132-4eff-b3ed-83b6e80155f0","land_type":100,"issue_year":2024,"edit_year":2020,"history":"[{\"筆ポリゴンID\":\"9f0b068d-e5c3-4a79-8084-cc55831a17f9\",\"更新年度\":2023,\"前年同一\":true},[{\"筆ポリゴンID\":\"621d6fda-f8a1-4854-b340-b21fc5d3eca4\",\"更新年度\":2022,\"前年同一\":true},[{\"筆ポリゴンID\":\"55da65d1-5315-46f1-af53-1ff04752dd9a\",\"更新年度\":2021,\"前年同一\":true},{\"筆ポリゴンID\":\"55da65d1-5315-46f1-af53-1ff04752dd9a\",\"発生年度\":2020}]]]","last_polygon_uuid":"9f0b068d-e5c3-4a79-8084-cc55831a17f9","prev_last_polygon_uuid":"621d6fda-f8a1-4854-b340-b21fc5d3eca4","local_government_cd":"011011","point_lng":141.265233097,"point_lat":43.035008463}},{"arcs":[[5,6]],"type":"Polygon","properties":{"polygon_uuid":"d1b09575-123d-46fd-9ec8-f20b164bedb5","land_type":100,"issue_year":2024,"edit_year":2020,"history":"[{\"筆ポリゴンID\":\"872dbd79-0f09-416e-9ac9-2598f320abc5\",\"更新年度\":2023,\"前年同一\":true},[{\"筆ポリゴンID\":\"38ee29bb-53f6-4d23-b91a-e6fb86407b9a\",\"更新年度\":2022,\"前年同一\":true},[{\"筆ポリゴンID\":\"db9275eb-840c-42ff-bf7d-a0b103fa94f0\",\"更新年度\":2021,\"前年同一\":true},{\"筆ポリゴンID\":\"db9275eb-840c-42ff-bf7d-a0b103fa94f0\",\"発生年度\":2020}]]]","last_polygon_uuid":"872dbd79-0f09-416e-9ac9-2598f320abc5","prev_last_polygon_uuid":"38ee29bb-53f6-4d23-b91a-e6fb86407b9a","local_government_cd":"011011","point_lng":141.264960696,"point_lat":43.035113413}},{"arcs":[[-6,7,-3,8]],"type":"Polygon","properties":{"polygon_uuid":"76f65233-eb83-490f-a991-fad9e31a08e5","land_type":100,"issue_year":2024,"edit_year":2020,"history":"[{\"筆ポリゴンID\":\"9788fcec-4542-447b-91b2-9abf5b6e0e6e\",\"更新年度\":2023,\"前年同一\":true},[{\"筆ポリゴンID\":\"7ba54fcf-6c64-4dfa-838d-7039b7aa9996\",\"更新年度\":2022,\"前年同一\":true},[{\"筆ポリゴンID\":\"120f0b39-2fcb-4de4-8e54-75d5d1409bc2\",\"更新年度\":2021,\"前年同一\":true},{\"筆ポリゴンID\":\"120f0b39-2fcb-4de4-8e54-75d5d1409bc2\",\"発生年度\":2020}]]]","last_polygon_uuid":"9788fcec-4542-447b-91b2-9abf5b6e0e6e","prev_last_polygon_uuid":"7ba54fcf-6c64-4dfa-838d-7039b7aa9996","local_government_cd":"011011","point_lng":141.265133066,"point_lat":43.035080164}},{"arcs":[[9]],"type":"Polygon","properties":{"polygon_uuid":"6cac747f-8951-4b6f-8614-fd14b823621f","land_type":200,"issue_year":2024,"edit_year":2020,"history":"[{\"筆ポリゴンID\":\"a2582ba5-0321-4dbf-86e4-164ec06f3d4d\",\"更新年度\":2023,\"前年同一\":true},[{\"筆ポリゴンID\":\"7e45f2b1-9e12-4bcf-b363-625d35aa3c36\",\"更新年度\":2022,\"前年同一\":true},[{\"筆ポリゴンID\":\"cfe689ec-007b-4c03-b1cf-644c0b5e0bca\",\"更新年度\":2021,\"前年同一\":true},{\"筆ポリゴンID\":\"cfe689ec-007b-4c03-b1cf-644c0b5e0bca\",\"発生年度\":2020}]]]","last_polygon_uuid":"a2582ba5-0321-4dbf-86e4-164ec06f3d4d","prev_last_polygon_uuid":"7e45f2b1-9e12-4bcf-b363-625d35aa3c36","local_government_cd":"011011","point_lng":141.269346644,"point_lat":43.033195847}},{"arcs":[[10,-1]],"type":"Polygon","properties":{"polygon_uuid":"e0728e20-4aeb-4047-9a49-b649153d7190","land_type":200,"issue_year":2024,"edit_year":2020,"history":"[{\"筆ポリゴンID\":\"b8b4734b-f15f-4a24-90ff-7239514aafb6\",\"更新年度\":2023,\"前年同一\":true},[{\"筆ポリゴンID\":\"6ff78a6d-bfbf-4f92-94b6-96baf6b72625\",\"更新年度\":2022,\"前年同一\":true},[{\"筆ポリゴンID\":\"29ac6491-7380-473a-b9bd-cc8c2c7cc9de\",\"更新年度\":2021,\"前年同一\":true},{\"筆ポリゴンID\":\"29ac6491-7380-473a-b9bd-cc8c2c7cc9de\",\"発生年度\":2020}]]]","last_polygon_uuid":"b8b4734b-f15f-4a24-90ff-7239514aafb6","prev_last_polygon_uuid":"6ff78a6d-bfbf-4f92-94b6-96baf6b72625","local_government_cd":"011011","point_lng":141.260080561,"point_lat":43.04345044}},{"arcs":[[11]],"type":"Polygon","properties":{"polygon_uuid":"7bc5a8f3-c956-48c0-b141-1077f9f50f7d","land_type":200,"issue_year":2024,"edit_year":2021,"history":"[{\"筆ポリゴンID\":\"8e1342fe-6b03-4b58-8683-c2a3dc5ffdb8\",\"更新年度\":2023,\"前年同一\":true},[{\"筆ポリゴンID\":\"c12d7a10-a54d-4c24-9f21-7476b4e50a15\",\"更新年度\":2022,\"前年同一\":true},[{\"筆ポリゴンID\":\"76a3cbd6-1ab3-479f-9eb3-9d86f3d0680a\",\"更新年度\":2021,\"関連\":true},{\"筆ポリゴンID\":\"76a3cbd6-1ab3-479f-9eb3-9d86f3d0680a\",\"発生年度\":2020}]]]","last_polygon_uuid":"8e1342fe-6b03-4b58-8683-c2a3dc5ffdb8","prev_last_polygon_uuid":"c12d7a10-a54d-4c24-9f21-7476b4e50a15","local_government_cd":"011011","point_lng":141.273160194,"point_lat":43.02948731}},{"arcs":[[12]],"type":"Polygon","properties":{"polygon_uuid":"0f3aad12-0079-4b94-b9f6-a37e2aa65f86","land_type":200,"issue_year":2024,"edit_year":2021,"history":"[{\"筆ポリゴンID\":\"e2537b36-73f4-4093-acb6-1b1b6f8f0b07\",\"更新年度\":2023,\"前年同一\":true},[{\"筆ポリゴンID\":\"1abd4ccb-355b-4eee-842e-a4f6cbdd68d5\",\"更新年度\":2022,\"前年同一\":true},[{\"筆ポリゴンID\":\"0d428f02-c58b-48ff-91a1-6a20d8929b68\",\"更新年度\":2021,\"関連\":true},{\"筆ポリゴンID\":\"0d428f02-c58b-48ff-91a1-6a20d8929b68\",\"発生年度\":2020}]]]","last_polygon_uuid":"e2537b36-73f4-4093-acb6-1b1b6f8f0b07","prev_last_polygon_uuid":"1abd4ccb-355b-4eee-842e-a4f6cbdd68d5","local_government_cd":"011011","point_lng":141.269261244,"point_lat":43.034070923}},{"arcs":[[13]],"type":"Polygon","properties":{"polygon_uuid":"0c48ecf6-b8a5-4281-a9f6-305a0dc2f1c5","land_type":100,"issue_year":2024,"edit_year":2021,"history":"[{\"筆ポリゴンID\":\"415b2c95-337f-48bc-be4a-9346bdab0820\",\"更新年度\":2023,\"前年同一\":true},[{\"筆ポリゴンID\":\"6b8f0ccb-e096-47d7-a633-f8782cafd472\",\"更新年度\":2022,\"前年同一\":true},[{\"筆ポリゴンID\":\"55da65d1-5315-46f1-af53-1ff04752dd9a\",\"更新年度\":2021,\"関連\":true},{\"筆ポリゴンID\":\"55da65d1-5315-46f1-af53-1ff04752dd9a\",\"発生年度\":2020}]]]","last_polygon_uuid":"415b2c95-337f-48bc-be4a-9346bdab0820","prev_last_polygon_uuid":"6b8f0ccb-e096-47d7-a633-f8782cafd472","local_government_cd":"011011","point_lng":141.265344724,"point_lat":43.03499326}}]}}}