{"type":"Topology","arcs":[[[5359,11058],[35,-28],[-18,-32],[-40,26],[23,34]],[[14431,970],[86,-179],[68,-161]],[[14585,630],[-7,-6],[-82,54],[-1,10],[-55,38],[-34,57],[-67,147]],[[14339,930],[92,40]],[[14301,1248],[36,-72],[26,-39],[68,-167]],[[14339,930],[-133,265],[-1,9],[90,45],[6,-1]],[[14053,1134],[23,12],[115,50],[90,-179],[-14,-11],[-72,3],[-32,4],[-49,17],[-43,22],[-26,22],[-4,25],[1,20],[11,15]],[[14301,1248],[13,0],[9,8],[83,36],[21,3],[13,-4],[54,-134],[28,-5],[36,-128],[21,-39],[10,-28],[9,-56],[9,-10],[4,-34],[32,-122],[11,-70],[-56,-26],[-13,-9]],[[14218,871],[4,11],[20,27],[16,9],[60,-63],[17,-24],[1,-14],[42,-47],[9,-16],[1,-27],[-2,-15],[-12,-5],[-15,-3],[-19,14],[-7,11],[0,17],[-60,76],[-24,25],[-31,24]],[[5409,11120],[96,-70],[-36,-58],[-98,81],[38,47]],[[4342,10863],[31,-37],[10,-35],[8,-39],[78,-85],[-49,-47],[-66,30],[-36,45],[-16,25],[-11,20],[-17,23],[7,60],[3,6],[32,22],[26,12]],[[125,19450],[-98,86],[8,13],[-35,31],[38,33],[33,29],[132,-105],[-78,-87]],[[6140,6314],[143,45],[35,-196],[-36,-14],[-38,6],[-45,10],[-32,31],[-13,50],[-2,27],[-12,41]],[[5624,10988],[-217,143],[-62,45],[-218,148],[129,259],[502,-373],[-79,-212],[-55,-10]],[[13345,278],[75,10],[100,5],[104,-21],[103,-42],[121,-52],[90,-52],[45,-35],[31,-22],[-23,-69],[-98,37],[-179,97],[-65,28],[-40,5],[-191,14],[-32,17],[-39,0],[-2,80]]],"transform":{"scale":[0.0000035377811519034785,0.000002379129111088291],"translate":[140.481689726,43.033260818]},"objects":{"2024_014036":{"type":"GeometryCollection","geometries":[{"arcs":[[0]],"type":"Polygon","properties":{"polygon_uuid":"37b89b0b-4bba-40fc-85ee-270f6a52259d","land_type":200,"issue_year":2024,"edit_year":2020,"history":"[{\"筆ポリゴンID\":\"12c7e660-5575-43c1-ac5e-8872368ba657\",\"更新年度\":2023,\"前年同一\":true},[{\"筆ポリゴンID\":\"4fef14d3-4d74-4852-ab81-ac62f74994d4\",\"更新年度\":2022,\"前年同一\":true},[{\"筆ポリゴンID\":\"60a5a0d0-a576-40b1-99fb-2747241f5a2b\",\"更新年度\":2021,\"前年同一\":true},{\"筆ポリゴンID\":\"60a5a0d0-a576-40b1-99fb-2747241f5a2b\",\"発生年度\":2020}]]]","last_polygon_uuid":"12c7e660-5575-43c1-ac5e-8872368ba657","prev_last_polygon_uuid":"4fef14d3-4d74-4852-ab81-ac62f74994d4","local_government_cd":"014036","point_lng":140.50067297,"point_lat":43.059496492}},{"arcs":[[1,2,3]],"type":"Polygon","properties":{"polygon_uuid":"4568193d-7754-4bca-ab98-faa08a5044c8","land_type":200,"issue_year":2024,"edit_year":2020,"history":"[{\"筆ポリゴンID\":\"170cb05b-e5d6-4c18-aa76-b56fe4bb25ab\",\"更新年度\":2023,\"前年同一\":true},[{\"筆ポリゴンID\":\"d653ec8c-d096-4d2b-a9c5-cec779fb40f5\",\"更新年度\":2022,\"前年同一\":true},[{\"筆ポリゴンID\":\"9b2b5265-d7bb-4634-9f5f-e5daec412763\",\"更新年度\":2021,\"前年同一\":true},{\"筆ポリゴンID\":\"9b2b5265-d7bb-4634-9f5f-e5daec412763\",\"発生年度\":2020}]]]","last_polygon_uuid":"170cb05b-e5d6-4c18-aa76-b56fe4bb25ab","prev_last_polygon_uuid":"d653ec8c-d096-4d2b-a9c5-cec779fb40f5","local_government_cd":"014036","point_lng":140.53283022,"point_lat":43.035187675}},{"arcs":[[4,-4,5]],"type":"Polygon","properties":{"polygon_uuid":"49833238-7213-4cc1-9ec5-5c03b0e23fff","land_type":200,"issue_year":2024,"edit_year":2020,"history":"[{\"筆ポリゴンID\":\"348ec104-0d27-42b9-8dbc-47a049df4a8d\",\"更新年度\":2023,\"前年同一\":true},[{\"筆ポリゴンID\":\"a1c59039-f13b-4427-8d98-4e6c1c8acaf5\",\"更新年度\":2022,\"前年同一\":true},[{\"筆ポリゴンID\":\"233fa4b6-c26a-48dd-bf74-a240f43822a0\",\"更新年度\":2021,\"前年同一\":true},{\"筆ポリゴンID\":\"233fa4b6-c26a-48dd-bf74-a240f43822a0\",\"発生年度\":2020}]]]","last_polygon_uuid":"348ec104-0d27-42b9-8dbc-47a049df4a8d","prev_last_polygon_uuid":"a1c59039-f13b-4427-8d98-4e6c1c8acaf5","local_government_cd":"014036","point_lng":140.532346771,"point_lat":43.035856494}},{"arcs":[[6]],"type":"Polygon","properties":{"polygon_uuid":"bf22c035-ac7a-42f3-93fb-9158148f7879","land_type":200,"issue_year":2024,"edit_year":2020,"history":"[{\"筆ポリゴンID\":\"346e41fe-71ee-454e-89e6-1d909a5cede0\",\"更新年度\":2023,\"前年同一\":true},[{\"筆ポリゴンID\":\"e809a8bb-2e57-47e8-9ab0-c27e79b7061c\",\"更新年度\":2022,\"前年同一\":true},[{\"筆ポリゴンID\":\"e31d8baa-2bda-4481-929e-8eb52036fcc2\",\"更新年度\":2021,\"前年同一\":true},{\"筆ポリゴンID\":\"e31d8baa-2bda-4481-929e-8eb52036fcc2\",\"発生年度\":2020}]]]","last_polygon_uuid":"346e41fe-71ee-454e-89e6-1d909a5cede0","prev_last_polygon_uuid":"e809a8bb-2e57-47e8-9ab0-c27e79b7061c","local_government_cd":"014036","point_lng":140.53177972,"point_lat":43.035853704}},{"arcs":[[-2,-5,7]],"type":"Polygon","properties":{"polygon_uuid":"996f5ecd-70d2-475b-85e9-d33aa40ba2a5","land_type":200,"issue_year":2024,"edit_year":2021,"history":"[{\"筆ポリゴンID\":\"04e95a54-2157-426c-a293-6cfce595aa6c\",\"更新年度\":2023,\"前年同一\":true},[{\"筆ポリゴンID\":\"436c10a0-bf89-42f7-8f58-b201b9887f79\",\"更新年度\":2022,\"前年同一\":true},[{\"筆ポリゴンID\":\"d5bf6261-48c1-47e8-82b9-89188c8c315d\",\"更新年度\":2021,\"関連\":true},{\"筆ポリゴンID\":\"d5bf6261-48c1-47e8-82b9-89188c8c315d\",\"発生年度\":2020}]]]","last_polygon_uuid":"04e95a54-2157-426c-a293-6cfce595aa6c","prev_last_polygon_uuid":"436c10a0-bf89-42f7-8f58-b201b9887f79","local_government_cd":"014036","point_lng":140.532967382,"point_lat":43.035618018}},{"arcs":[[8]],"type":"Polygon","properties":{"polygon_uuid":"3dfffb0e-138b-4a7b-895d-98a9568071ab","land_type":200,"issue_year":2024,"edit_year":2020,"history":"[{\"筆ポリゴンID\":\"57dc2126-ac92-4210-9b03-882ee7698b17\",\"更新年度\":2023,\"前年同一\":true},[{\"筆ポリゴンID\":\"3cc1c4d1-f950-4bfb-8349-aa0c4081448b\",\"更新年度\":2022,\"前年同一\":true},[{\"筆ポリゴンID\":\"06f86f6c-8e2f-43c4-80c4-d0da2f24d98a\",\"更新年度\":2021,\"前年同一\":true},{\"筆ポリゴンID\":\"06f86f6c-8e2f-43c4-80c4-d0da2f24d98a\",\"発生年度\":2020}]]]","last_polygon_uuid":"57dc2126-ac92-4210-9b03-882ee7698b17","prev_last_polygon_uuid":"3cc1c4d1-f950-4bfb-8349-aa0c4081448b","local_government_cd":"014036","point_lng":140.532315148,"point_lat":43.03519431}},{"arcs":[[9]],"type":"Polygon","properties":{"polygon_uuid":"91f851d5-6648-4b1d-b093-c0ff07ac1b14","land_type":200,"issue_year":2024,"edit_year":2020,"history":"[{\"筆ポリゴンID\":\"4e7fd9ad-9248-44d0-8b1a-e96dda6b2c98\",\"更新年度\":2023,\"前年同一\":true},[{\"筆ポリゴンID\":\"10cab818-8ccb-4a7d-9048-a5138169b03c\",\"更新年度\":2022,\"前年同一\":true},[{\"筆ポリゴンID\":\"32a202f5-5df4-4883-b627-1e59468975b0\",\"更新年度\":2021,\"前年同一\":true},{\"筆ポリゴンID\":\"32a202f5-5df4-4883-b627-1e59468975b0\",\"発生年度\":2020}]]]","last_polygon_uuid":"4e7fd9ad-9248-44d0-8b1a-e96dda6b2c98","prev_last_polygon_uuid":"10cab818-8ccb-4a7d-9048-a5138169b03c","local_government_cd":"014036","point_lng":140.500932666,"point_lat":43.05956901}},{"arcs":[[10]],"type":"Polygon","properties":{"polygon_uuid":"e8a1dafd-4333-486f-9bbf-7fc6c7803c6c","land_type":200,"issue_year":2024,"edit_year":2020,"history":"[{\"筆ポリゴンID\":\"ce247cb7-94da-4cc5-a4a0-d409d27cd87b\",\"更新年度\":2023,\"前年同一\":true},[{\"筆ポリゴンID\":\"c920c8fd-af01-4fe1-bc38-e3a89fd65d22\",\"更新年度\":2022,\"前年同一\":true},[{\"筆ポリゴンID\":\"db0475bf-06ff-4967-bf4d-ddaf42e20145\",\"更新年度\":2021,\"前年同一\":true},{\"筆ポリゴンID\":\"db0475bf-06ff-4967-bf4d-ddaf42e20145\",\"発生年度\":2020}]]]","last_polygon_uuid":"ce247cb7-94da-4cc5-a4a0-d409d27cd87b","prev_last_polygon_uuid":"c920c8fd-af01-4fe1-bc38-e3a89fd65d22","local_government_cd":"014036","point_lng":140.497111687,"point_lat":43.058805142}},{"arcs":[[11]],"type":"Polygon","properties":{"polygon_uuid":"95af4f85-ac25-4e8f-b01a-efe5a3e5476b","land_type":200,"issue_year":2024,"edit_year":2020,"history":"[{\"筆ポリゴンID\":\"3d02f318-be93-4f45-9355-10b43ced1efe\",\"更新年度\":2023,\"前年同一\":true},[{\"筆ポリゴンID\":\"b5ffac41-2e40-4310-ac09-01dc1943d046\",\"更新年度\":2022,\"前年同一\":true},[{\"筆ポリゴンID\":\"08b4eaf9-8c4c-483e-ac45-692b1c62fcad\",\"更新年度\":2021,\"前年同一\":true},{\"筆ポリゴンID\":\"08b4eaf9-8c4c-483e-ac45-692b1c62fcad\",\"発生年度\":2020}]]]","last_polygon_uuid":"3d02f318-be93-4f45-9355-10b43ced1efe","prev_last_polygon_uuid":"b5ffac41-2e40-4310-ac09-01dc1943d046","local_government_cd":"014036","point_lng":140.482046172,"point_lat":43.079767925}},{"arcs":[[12]],"type":"Polygon","properties":{"polygon_uuid":"e84d47d3-39f9-453a-ae83-3181fc5e541b","land_type":200,"issue_year":2024,"edit_year":2020,"history":"[{\"筆ポリゴンID\":\"dd2d29e4-0cb1-422e-8ac7-4cd692a520d1\",\"更新年度\":2023,\"前年同一\":true},[{\"筆ポリゴンID\":\"8dadf20f-66e5-4f64-ac9c-150c549bbe65\",\"更新年度\":2022,\"前年同一\":true},[{\"筆ポリゴンID\":\"1985e829-956b-40d5-8239-717876225bee\",\"更新年度\":2021,\"前年同一\":true},{\"筆ポリゴンID\":\"1985e829-956b-40d5-8239-717876225bee\",\"発生年度\":2020}]]]","last_polygon_uuid":"dd2d29e4-0cb1-422e-8ac7-4cd692a520d1","prev_last_polygon_uuid":"8dadf20f-66e5-4f64-ac9c-150c549bbe65","local_government_cd":"014036","point_lng":140.503743754,"point_lat":43.048128378}},{"arcs":[[13]],"type":"Polygon","properties":{"polygon_uuid":"30ffdde1-7c09-4474-a430-7cb7c8da7575","land_type":200,"issue_year":2024,"edit_year":2020,"history":"[{\"筆ポリゴンID\":\"19ba9196-9a71-4a88-8ced-7e7db589fff9\",\"更新年度\":2023,\"前年同一\":true},[{\"筆ポリゴンID\":\"ed305cef-89fd-4a2e-86c3-9ac3e08c51c1\",\"更新年度\":2022,\"前年同一\":true},[{\"筆ポリゴンID\":\"424e287d-3352-43af-83e6-19dbb063a2e8\",\"更新年度\":2021,\"前年同一\":true},{\"筆ポリゴンID\":\"424e287d-3352-43af-83e6-19dbb063a2e8\",\"発生年度\":2020}]]]","last_polygon_uuid":"19ba9196-9a71-4a88-8ced-7e7db589fff9","prev_last_polygon_uuid":"ed305cef-89fd-4a2e-86c3-9ac3e08c51c1","local_government_cd":"014036","point_lng":140.500953151,"point_lat":43.060080239}},{"arcs":[[14]],"type":"Polygon","properties":{"polygon_uuid":"4b61bd3a-791d-45e5-8864-35295c2e42ff","land_type":200,"issue_year":2024,"edit_year":2020,"history":"[{\"筆ポリゴンID\":\"b63215da-a859-4695-82e9-cfa5a4d2be13\",\"更新年度\":2023,\"前年同一\":true},[{\"筆ポリゴンID\":\"ae0782a0-70c8-4634-9778-9cbc804961d7\",\"更新年度\":2022,\"前年同一\":true},[{\"筆ポリゴンID\":\"37744264-e627-464e-8797-e016c3f414fd\",\"更新年度\":2021,\"前年同一\":true},{\"筆ポリゴンID\":\"37744264-e627-464e-8797-e016c3f414fd\",\"発生年度\":2020}]]]","last_polygon_uuid":"b63215da-a859-4695-82e9-cfa5a4d2be13","prev_last_polygon_uuid":"ae0782a0-70c8-4634-9778-9cbc804961d7","local_government_cd":"014036","point_lng":140.530071833,"point_lat":43.033680079}}]}}}