{"type":"Topology","arcs":[[[18490,20732],[-1,3],[-1,2],[1,4],[6,11],[6,20],[8,32],[7,3],[37,-11],[0,-4],[0,-3],[-20,-61],[-1,-3],[-6,-1],[-36,8]],[[18312,19663],[4,1],[26,-17],[0,-2],[-32,-96],[-20,-51],[-4,-1],[-27,18],[0,5],[53,143]],[[18213,19789],[8,8],[4,4],[29,21],[32,29],[2,1],[3,-4],[-3,-72],[-5,-5],[-34,-14],[-44,-6],[-5,0],[-4,0],[0,3],[17,35]],[[10369,23447],[-17,-9],[-11,0],[-12,12],[-35,75],[-5,20],[2,13],[9,11],[64,56],[20,-41],[-7,-10],[37,-60],[22,24],[-2,11],[72,60],[7,-36],[-42,-30],[10,-22],[-112,-74]],[[11606,23836],[7,-37],[169,24],[64,11],[19,-151],[25,-288],[-255,-19],[-1,3],[-22,311],[0,25],[-131,-8],[34,122],[91,7]],[[10806,23908],[-45,-25],[-21,63],[-5,12],[-9,5],[-6,0],[-8,-3],[-9,-7],[-103,-87],[-11,17],[-70,-50],[5,-13],[6,-15],[-51,-8],[-14,53],[238,206],[-22,93],[122,45],[67,-61],[11,-31],[-123,-47],[48,-147]],[[9715,24439],[-2,10],[2,6],[154,178],[114,-129],[-15,-16],[127,-166],[-60,-61],[-8,7],[-36,-25],[-109,144],[-10,1],[-108,-88],[-49,139]],[[8540,25071],[25,23],[72,79],[127,-148],[67,90],[-20,25],[52,65],[44,-58],[-619,-702],[-137,189],[389,437]],[[3187,36126],[-232,-83]],[[2955,36043],[-45,195],[12,12],[4,21],[-1,11],[337,129],[9,-37],[45,10],[28,-90],[218,71],[4,-15],[6,-6],[-6,-82],[-379,-136]],[[2697,38631],[-61,190],[147,324],[10,23],[20,21],[139,56],[85,-223],[734,261],[-1,-160],[-18,0],[-15,45],[-197,-73],[29,-147],[-872,-317]],[[2425,38312],[38,71],[47,-112],[200,38],[70,-160],[-252,-96],[-103,259]],[[2515,34819],[153,54],[276,101],[255,98],[150,48],[16,-42],[-6,-9],[23,-59],[-83,-23],[-27,61],[-56,-31],[11,-24],[-37,-14],[25,-57],[-66,-26],[20,-99],[-578,-205],[-29,74],[-47,153]],[[2918,35222],[23,12],[19,12],[348,131],[22,2],[24,-100],[-115,-42],[-143,-51],[-17,-14],[25,-103],[-144,-52],[-42,205]],[[2762,37618],[193,70],[97,-243],[-136,-46],[18,-51],[-75,-38],[-102,281],[3,25],[2,2]],[[2416,37505],[-216,-76]],[[2200,37429],[-226,-79],[-17,5],[3,14],[122,281],[98,35],[62,-183],[63,20],[8,-8],[89,29],[14,-38]],[[2485,37439],[173,56],[55,8],[17,-2],[83,-215],[43,-106],[-41,-15],[-82,202],[-195,-79],[-52,137],[-1,14]],[[2416,37505],[122,-301],[-107,-56],[-15,27],[-99,-31],[-117,285]],[[2303,28697],[9,14],[83,27],[208,74],[32,68],[7,2],[51,-114],[9,-6],[43,-126],[-112,-38],[-10,12],[-263,-86],[-7,2],[-50,171]],[[3165,37184],[146,53],[2,-11],[35,-130],[-31,-9],[28,-77],[5,-39],[0,-26],[-83,-32],[-96,251],[-6,20]],[[3009,37119],[53,20],[29,-87],[6,-4],[20,7],[11,-21],[20,-53],[-81,-28],[-58,166]],[[3275,36897],[230,93],[19,-88],[12,-11],[20,-118],[-208,-75],[-73,199]],[[2616,30671],[19,16],[176,61],[218,75],[32,-80],[-4,-18],[-235,-79],[9,-17],[128,43],[28,-76],[-106,-46],[36,-101],[-292,-99],[-29,14],[8,154],[9,38],[14,46],[-2,12],[-10,20],[1,37]],[[2511,36948],[372,132],[6,-13],[62,-172],[271,93],[189,-503],[-530,-196],[-92,-19],[-5,17],[17,84],[-5,99],[-4,71],[-13,59],[-16,30],[-13,15],[-262,75],[-10,16],[-32,134],[-9,37],[-3,13],[48,14],[29,14]],[[3726,32180],[179,-7],[5,-4],[4,-4],[-10,-80],[-11,-9],[-174,17],[-5,9],[-6,22],[5,50],[13,6]],[[2906,32602],[16,-1],[25,-40],[66,17],[23,-74],[164,40],[11,-2],[6,-17],[14,-56],[-12,-6],[-111,-35],[-87,-27],[-11,-11],[-280,-102],[-12,2],[-4,6],[18,234],[3,11],[171,61]],[[3262,33113],[-2,77],[141,64],[-8,-96],[-131,-45]],[[17411,19761],[-2,17],[0,6],[13,14],[97,59],[50,35],[3,-3],[94,-183],[0,-3],[-90,-97],[-12,-9],[-14,-1],[-40,-5],[-20,1],[-28,26],[-26,27],[-9,17],[-4,15],[-12,84]],[[3254,33302],[123,32],[16,-2],[-3,-57],[-107,-47],[-23,-4],[-15,57],[9,21]],[[3916,33689],[722,-66],[261,-37],[2,-12],[-7,-16],[-35,-60],[-25,-19],[-944,100],[-4,6],[13,102],[17,2]],[[17110,19720],[1,10],[3,6],[29,22],[7,1],[6,-3],[9,-31],[0,-10],[1,-10],[-6,-12],[-13,-23],[-5,-14],[-1,-11],[-2,-15],[0,-5],[-8,-31],[-5,-14],[-3,-4],[-8,-7],[-5,0],[-30,18],[-2,3],[-2,3],[2,8],[4,14],[28,105]],[[18206,19721],[4,7],[4,3],[8,2],[44,7],[32,12],[11,-6],[1,-3],[1,-2],[-44,-140],[-1,-6],[-6,-12],[-25,-102],[-4,-5],[-4,-2],[-55,14],[-3,1],[-2,1],[25,127],[14,104]],[[3081,35639],[254,97]],[[3335,35736],[114,37],[23,-85],[-63,-18],[-157,-48],[10,-42],[-16,-4],[33,-135],[-27,-10],[-24,14],[-34,148],[-37,-16],[-15,-63],[-17,-21],[-28,-10],[-26,1],[-8,17],[-6,28],[6,18],[11,10],[24,2],[-17,80]],[[18405,20077],[7,13],[21,-8],[2,-6],[57,-102],[2,-3],[239,-52],[2,-1],[14,5],[4,3],[9,9],[13,4],[66,-25],[1,-3],[-4,-12],[-6,-14],[-77,-62],[-40,-37],[-20,-7],[-50,11],[-134,33],[-16,7],[-17,8],[-11,19],[-15,26],[-11,6],[-65,17],[-4,15],[1,51],[8,37],[24,68]],[[13414,26587],[85,18],[18,-81],[-83,-25],[-20,88]],[[3187,36126],[41,-204]],[[3228,35922],[-228,-78]],[[3000,35844],[-45,199]],[[3102,33058],[-338,-115],[-10,47],[2,70],[1,18],[313,114],[32,-134]],[[3779,34073],[95,-6],[-13,-191],[-69,3],[11,99],[-23,5],[-1,90]],[[3362,35402],[-8,35],[144,50],[8,4],[12,1],[8,-4],[5,-6],[3,-9],[0,-5],[-14,-9],[-158,-57]],[[3356,35334],[135,46],[9,-1],[6,-17],[4,-16],[2,-19],[-5,-4],[-146,-43],[-10,46],[5,8]],[[7597,49089],[22,38],[7,7],[6,2],[168,-88],[3,-7],[0,-10],[-92,-277],[-5,-5],[-8,0],[-5,0],[-177,98],[0,6],[-1,5],[82,231]],[[7863,49012],[6,24],[5,2],[12,0],[217,-114],[0,-6],[0,-4],[-120,-312],[-4,-5],[-7,1],[-207,101],[-4,5],[-2,3],[104,305]],[[16909,18601],[5,7],[9,0],[41,-7],[2,27],[39,-6],[-30,-310],[-91,18],[-2,8],[27,263]],[[15462,21911],[0,6],[2,1],[75,9],[0,10],[321,56],[10,-54],[-2,-5],[-4,-3],[-76,-16],[2,-12],[-304,-44],[-7,2],[-17,50]],[[18297,20638],[21,61],[8,11],[22,16],[13,8],[25,7],[17,-2],[73,-47],[6,-9],[-11,-59],[-16,-78],[-39,-211],[-7,-56],[-9,-95],[-3,-4],[-7,-1],[-8,4],[-54,18],[-56,30],[-37,32],[-28,29],[-3,12],[1,8],[0,8],[6,35],[48,174],[38,109]],[[16284,20508],[7,5],[6,1],[30,-2],[5,1],[8,4],[100,-45],[25,-27],[92,-149],[93,-181],[0,-7],[-4,-7],[-66,-51],[-15,0],[-255,161],[-27,17],[-81,50],[49,145],[-26,73],[8,-5],[7,-2],[5,0],[4,3],[2,6],[12,1],[12,1],[3,1],[3,3],[1,2],[2,2]],[[11171,23593],[4,5],[65,22],[6,0],[2,-2],[10,-119],[1,-6],[0,-2],[74,10],[7,-17],[3,-1],[20,-1],[14,-72],[-1,-2],[-3,-2],[-106,-15],[-73,-14],[-4,0],[-4,45],[-12,56],[-3,115]],[[17519,20084],[29,27],[-24,44],[137,109],[103,-209],[-3,-7],[-4,-8],[-154,-103],[-84,147]],[[2848,38052],[86,37],[12,-9],[110,-281],[-3,-19],[-11,-16],[14,-48],[87,34],[110,-310],[-88,-34],[-20,64],[-49,-15],[-26,70],[-29,-13],[-199,520],[6,20]],[[3438,37597],[102,33],[9,-44],[-33,-14],[35,-157],[-37,-15],[-76,197]],[[18329,20177],[7,12],[28,-13],[18,-13],[-51,-176],[5,-6],[2,-9],[-14,-40],[-2,-34],[-2,-11],[-73,-61],[-8,-1],[-8,4],[-2,6],[100,342]],[[18225,20247],[92,-60],[4,-4],[1,-4],[-98,-336],[-32,-71],[-7,-16],[-9,-3],[-148,9],[-38,10],[-4,5],[0,8],[90,253],[54,111],[87,103],[8,-5]],[[17019,19807],[-14,32],[-4,22],[0,14],[2,17],[12,17],[47,31],[12,-1],[3,-4],[66,-158],[0,-3],[-33,-32],[-23,9],[-20,3],[-5,3],[-2,4],[0,3],[-1,11],[-4,13],[0,7],[-5,7],[-3,10],[-18,-14],[-4,0],[-6,9]],[[17084,19934],[-3,10],[10,13],[35,24],[19,-3],[8,-2],[7,-11],[81,-157],[33,-56],[3,-16],[-1,-10],[-4,-4],[-63,-50],[-7,1],[-7,3],[-11,16],[-100,242]],[[3510,28407],[156,-16],[-5,-103],[-157,7],[6,112]],[[3081,35639],[-30,-11],[-50,210],[-1,6]],[[3228,35922],[50,18],[13,-45],[66,10],[8,-44],[-61,-12],[31,-113]],[[124,27341],[-124,268],[0,12],[452,461],[214,-515],[-280,-182],[0,-2],[39,-86],[94,-190],[-1,-11],[-218,-110],[-176,355]],[[339,26986],[182,88],[6,-3],[18,-52],[27,-58],[30,-51],[8,-29],[-3,-19],[-105,-171],[-54,14],[-128,265],[1,6],[18,10]],[[18659,21141],[-6,50],[4,12],[11,18],[13,8],[91,21],[4,-2],[19,-88],[1,-5],[-1,-3],[-120,-38],[-7,-1],[-4,0],[-5,28]],[[3014,31072],[30,-123],[-63,-17],[-29,118],[62,22]],[[10782,23820],[28,15],[-8,24],[17,8],[32,-101],[-22,-15],[-8,-3],[-8,1],[-8,4],[-23,67]],[[3793,34272],[-38,7],[2,57],[64,-8],[62,-5],[-15,-245],[-84,7],[9,187]],[[2736,29973],[-31,100],[118,35],[86,28],[34,-82],[-75,-39],[6,-64],[-70,-25],[-19,66],[-49,-19]],[[2609,30298],[288,100],[279,89],[8,-27],[-254,-80],[27,-87],[0,-12],[-54,-21],[16,-60],[-322,-130],[12,228]],[[15571,20710],[-26,24],[-32,33],[-3,9],[4,10],[6,6],[23,0],[85,8],[-57,-90]],[[9522,23773],[167,121],[45,-64],[27,22],[28,-55],[-190,-151],[-77,127]],[[17640,18094],[-1,4],[44,75],[15,27],[3,11],[2,24],[156,-21],[-36,-193],[-5,-6],[-6,-3],[-106,49],[-66,33]],[[10215,23355],[-98,-65],[-20,8],[-28,79],[2,3],[144,120],[26,-64],[-51,-29],[25,-52]],[[17108,19480],[0,8],[1,2],[4,2],[9,7],[15,7],[18,28],[58,-39],[-2,-7],[1,-6],[68,-51],[0,-3],[-6,-9],[-68,-79],[-26,-21],[-9,-4],[-3,-1],[-10,5],[-50,161]],[[3820,34510],[-51,5],[0,65],[82,1],[0,13],[42,-3],[21,-32],[-5,-179],[-94,6],[5,124]],[[17449,19440],[97,9],[7,-1],[3,-1],[2,-4],[6,-7],[0,-9],[2,-8],[2,-6],[52,-159],[17,-52],[0,-11],[-4,-11],[-5,-7],[-5,-9],[-4,-8],[-2,-11],[-1,-15],[-1,-22],[-2,-25],[-2,-14],[-9,-22],[-15,-12],[-173,-102],[-37,-16],[-15,1],[-12,0],[-12,2],[-14,5],[-37,35],[-68,87],[-15,34],[-9,37],[-4,46],[-2,80],[5,39],[2,8],[41,52],[43,54],[14,18],[11,7],[10,5],[10,1],[9,0],[8,-2],[12,-34],[3,0],[46,13],[5,4],[24,24],[4,3],[7,2],[6,2]],[[3621,30818],[155,-9],[-8,-203],[-120,10],[8,119],[-38,3],[3,80]],[[3032,32622],[-98,-31],[-1,0],[-16,71],[163,54],[68,22],[18,-39],[103,12],[6,-56],[-203,-37],[-33,1],[-7,3]],[[2906,32602],[-170,-47],[11,216],[356,125],[39,-137],[-254,-94],[18,-63]],[[2904,30923],[20,-4],[30,-100],[-9,-13],[-295,-101],[-21,13],[-7,49],[5,54],[1,12],[276,90]],[[10471,25260],[-8,-8],[-51,-70],[-89,62],[-13,14],[-5,8],[1,14],[115,202],[72,153],[32,60],[7,4],[14,-3],[158,-126],[130,-97],[-59,-70],[47,-57],[-71,-74],[-80,81],[-16,11],[-15,-4],[-7,-3],[-46,-49],[-28,40],[-2,3],[-6,8],[-36,-30],[-18,20],[-55,-60],[29,-29]],[[17583,19463],[87,32],[12,1],[2,-7],[0,-7],[17,-235],[0,-4],[-50,-35],[-2,0],[-2,2],[-31,109],[-34,95],[-6,42],[0,2],[2,2],[5,3]],[[2950,33302],[255,89],[43,-79],[-17,-21],[-85,-32],[-20,15],[-152,-63],[-24,91]],[[17378,18608],[-7,31],[1,6],[3,4],[71,51],[6,-4],[0,-3],[7,-31],[-54,-63],[-13,-17],[-2,-1],[-4,0],[-5,4],[0,3],[-1,6],[0,4],[-2,10]],[[3506,28710],[12,8],[373,-27],[104,-7],[-30,-146],[-95,12],[-21,-134],[-143,22],[17,139],[-212,27],[-4,48],[-3,14],[2,44]],[[3916,33689],[-17,11],[-4,24],[21,40],[19,38],[86,-7],[1,0],[89,-8],[73,-123],[-268,25]],[[17209,18429],[-25,-10],[-5,4],[-15,58],[-3,2],[-40,-18],[1,34],[18,123],[8,4],[61,-197]],[[17222,18434],[-66,198],[1,16],[33,116],[16,45],[11,19],[13,12],[14,2],[38,-22],[78,-199],[4,-32],[-2,-28],[-6,-40],[-9,-23],[-22,-24],[-103,-40]],[[10490,23733],[35,30],[27,-79],[-13,-13],[32,-49],[-49,-39],[-6,27],[13,15],[-26,45],[-13,63]],[[17321,20042],[-11,15],[-17,19],[-12,14],[-1,2],[-22,-11],[-14,-1],[-5,2],[-27,19],[-5,3],[-29,38],[205,108],[21,-40],[149,-305],[-84,-60],[-33,-17],[-38,-12],[-22,-1],[-40,6],[-69,90],[-20,68],[74,63]],[[3008,33426],[162,55],[23,-68],[6,-13],[-165,-58],[-26,84]],[[18043,19055],[-137,-57],[-85,-30],[-66,3],[-13,8],[-72,45],[24,184],[57,54],[343,47],[39,-8],[106,-94],[107,-40],[-51,-158],[-99,39],[-19,-21],[-134,28]],[[10772,23721],[-24,-14],[-52,134],[-3,2],[-59,-14],[-5,14],[67,58],[24,-7],[55,-162],[-3,-11]],[[10104,23442],[-26,-21],[-10,-3],[-8,3],[-5,3],[-3,2],[-18,55],[33,28],[37,-67]],[[18147,18546],[-1,23],[12,4],[16,1],[349,-58],[33,-3],[108,2],[43,-1],[110,-12],[91,5],[110,8],[26,-453],[-845,119],[-52,365]],[[14007,24790],[36,28],[-51,156],[-14,43],[-74,-35],[-4,10],[-53,-24],[7,-25],[-75,-35],[-30,130],[186,72],[23,3],[199,88],[90,-287],[104,-307],[-172,-81],[-76,199],[-58,-45],[-38,110]],[[17826,19587],[79,119],[13,10],[20,13],[13,3],[45,3],[72,-2],[62,-6],[55,-1],[3,-2],[2,-4],[-11,-67],[-14,-69],[-22,-98],[-33,-88],[-32,-53],[-22,-32],[-290,-41],[-6,1],[-3,4],[-3,10],[-22,35],[-12,21],[-4,35],[-5,38],[1,21],[1,9],[9,23],[3,9],[26,21],[18,15],[57,73]],[[17315,18773],[-4,9],[0,7],[1,6],[308,191],[6,0],[4,-3],[-5,-23],[-9,-22],[-25,-35],[-29,-37],[-15,-24],[-12,-30],[-34,-42],[-46,-46],[-74,-56],[-10,-4],[-7,0],[-7,10],[-42,99]],[[10157,23488],[-35,69],[332,287],[3,-3],[17,-83],[-317,-270]],[[9460,3750],[10,-7],[45,-28],[-16,-50],[-9,3],[-12,-25],[-47,33],[24,62],[3,7],[2,5]],[[9741,56],[42,110],[97,-60],[-46,-106],[-93,56]],[[8029,49346],[68,74],[8,0],[2,-1],[128,-111],[2,-7],[-1,-4],[-23,-51],[-94,-209],[-1,-1],[-4,-2],[-3,0],[-7,3],[-217,114],[-6,3],[0,1],[7,16],[3,6],[138,169]],[[7704,49356],[-7,9],[2,9],[2,3],[282,246],[6,7],[15,-1],[13,-6],[6,-6],[32,-71],[19,-51],[-2,-6],[-1,-9],[-7,-3],[-267,-214],[-3,-5],[-6,0],[-5,5],[-4,5],[-75,88]],[[3008,31237],[-14,58],[63,24],[24,10],[45,18],[50,19],[65,23],[-1,-84],[-108,-16],[-9,-18],[-115,-34]],[[3840,29853],[-128,8],[1,80],[-76,8],[2,109],[68,-5],[-1,-20],[139,-8],[-5,-172]],[[16566,21189],[-10,-20],[-9,-20],[-5,-22],[-2,-13],[-102,50],[7,20],[3,18],[2,22],[1,20],[6,10],[109,-65]],[[16710,21033],[-102,28],[6,20],[9,18],[10,13],[11,11],[12,7],[16,0],[54,-10],[-16,-87]],[[4118,32897],[-140,12],[6,63],[136,-16],[-2,-59]],[[3073,30772],[-18,30],[-1,10],[1,10],[3,6],[30,16],[21,-56],[-36,-16]]],"transform":{"scale":[0.000002689663043478345,0.0000016944470078581373],"translate":[141.451685446,43.008895]},"objects":{"2025_011088":{"type":"GeometryCollection","geometries":[{"arcs":[[0]],"type":"Polygon","properties":{"polygon_uuid":"817dc12e-1dc5-45ca-8261-2f2fa132d61c","land_type":200,"issue_year":2025,"edit_year":2020,"history":"[{\"筆ポリゴンID\":\"0539f75a-821c-402b-a070-7f342b09f6aa\",\"更新年度\":2024,\"前年同一\":true},[{\"筆ポリゴンID\":\"13d4aaab-00a3-4b3d-b3c2-a2050c431f08\",\"更新年度\":2023,\"前年同一\":true},[{\"筆ポリゴンID\":\"df30389e-c575-4c68-be6b-4889230517b8\",\"更新年度\":2022,\"前年同一\":true},[{\"筆ポリゴンID\":\"1d281148-8932-46e1-9b35-bff2956881e1\",\"更新年度\":2021,\"前年同一\":true},{\"筆ポリゴンID\":\"1d281148-8932-46e1-9b35-bff2956881e1\",\"発生年度\":2020}]]]]","last_polygon_uuid":"0539f75a-821c-402b-a070-7f342b09f6aa","prev_last_polygon_uuid":"13d4aaab-00a3-4b3d-b3c2-a2050c431f08","local_government_cd":"011088","point_lng":141.501501435,"point_lat":43.044079838}},{"arcs":[[1]],"type":"Polygon","properties":{"polygon_uuid":"24ea8831-8931-49dc-9ea9-bfce294152f6","land_type":200,"issue_year":2025,"edit_year":2020,"history":"[{\"筆ポリゴンID\":\"bd85bade-231a-40e0-9dcf-f4dffdc08668\",\"更新年度\":2024,\"前年同一\":true},[{\"筆ポリゴンID\":\"7de00774-87e2-45c2-8780-69cb8d908a54\",\"更新年度\":2023,\"前年同一\":true},[{\"筆ポリゴンID\":\"5cdf3ab0-3a30-4143-819b-ea1745a4e882\",\"更新年度\":2022,\"前年同一\":true},[{\"筆ポリゴンID\":\"53fc9fb6-ce78-4bba-8f97-e682cce81729\",\"更新年度\":2021,\"前年同一\":true},{\"筆ポリゴンID\":\"53fc9fb6-ce78-4bba-8f97-e682cce81729\",\"発生年度\":2020}]]]]","last_polygon_uuid":"bd85bade-231a-40e0-9dcf-f4dffdc08668","prev_last_polygon_uuid":"7de00774-87e2-45c2-8780-69cb8d908a54","local_government_cd":"011088","point_lng":141.500908621,"point_lat":43.042071468}},{"arcs":[[2]],"type":"Polygon","properties":{"polygon_uuid":"23ad4302-a220-4c1f-8d23-dc07c9db269a","land_type":200,"issue_year":2025,"edit_year":2020,"history":"[{\"筆ポリゴンID\":\"a36c8c3f-a514-44bf-9230-46fb8c8cbdb4\",\"更新年度\":2024,\"前年同一\":true},[{\"筆ポリゴンID\":\"ce634c68-1ecb-43ec-a027-6c7629680bbe\",\"更新年度\":2023,\"前年同一\":true},[{\"筆ポリゴンID\":\"b91b1273-ece6-4d72-8196-c1a857fb61db\",\"更新年度\":2022,\"前年同一\":true},[{\"筆ポリゴンID\":\"ae43e5d5-bf30-483c-b157-99c8b820a6b6\",\"更新年度\":2021,\"前年同一\":true},{\"筆ポリゴンID\":\"ae43e5d5-bf30-483c-b157-99c8b820a6b6\",\"発生年度\":2020}]]]]","last_polygon_uuid":"a36c8c3f-a514-44bf-9230-46fb8c8cbdb4","prev_last_polygon_uuid":"ce634c68-1ecb-43ec-a027-6c7629680bbe","local_government_cd":"011088","point_lng":141.500777068,"point_lat":43.042429877}},{"arcs":[[3]],"type":"Polygon","properties":{"polygon_uuid":"0bf60dc3-7429-4093-aeb8-5eb2267bc401","land_type":200,"issue_year":2025,"edit_year":2024,"history":"[{\"筆ポリゴンID\":\"398093b7-30b2-4860-9955-95e69397d9fe\",\"更新年度\":2024,\"関連\":true},[{\"筆ポリゴンID\":\"463a88ed-0fc4-40be-bea1-bfddcbbcdf9f\",\"更新年度\":2023,\"前年同一\":true},[{\"筆ポリゴンID\":\"472cca53-8c9f-4340-a941-fcc1a23576f1\",\"更新年度\":2022,\"前年同一\":true},[{\"筆ポリゴンID\":\"046c8ecb-dd09-40ce-a4ac-0e84c785e0aa\",\"更新年度\":2021,\"前年同一\":true},{\"筆ポリゴンID\":\"046c8ecb-dd09-40ce-a4ac-0e84c785e0aa\",\"発生年度\":2020}]]]]","last_polygon_uuid":null,"prev_last_polygon_uuid":null,"local_government_cd":"011088","point_lng":141.479602082,"point_lat":43.048762463}},{"arcs":[[4]],"type":"Polygon","properties":{"polygon_uuid":"4419b8a6-6326-4668-b580-5982b3a354f7","land_type":200,"issue_year":2025,"edit_year":2024,"history":"[{\"筆ポリゴンID\":\"b1a6431f-9711-4508-99e7-4fa483ee495c\",\"更新年度\":2024,\"関連\":true},[{\"筆ポリゴンID\":\"108b74f7-28bc-4338-ab06-df333fac7685\",\"更新年度\":2023,\"前年同一\":true},[{\"筆ポリゴンID\":\"3255e3a6-5523-49eb-800f-56a95cd18aec\",\"更新年度\":2022,\"前年同一\":true},[{\"筆ポリゴンID\":\"f06ec7b1-8865-4cf6-b5ee-6d428f2ba8cb\",\"更新年度\":2021,\"前年同一\":true},{\"筆ポリゴンID\":\"f06ec7b1-8865-4cf6-b5ee-6d428f2ba8cb\",\"発生年度\":2020}]]]]","last_polygon_uuid":null,"prev_last_polygon_uuid":null,"local_government_cd":"011088","point_lng":141.483220508,"point_lat":43.048913275}},{"arcs":[[5]],"type":"Polygon","properties":{"polygon_uuid":"29549d6f-2235-4a35-a1d5-1bcfdfbab928","land_type":200,"issue_year":2025,"edit_year":2024,"history":"[{\"筆ポリゴンID\":\"4f45a955-9a71-4a88-a676-9e3b4e1f982a\",\"更新年度\":2024,\"関連\":true},[{\"筆ポリゴンID\":\"dd3fdcad-0202-4332-88ef-88a9214773b0\",\"更新年度\":2023,\"前年同一\":true},[{\"筆ポリゴンID\":\"469fae29-4d91-4f04-ac14-88109a8c8c1f\",\"更新年度\":2022,\"前年同一\":true},[{\"筆ポリゴンID\":\"cbafe1c8-51fc-44d8-8985-d91ecbd83e5b\",\"更新年度\":2021,\"前年同一\":true},{\"筆ポリゴンID\":\"cbafe1c8-51fc-44d8-8985-d91ecbd83e5b\",\"発生年度\":2020}]]]]","last_polygon_uuid":null,"prev_last_polygon_uuid":null,"local_government_cd":"011088","point_lng":141.480452469,"point_lat":43.049573504}},{"arcs":[[6]],"type":"Polygon","properties":{"polygon_uuid":"08982380-33e8-43bc-8632-06d3dd4c4e01","land_type":200,"issue_year":2025,"edit_year":2020,"history":"[{\"筆ポリゴンID\":\"f84b5184-a6c6-4dfb-8812-e15b59b75c5a\",\"更新年度\":2024,\"前年同一\":true},[{\"筆ポリゴンID\":\"9a4b797e-b661-4460-af59-05237095fedb\",\"更新年度\":2023,\"前年同一\":true},[{\"筆ポリゴンID\":\"79a42c37-7d13-4f37-a288-2985786363cc\",\"更新年度\":2022,\"前年同一\":true},[{\"筆ポリゴンID\":\"8e980b44-ab98-4e0f-9a6d-f8d457b7155b\",\"更新年度\":2021,\"前年同一\":true},{\"筆ポリゴンID\":\"8e980b44-ab98-4e0f-9a6d-f8d457b7155b\",\"発生年度\":2020}]]]]","last_polygon_uuid":"f84b5184-a6c6-4dfb-8812-e15b59b75c5a","prev_last_polygon_uuid":"9a4b797e-b661-4460-af59-05237095fedb","local_government_cd":"011088","point_lng":141.478293952,"point_lat":43.050288062}},{"arcs":[[7]],"type":"Polygon","properties":{"polygon_uuid":"6c394cdc-8c16-4baf-80df-2b57a6b6c535","land_type":200,"issue_year":2025,"edit_year":2020,"history":"[{\"筆ポリゴンID\":\"b586ab72-09da-4a57-a7fd-29c2729d43d3\",\"更新年度\":2024,\"前年同一\":true},[{\"筆ポリゴンID\":\"4283b971-1d56-4ea3-b73f-7c65acb609de\",\"更新年度\":2023,\"前年同一\":true},[{\"筆ポリゴンID\":\"9aae9cbb-0bad-499b-bef0-f8833d1db416\",\"更新年度\":2022,\"前年同一\":true},[{\"筆ポリゴンID\":\"82dcb4c9-c05c-440c-b35c-549b17eb1a39\",\"更新年度\":2021,\"前年同一\":true},{\"筆ポリゴンID\":\"82dcb4c9-c05c-440c-b35c-549b17eb1a39\",\"発生年度\":2020}]]]]","last_polygon_uuid":"b586ab72-09da-4a57-a7fd-29c2729d43d3","prev_last_polygon_uuid":"4283b971-1d56-4ea3-b73f-7c65acb609de","local_government_cd":"011088","point_lng":141.474500971,"point_lat":43.050965897}},{"arcs":[[8,9]],"type":"Polygon","properties":{"polygon_uuid":"e28de8d6-36c4-4626-8dc2-cd7349a5f389","land_type":200,"issue_year":2025,"edit_year":2020,"history":"[{\"筆ポリゴンID\":\"323f85b8-4f86-4ffa-ba25-2d1df95c7b0d\",\"更新年度\":2024,\"前年同一\":true},[{\"筆ポリゴンID\":\"bc01600b-a161-4b65-a8d8-a9f592c74774\",\"更新年度\":2023,\"前年同一\":true},[{\"筆ポリゴンID\":\"001067a0-1ea8-47e4-bea8-efb1f86dcfa9\",\"更新年度\":2022,\"前年同一\":true},[{\"筆ポリゴンID\":\"7a692734-e494-4b4c-ae9a-b2aac660772a\",\"更新年度\":2021,\"前年同一\":true},{\"筆ポリゴンID\":\"7a692734-e494-4b4c-ae9a-b2aac660772a\",\"発生年度\":2020}]]]]","last_polygon_uuid":"323f85b8-4f86-4ffa-ba25-2d1df95c7b0d","prev_last_polygon_uuid":"bc01600b-a161-4b65-a8d8-a9f592c74774","local_government_cd":"011088","point_lng":141.460273871,"point_lat":43.070300737}},{"arcs":[[10]],"type":"Polygon","properties":{"polygon_uuid":"51efc01f-694e-40fe-8516-bc416c658fc7","land_type":200,"issue_year":2025,"edit_year":2020,"history":"[{\"筆ポリゴンID\":\"65ff60fd-ff61-4029-8ce4-afd2dfeb2452\",\"更新年度\":2024,\"前年同一\":true},[{\"筆ポリゴンID\":\"1d6851ac-1a29-4ccc-94f4-e7d23436e95d\",\"更新年度\":2023,\"前年同一\":true},[{\"筆ポリゴンID\":\"9660466f-d77e-42d3-8dda-df3ee109f4d9\",\"更新年度\":2022,\"前年同一\":true},[{\"筆ポリゴンID\":\"1feb3295-b66c-4a0c-942c-0ed9bf775a8d\",\"更新年度\":2021,\"前年同一\":true},{\"筆ポリゴンID\":\"1feb3295-b66c-4a0c-942c-0ed9bf775a8d\",\"発生年度\":2020}]]]]","last_polygon_uuid":"65ff60fd-ff61-4029-8ce4-afd2dfeb2452","prev_last_polygon_uuid":"1d6851ac-1a29-4ccc-94f4-e7d23436e95d","local_government_cd":"011088","point_lng":141.460020995,"point_lat":43.074918766}},{"arcs":[[11]],"type":"Polygon","properties":{"polygon_uuid":"bdac6f54-c6e9-48bb-99bd-fa47a8fd605d","land_type":200,"issue_year":2025,"edit_year":2020,"history":"[{\"筆ポリゴンID\":\"0e0879a2-1230-4354-91fc-b424d288e350\",\"更新年度\":2024,\"前年同一\":true},[{\"筆ポリゴンID\":\"bd128c17-fa11-4b37-907c-25c9b4fd027a\",\"更新年度\":2023,\"前年同一\":true},[{\"筆ポリゴンID\":\"d1566dbf-af75-4b53-adf3-07ffa252f528\",\"更新年度\":2022,\"前年同一\":true},[{\"筆ポリゴンID\":\"eb377f0e-46ad-4fa6-9be3-94ceb0c4aa3f\",\"更新年度\":2021,\"前年同一\":true},{\"筆ポリゴンID\":\"eb377f0e-46ad-4fa6-9be3-94ceb0c4aa3f\",\"発生年度\":2020}]]]]","last_polygon_uuid":"0e0879a2-1230-4354-91fc-b424d288e350","prev_last_polygon_uuid":"bd128c17-fa11-4b37-907c-25c9b4fd027a","local_government_cd":"011088","point_lng":141.458670553,"point_lat":43.07362647}},{"arcs":[[12]],"type":"Polygon","properties":{"polygon_uuid":"2a5905b0-2c38-4ce4-88fe-8be027b8daf0","land_type":200,"issue_year":2025,"edit_year":2020,"history":"[{\"筆ポリゴンID\":\"89d1db77-b783-454b-9e87-7a1e92f0ff79\",\"更新年度\":2024,\"前年同一\":true},[{\"筆ポリゴンID\":\"f3442875-6844-453d-9481-b2e3af62ee4c\",\"更新年度\":2023,\"前年同一\":true},[{\"筆ポリゴンID\":\"c721dbb8-1ebb-4198-8283-64ec57176c0e\",\"更新年度\":2022,\"前年同一\":true},[{\"筆ポリゴンID\":\"9aa7b4ac-1932-41d9-b62c-c1ab0aae5724\",\"更新年度\":2021,\"前年同一\":true},{\"筆ポリゴンID\":\"9aa7b4ac-1932-41d9-b62c-c1ab0aae5724\",\"発生年度\":2020}]]]]","last_polygon_uuid":"89d1db77-b783-454b-9e87-7a1e92f0ff79","prev_last_polygon_uuid":"f3442875-6844-453d-9481-b2e3af62ee4c","local_government_cd":"011088","point_lng":141.459497744,"point_lat":43.067933715}},{"arcs":[[13]],"type":"Polygon","properties":{"polygon_uuid":"ad49de92-bd29-46c6-91f9-7228509c809e","land_type":200,"issue_year":2025,"edit_year":2020,"history":"[{\"筆ポリゴンID\":\"eb53b75f-e1dd-4406-8933-ae89c39a7962\",\"更新年度\":2024,\"前年同一\":true},[{\"筆ポリゴンID\":\"a51b643e-1d75-4d3e-9d4a-b0f6c7fddf3f\",\"更新年度\":2023,\"前年同一\":true},[{\"筆ポリゴンID\":\"b604bb9d-e387-4c2e-b235-b673ba952588\",\"更新年度\":2022,\"前年同一\":true},[{\"筆ポリゴンID\":\"a3028538-cc4e-4186-ad59-c5dfa693abde\",\"更新年度\":2021,\"前年同一\":true},{\"筆ポリゴンID\":\"a3028538-cc4e-4186-ad59-c5dfa693abde\",\"発生年度\":2020}]]]]","last_polygon_uuid":"eb53b75f-e1dd-4406-8933-ae89c39a7962","prev_last_polygon_uuid":"a51b643e-1d75-4d3e-9d4a-b0f6c7fddf3f","local_government_cd":"011088","point_lng":141.460037973,"point_lat":43.068562993}},{"arcs":[[14]],"type":"Polygon","properties":{"polygon_uuid":"1fe4b3f1-8eb3-49fe-85eb-674a31e6a0a4","land_type":200,"issue_year":2025,"edit_year":2020,"history":"[{\"筆ポリゴンID\":\"fab87e15-2d1c-4357-b57b-3e30b7c55ce2\",\"更新年度\":2024,\"前年同一\":true},[{\"筆ポリゴンID\":\"d2fbaff5-c2d7-408d-9600-8c65bc0a4471\",\"更新年度\":2023,\"前年同一\":true},[{\"筆ポリゴンID\":\"56daa4cd-332c-4bf4-8a35-48f4ef9cc557\",\"更新年度\":2022,\"前年同一\":true},[{\"筆ポリゴンID\":\"cbafc9a4-f01e-47e6-ba0e-fd1c7bf18611\",\"更新年度\":2021,\"前年同一\":true},{\"筆ポリゴンID\":\"cbafc9a4-f01e-47e6-ba0e-fd1c7bf18611\",\"発生年度\":2020}]]]]","last_polygon_uuid":"fab87e15-2d1c-4357-b57b-3e30b7c55ce2","prev_last_polygon_uuid":"d2fbaff5-c2d7-408d-9600-8c65bc0a4471","local_government_cd":"011088","point_lng":141.459480636,"point_lat":43.072462104}},{"arcs":[[15,16]],"type":"Polygon","properties":{"polygon_uuid":"f2844f6a-5516-4e32-b96a-b3bb11811a4f","land_type":200,"issue_year":2025,"edit_year":2020,"history":"[{\"筆ポリゴンID\":\"810d79ee-1d27-4224-952c-17fc1d1a8215\",\"更新年度\":2024,\"前年同一\":true},[{\"筆ポリゴンID\":\"6dcc9e7f-f169-4a7d-b740-8eb4cdbf34e7\",\"更新年度\":2023,\"前年同一\":true},[{\"筆ポリゴンID\":\"5425eebc-2086-4e4b-9024-a1700ccc85f2\",\"更新年度\":2022,\"前年同一\":true},[{\"筆ポリゴンID\":\"60922fd1-0d35-4ad0-a5eb-cd16ceaa255f\",\"更新年度\":2021,\"前年同一\":true},{\"筆ポリゴンID\":\"60922fd1-0d35-4ad0-a5eb-cd16ceaa255f\",\"発生年度\":2020}]]]]","last_polygon_uuid":"810d79ee-1d27-4224-952c-17fc1d1a8215","prev_last_polygon_uuid":"6dcc9e7f-f169-4a7d-b740-8eb4cdbf34e7","local_government_cd":"011088","point_lng":141.457446798,"point_lat":43.072449094}},{"arcs":[[17]],"type":"Polygon","properties":{"polygon_uuid":"80fdf22c-4a24-4656-bbbb-eb448a47d575","land_type":200,"issue_year":2025,"edit_year":2020,"history":"[{\"筆ポリゴンID\":\"ccbcdb68-5d04-4479-8e17-3a46875a01fe\",\"更新年度\":2024,\"前年同一\":true},[{\"筆ポリゴンID\":\"33e8b514-d742-4070-8845-94c8befb9bc2\",\"更新年度\":2023,\"前年同一\":true},[{\"筆ポリゴンID\":\"9c0052b8-df3f-45fd-a173-76edd277b2df\",\"更新年度\":2022,\"前年同一\":true},[{\"筆ポリゴンID\":\"8cb49417-b14d-4fd1-8d64-3dd64b0734c4\",\"更新年度\":2021,\"前年同一\":true},{\"筆ポリゴンID\":\"8cb49417-b14d-4fd1-8d64-3dd64b0734c4\",\"発生年度\":2020}]]]]","last_polygon_uuid":"ccbcdb68-5d04-4479-8e17-3a46875a01fe","prev_last_polygon_uuid":"33e8b514-d742-4070-8845-94c8befb9bc2","local_government_cd":"011088","point_lng":141.45884087,"point_lat":43.072230241}},{"arcs":[[-16,18]],"type":"Polygon","properties":{"polygon_uuid":"fca089fd-73b8-46ee-aeca-e45ae2863783","land_type":200,"issue_year":2025,"edit_year":2020,"history":"[{\"筆ポリゴンID\":\"63bf0353-4447-46ab-aa04-dffb7b952947\",\"更新年度\":2024,\"前年同一\":true},[{\"筆ポリゴンID\":\"28a53cd1-4f50-41d1-9f6d-bf60d2cab2b8\",\"更新年度\":2023,\"前年同一\":true},[{\"筆ポリゴンID\":\"d01f39cd-47a5-4747-8454-725d30efd63e\",\"更新年度\":2022,\"前年同一\":true},[{\"筆ポリゴンID\":\"67a899b3-0e61-478b-b40b-3c20e01b03d4\",\"更新年度\":2021,\"前年同一\":true},{\"筆ポリゴンID\":\"67a899b3-0e61-478b-b40b-3c20e01b03d4\",\"発生年度\":2020}]]]]","last_polygon_uuid":"63bf0353-4447-46ab-aa04-dffb7b952947","prev_last_polygon_uuid":"28a53cd1-4f50-41d1-9f6d-bf60d2cab2b8","local_government_cd":"011088","point_lng":141.458061178,"point_lat":43.072128683}},{"arcs":[[19]],"type":"Polygon","properties":{"polygon_uuid":"6abb4352-73d1-419e-8f99-f9715ee5eccd","land_type":200,"issue_year":2025,"edit_year":2020,"history":"[{\"筆ポリゴンID\":\"9f186898-4d2a-4efe-906d-7ddb8945f0d0\",\"更新年度\":2024,\"前年同一\":true},[{\"筆ポリゴンID\":\"8a1dca99-eda0-481b-aa80-93f90c1dd96f\",\"更新年度\":2023,\"前年同一\":true},[{\"筆ポリゴンID\":\"6b0ee6fc-83ca-49e5-94f2-605c21fca73f\",\"更新年度\":2022,\"前年同一\":true},[{\"筆ポリゴンID\":\"79f5241c-e117-4d6c-b20a-aa74b6e436a8\",\"更新年度\":2021,\"前年同一\":true},{\"筆ポリゴンID\":\"79f5241c-e117-4d6c-b20a-aa74b6e436a8\",\"発生年度\":2020}]]]]","last_polygon_uuid":"9f186898-4d2a-4efe-906d-7ddb8945f0d0","prev_last_polygon_uuid":"8a1dca99-eda0-481b-aa80-93f90c1dd96f","local_government_cd":"011088","point_lng":141.45847509,"point_lat":43.057491826}},{"arcs":[[20]],"type":"Polygon","properties":{"polygon_uuid":"874e8ee7-48cd-4e24-b01b-c0f4602a0acf","land_type":200,"issue_year":2025,"edit_year":2020,"history":"[{\"筆ポリゴンID\":\"b6bdf487-d950-4817-8868-89b152b15f7b\",\"更新年度\":2024,\"前年同一\":true},[{\"筆ポリゴンID\":\"8e80dfe9-8260-476d-a519-33bdef986f0a\",\"更新年度\":2023,\"前年同一\":true},[{\"筆ポリゴンID\":\"1ab8a82e-5679-463d-9353-3a302feb1cec\",\"更新年度\":2022,\"前年同一\":true},[{\"筆ポリゴンID\":\"ef5c26f6-8efe-420e-aa1f-49f50ec3b0d1\",\"更新年度\":2021,\"前年同一\":true},{\"筆ポリゴンID\":\"ef5c26f6-8efe-420e-aa1f-49f50ec3b0d1\",\"発生年度\":2020}]]]]","last_polygon_uuid":"b6bdf487-d950-4817-8868-89b152b15f7b","prev_last_polygon_uuid":"8e80dfe9-8260-476d-a519-33bdef986f0a","local_government_cd":"011088","point_lng":141.460484156,"point_lat":43.071732273}},{"arcs":[[21]],"type":"Polygon","properties":{"polygon_uuid":"9e643202-f620-46ac-9dbb-378907a6bfef","land_type":200,"issue_year":2025,"edit_year":2020,"history":"[{\"筆ポリゴンID\":\"6ff4349c-cf83-46a9-a803-7d1f47608e92\",\"更新年度\":2024,\"前年同一\":true},[{\"筆ポリゴンID\":\"56edea12-6a3b-4080-b400-5f148355fc2c\",\"更新年度\":2023,\"前年同一\":true},[{\"筆ポリゴンID\":\"37f684e3-763c-449e-964e-2a62cd2bb60c\",\"更新年度\":2022,\"前年同一\":true},[{\"筆ポリゴンID\":\"555652b8-af8b-4e64-85d0-e482691c212e\",\"更新年度\":2021,\"前年同一\":true},{\"筆ポリゴンID\":\"555652b8-af8b-4e64-85d0-e482691c212e\",\"発生年度\":2020}]]]]","last_polygon_uuid":"6ff4349c-cf83-46a9-a803-7d1f47608e92","prev_last_polygon_uuid":"56edea12-6a3b-4080-b400-5f148355fc2c","local_government_cd":"011088","point_lng":141.459955151,"point_lat":43.071656771}},{"arcs":[[22]],"type":"Polygon","properties":{"polygon_uuid":"1c7512f7-53b6-494c-bb68-b7a668fda73c","land_type":200,"issue_year":2025,"edit_year":2020,"history":"[{\"筆ポリゴンID\":\"4198b82c-bceb-4ab2-9c16-72bc565803a6\",\"更新年度\":2024,\"前年同一\":true},[{\"筆ポリゴンID\":\"a8115f0e-1b3f-478a-b117-4d6d0defa8ac\",\"更新年度\":2023,\"前年同一\":true},[{\"筆ポリゴンID\":\"fd7becc5-3344-49dc-a9be-264964456c13\",\"更新年度\":2022,\"前年同一\":true},[{\"筆ポリゴンID\":\"3972f3fe-fecf-4f89-81d5-02aaec5c9d15\",\"更新年度\":2021,\"前年同一\":true},{\"筆ポリゴンID\":\"3972f3fe-fecf-4f89-81d5-02aaec5c9d15\",\"発生年度\":2020}]]]]","last_polygon_uuid":"4198b82c-bceb-4ab2-9c16-72bc565803a6","prev_last_polygon_uuid":"a8115f0e-1b3f-478a-b117-4d6d0defa8ac","local_government_cd":"011088","point_lng":141.460890383,"point_lat":43.0713219}},{"arcs":[[23]],"type":"Polygon","properties":{"polygon_uuid":"1ccc77cf-215a-412d-b0d0-38ee75c0881d","land_type":200,"issue_year":2025,"edit_year":2020,"history":"[{\"筆ポリゴンID\":\"78cbadd9-258e-4068-81af-a9d395da58e7\",\"更新年度\":2024,\"前年同一\":true},[{\"筆ポリゴンID\":\"a7b03be5-3e07-41ca-8035-97572662b99f\",\"更新年度\":2023,\"前年同一\":true},[{\"筆ポリゴンID\":\"6d2489cc-cba2-4815-827b-cafdaf56d5d1\",\"更新年度\":2022,\"前年同一\":true},[{\"筆ポリゴンID\":\"d2db8dfb-e729-495d-84cc-18853a28a678\",\"更新年度\":2021,\"前年同一\":true},{\"筆ポリゴンID\":\"d2db8dfb-e729-495d-84cc-18853a28a678\",\"発生年度\":2020}]]]]","last_polygon_uuid":"78cbadd9-258e-4068-81af-a9d395da58e7","prev_last_polygon_uuid":"a7b03be5-3e07-41ca-8035-97572662b99f","local_government_cd":"011088","point_lng":141.459195733,"point_lat":43.060720934}},{"arcs":[[24]],"type":"Polygon","properties":{"polygon_uuid":"0f27dc01-0fc3-47b3-805f-299175884931","land_type":200,"issue_year":2025,"edit_year":2020,"history":"[{\"筆ポリゴンID\":\"fcc95902-7c9e-4cae-96f8-2703b335a255\",\"更新年度\":2024,\"前年同一\":true},[{\"筆ポリゴンID\":\"002b234d-b051-4ee9-9982-f3d04369202c\",\"更新年度\":2023,\"前年同一\":true},[{\"筆ポリゴンID\":\"d7cac1e0-841c-4d28-bcc0-0d1e9c3a0c0a\",\"更新年度\":2022,\"前年同一\":true},[{\"筆ポリゴンID\":\"eb5be1dc-87b1-4a55-81d8-61c7d4ab6322\",\"更新年度\":2021,\"前年同一\":true},{\"筆ポリゴンID\":\"eb5be1dc-87b1-4a55-81d8-61c7d4ab6322\",\"発生年度\":2020}]]]]","last_polygon_uuid":"fcc95902-7c9e-4cae-96f8-2703b335a255","prev_last_polygon_uuid":"002b234d-b051-4ee9-9982-f3d04369202c","local_government_cd":"011088","point_lng":141.459609106,"point_lat":43.071075127}},{"arcs":[[25]],"type":"Polygon","properties":{"polygon_uuid":"dd057760-7272-411e-b939-c68ffe405d57","land_type":200,"issue_year":2025,"edit_year":2020,"history":"[{\"筆ポリゴンID\":\"ac431fca-1907-41c8-930d-307bb1b27809\",\"更新年度\":2024,\"前年同一\":true},[{\"筆ポリゴンID\":\"f6441bab-45a7-48d9-b8d4-0b3611c87bef\",\"更新年度\":2023,\"前年同一\":true},[{\"筆ポリゴンID\":\"f74cf5a7-97a0-4e26-a669-20ae67f1ff1a\",\"更新年度\":2022,\"前年同一\":true},[{\"筆ポリゴンID\":\"942f0255-1d51-4805-bf9b-01d23a51025c\",\"更新年度\":2021,\"前年同一\":true},{\"筆ポリゴンID\":\"942f0255-1d51-4805-bf9b-01d23a51025c\",\"発生年度\":2020}]]]]","last_polygon_uuid":"ac431fca-1907-41c8-930d-307bb1b27809","prev_last_polygon_uuid":"f6441bab-45a7-48d9-b8d4-0b3611c87bef","local_government_cd":"011088","point_lng":141.461938808,"point_lat":43.063338412}},{"arcs":[[26]],"type":"Polygon","properties":{"polygon_uuid":"dd89dee0-a9fd-4248-9fbf-5e6e3383447c","land_type":200,"issue_year":2025,"edit_year":2020,"history":"[{\"筆ポリゴンID\":\"69daa56d-47fa-4eb6-90d3-64c6babef2d0\",\"更新年度\":2024,\"前年同一\":true},[{\"筆ポリゴンID\":\"4e7445f6-297f-45c7-9b4e-86f88e12a9a3\",\"更新年度\":2023,\"前年同一\":true},[{\"筆ポリゴンID\":\"2b9578fc-3b67-4e11-9085-5cb8cbbce630\",\"更新年度\":2022,\"前年同一\":true},[{\"筆ポリゴンID\":\"2bd47700-c1d8-4c23-8524-af09ea59dcc1\",\"更新年度\":2021,\"前年同一\":true},{\"筆ポリゴンID\":\"2bd47700-c1d8-4c23-8524-af09ea59dcc1\",\"発生年度\":2020}]]]]","last_polygon_uuid":"69daa56d-47fa-4eb6-90d3-64c6babef2d0","prev_last_polygon_uuid":"4e7445f6-297f-45c7-9b4e-86f88e12a9a3","local_government_cd":"011088","point_lng":141.45953293,"point_lat":43.063893821}},{"arcs":[[27]],"type":"Polygon","properties":{"polygon_uuid":"b2413483-3a8d-43fe-a6e8-79659f2abc0b","land_type":200,"issue_year":2025,"edit_year":2020,"history":"[{\"筆ポリゴンID\":\"d5a3bb80-56cb-447d-ade7-335ffa4759ee\",\"更新年度\":2024,\"前年同一\":true},[{\"筆ポリゴンID\":\"8b37efff-1dd7-46ad-a39d-f5b4f394f915\",\"更新年度\":2023,\"前年同一\":true},[{\"筆ポリゴンID\":\"c87aa2eb-ce6c-4521-8d9e-01451f47a4ad\",\"更新年度\":2022,\"前年同一\":true},[{\"筆ポリゴンID\":\"96cc2f1d-8aa8-4869-af93-cd130c558ef5\",\"更新年度\":2021,\"前年同一\":true},{\"筆ポリゴンID\":\"96cc2f1d-8aa8-4869-af93-cd130c558ef5\",\"発生年度\":2020}]]]]","last_polygon_uuid":"d5a3bb80-56cb-447d-ade7-335ffa4759ee","prev_last_polygon_uuid":"8b37efff-1dd7-46ad-a39d-f5b4f394f915","local_government_cd":"011088","point_lng":141.460644601,"point_lat":43.065116821}},{"arcs":[[28]],"type":"Polygon","properties":{"polygon_uuid":"ba173de4-a1bf-4e89-bfdf-305c45c849bd","land_type":200,"issue_year":2025,"edit_year":2020,"history":"[{\"筆ポリゴンID\":\"65c58ee1-ca36-4599-8d46-d18b41108a28\",\"更新年度\":2024,\"前年同一\":true},[{\"筆ポリゴンID\":\"55a918ae-f6c2-4791-9d2b-48fcbf849296\",\"更新年度\":2023,\"前年同一\":true},[{\"筆ポリゴンID\":\"5f4c7948-2835-4c0b-8321-d90e55df65dc\",\"更新年度\":2022,\"前年同一\":true},[{\"筆ポリゴンID\":\"d2b1818a-7d07-4180-846d-d559d11424a4\",\"更新年度\":2021,\"前年同一\":true},{\"筆ポリゴンID\":\"d2b1818a-7d07-4180-846d-d559d11424a4\",\"発生年度\":2020}]]]]","last_polygon_uuid":"65c58ee1-ca36-4599-8d46-d18b41108a28","prev_last_polygon_uuid":"55a918ae-f6c2-4791-9d2b-48fcbf849296","local_government_cd":"011088","point_lng":141.498837145,"point_lat":43.042324616}},{"arcs":[[29]],"type":"Polygon","properties":{"polygon_uuid":"1e5260d8-55cf-4ff6-a202-12bbaed7b668","land_type":200,"issue_year":2025,"edit_year":2020,"history":"[{\"筆ポリゴンID\":\"e2783563-3429-4562-bb22-1d4a637b438d\",\"更新年度\":2024,\"前年同一\":true},[{\"筆ポリゴンID\":\"ab823cbc-3d89-4732-a8fb-3d63012fe4f4\",\"更新年度\":2023,\"前年同一\":true},[{\"筆ポリゴンID\":\"1390da28-225b-441d-b198-dd0a499e6a28\",\"更新年度\":2022,\"前年同一\":true},[{\"筆ポリゴンID\":\"450c3d1c-a674-4aeb-9984-d3a84a11882d\",\"更新年度\":2021,\"前年同一\":true},{\"筆ポリゴンID\":\"450c3d1c-a674-4aeb-9984-d3a84a11882d\",\"発生年度\":2020}]]]]","last_polygon_uuid":"e2783563-3429-4562-bb22-1d4a637b438d","prev_last_polygon_uuid":"ab823cbc-3d89-4732-a8fb-3d63012fe4f4","local_government_cd":"011088","point_lng":141.460609654,"point_lat":43.065289812}},{"arcs":[[30]],"type":"Polygon","properties":{"polygon_uuid":"ca22e028-e74f-4e6b-82bb-1a45d37da4d4","land_type":200,"issue_year":2025,"edit_year":2020,"history":"[{\"筆ポリゴンID\":\"b75fede9-30c6-45a1-b9e5-b8fa9d9397e7\",\"更新年度\":2024,\"前年同一\":true},[{\"筆ポリゴンID\":\"38e9cf1e-919e-48ee-8b8d-f14d0a45173c\",\"更新年度\":2023,\"前年同一\":true},[{\"筆ポリゴンID\":\"ed3fe49d-b483-4b90-a03e-6f50afc1bd1e\",\"更新年度\":2022,\"前年同一\":true},[{\"筆ポリゴンID\":\"201cc847-36b1-4cea-af89-dad825df0914\",\"更新年度\":2021,\"前年同一\":true},{\"筆ポリゴンID\":\"201cc847-36b1-4cea-af89-dad825df0914\",\"発生年度\":2020}]]]]","last_polygon_uuid":"b75fede9-30c6-45a1-b9e5-b8fa9d9397e7","prev_last_polygon_uuid":"38e9cf1e-919e-48ee-8b8d-f14d0a45173c","local_government_cd":"011088","point_lng":141.463491656,"point_lat":43.065803684}},{"arcs":[[31]],"type":"Polygon","properties":{"polygon_uuid":"7635823e-2eeb-4a91-9a1f-9f4634fff3b6","land_type":200,"issue_year":2025,"edit_year":2020,"history":"[{\"筆ポリゴンID\":\"45243962-4f83-418f-8624-7921540a2743\",\"更新年度\":2024,\"前年同一\":true},[{\"筆ポリゴンID\":\"0ab2573c-7d99-42eb-b28e-d1d5a5ff5241\",\"更新年度\":2023,\"前年同一\":true},[{\"筆ポリゴンID\":\"0c5d27a8-2836-4578-88bb-99d0000d044a\",\"更新年度\":2022,\"前年同一\":true},[{\"筆ポリゴンID\":\"a4512ecb-858d-413d-8703-0b5807403a3b\",\"更新年度\":2021,\"前年同一\":true},{\"筆ポリゴンID\":\"a4512ecb-858d-413d-8703-0b5807403a3b\",\"発生年度\":2020}]]]]","last_polygon_uuid":"45243962-4f83-418f-8624-7921540a2743","prev_last_polygon_uuid":"0ab2573c-7d99-42eb-b28e-d1d5a5ff5241","local_government_cd":"011088","point_lng":141.497738163,"point_lat":43.042213312}},{"arcs":[[32]],"type":"Polygon","properties":{"polygon_uuid":"54af95dd-4acf-4ea4-95f2-7e39e9397344","land_type":200,"issue_year":2025,"edit_year":2020,"history":"[{\"筆ポリゴンID\":\"880882d5-6bbd-44d9-a7a2-4ba86da42dd7\",\"更新年度\":2024,\"前年同一\":true},[{\"筆ポリゴンID\":\"6694ca3d-d3fb-4724-84e1-7e55d1dff9fd\",\"更新年度\":2023,\"前年同一\":true},[{\"筆ポリゴンID\":\"2b4ed8f2-66e4-4417-818d-6bfa8b53d46e\",\"更新年度\":2022,\"前年同一\":true},[{\"筆ポリゴンID\":\"318c9ec2-93d9-4b5a-a6eb-86f6f4fabd86\",\"更新年度\":2021,\"前年同一\":true},{\"筆ポリゴンID\":\"318c9ec2-93d9-4b5a-a6eb-86f6f4fabd86\",\"発生年度\":2020}]]]]","last_polygon_uuid":"880882d5-6bbd-44d9-a7a2-4ba86da42dd7","prev_last_polygon_uuid":"6694ca3d-d3fb-4724-84e1-7e55d1dff9fd","local_government_cd":"011088","point_lng":141.500726272,"point_lat":43.042138981}},{"arcs":[[33,34]],"type":"Polygon","properties":{"polygon_uuid":"f84e1344-25e6-46ae-a5f3-78ff33636cd3","land_type":200,"issue_year":2025,"edit_year":2024,"history":"[{\"筆ポリゴンID\":\"2f2c6f17-51b1-4878-8647-5cf64751ba67\",\"更新年度\":2024,\"関連\":true},[{\"筆ポリゴンID\":\"4bd8779a-2f35-4341-97c7-e909bd3c8d25\",\"更新年度\":2023,\"前年同一\":true},[{\"筆ポリゴンID\":\"aadefa15-9b36-4754-b85d-285ab65b46a0\",\"更新年度\":2022,\"前年同一\":true},[{\"筆ポリゴンID\":\"b2984947-1679-40cd-be34-f03f0e0f0474\",\"更新年度\":2021,\"前年同一\":true},{\"筆ポリゴンID\":\"b2984947-1679-40cd-be34-f03f0e0f0474\",\"発生年度\":2020}]]]]","last_polygon_uuid":null,"prev_last_polygon_uuid":null,"local_government_cd":"011088","point_lng":141.460416951,"point_lat":43.069256588}},{"arcs":[[35]],"type":"Polygon","properties":{"polygon_uuid":"8f1b0425-14ee-464a-abf0-d6a061a77c5a","land_type":200,"issue_year":2025,"edit_year":2020,"history":"[{\"筆ポリゴンID\":\"9f3a6fa6-1024-4344-b70a-09b7c9b3f45d\",\"更新年度\":2024,\"前年同一\":true},[{\"筆ポリゴンID\":\"e8cebfbd-c23a-4d7c-8d79-a47f53f32b62\",\"更新年度\":2023,\"前年同一\":true},[{\"筆ポリゴンID\":\"e2a55e53-9e49-42c1-b7d5-68021def925a\",\"更新年度\":2022,\"前年同一\":true},[{\"筆ポリゴンID\":\"78eb1b40-cb6c-4a43-a941-e4ba1a7381a6\",\"更新年度\":2021,\"前年同一\":true},{\"筆ポリゴンID\":\"78eb1b40-cb6c-4a43-a941-e4ba1a7381a6\",\"発生年度\":2020}]]]]","last_polygon_uuid":"9f3a6fa6-1024-4344-b70a-09b7c9b3f45d","prev_last_polygon_uuid":"e8cebfbd-c23a-4d7c-8d79-a47f53f32b62","local_government_cd":"011088","point_lng":141.501658533,"point_lat":43.042618056}},{"arcs":[[36]],"type":"Polygon","properties":{"polygon_uuid":"10065b71-5bff-4ffc-925d-995c01c065be","land_type":200,"issue_year":2025,"edit_year":2020,"history":"[{\"筆ポリゴンID\":\"97952681-8c4d-4cc0-907d-746f178f6e3c\",\"更新年度\":2024,\"前年同一\":true},[{\"筆ポリゴンID\":\"87204674-2d05-4687-b83b-8d502f505e22\",\"更新年度\":2023,\"前年同一\":true},[{\"筆ポリゴンID\":\"60f01453-3775-405f-a0ea-b569937bac94\",\"更新年度\":2022,\"前年同一\":true},[{\"筆ポリゴンID\":\"2014aa41-6b69-44a8-8c73-87ccaa63b639\",\"更新年度\":2021,\"前年同一\":true},{\"筆ポリゴンID\":\"2014aa41-6b69-44a8-8c73-87ccaa63b639\",\"発生年度\":2020}]]]]","last_polygon_uuid":"97952681-8c4d-4cc0-907d-746f178f6e3c","prev_last_polygon_uuid":"87204674-2d05-4687-b83b-8d502f505e22","local_government_cd":"011088","point_lng":141.487902562,"point_lat":43.053888253}},{"arcs":[[37,38,39,-9]],"type":"Polygon","properties":{"polygon_uuid":"e9e5422d-3166-45eb-9228-62f0510e5f88","land_type":200,"issue_year":2025,"edit_year":2020,"history":"[{\"筆ポリゴンID\":\"d6e37edc-fdb5-4680-a40b-c8b7a7adb049\",\"更新年度\":2024,\"前年同一\":true},[{\"筆ポリゴンID\":\"69735c44-6d17-4620-865f-2adb856b6400\",\"更新年度\":2023,\"前年同一\":true},[{\"筆ポリゴンID\":\"44d7fddf-3e67-429b-a8da-615e84233d36\",\"更新年度\":2022,\"前年同一\":true},[{\"筆ポリゴンID\":\"20205b70-5daf-4afe-bca8-e15657396c59\",\"更新年度\":2021,\"前年同一\":true},{\"筆ポリゴンID\":\"20205b70-5daf-4afe-bca8-e15657396c59\",\"発生年度\":2020}]]]]","last_polygon_uuid":"d6e37edc-fdb5-4680-a40b-c8b7a7adb049","prev_last_polygon_uuid":"69735c44-6d17-4620-865f-2adb856b6400","local_government_cd":"011088","point_lng":141.460004253,"point_lat":43.069868224}},{"arcs":[[40]],"type":"Polygon","properties":{"polygon_uuid":"a83dec18-168b-4f1d-ac3e-6ff203cfbd0a","land_type":200,"issue_year":2025,"edit_year":2020,"history":"[{\"筆ポリゴンID\":\"95cd3dd6-62ee-42ed-b58b-04bc919b51a0\",\"更新年度\":2024,\"前年同一\":true},[{\"筆ポリゴンID\":\"b9903feb-097a-416c-848c-62f80a16ab3e\",\"更新年度\":2023,\"前年同一\":true},[{\"筆ポリゴンID\":\"4e98fa43-8adb-4c1d-8751-7c0ead8f21a4\",\"更新年度\":2022,\"前年同一\":true},[{\"筆ポリゴンID\":\"4cce8fa8-e805-4ac4-8abe-f8206bac851f\",\"更新年度\":2021,\"前年同一\":true},{\"筆ポリゴンID\":\"4cce8fa8-e805-4ac4-8abe-f8206bac851f\",\"発生年度\":2020}]]]]","last_polygon_uuid":"95cd3dd6-62ee-42ed-b58b-04bc919b51a0","prev_last_polygon_uuid":"b9903feb-097a-416c-848c-62f80a16ab3e","local_government_cd":"011088","point_lng":141.459547218,"point_lat":43.064924746}},{"arcs":[[41]],"type":"Polygon","properties":{"polygon_uuid":"45e40ae8-04c8-43c9-b03a-922ca65867ae","land_type":200,"issue_year":2025,"edit_year":2020,"history":"[{\"筆ポリゴンID\":\"f7cc7f2f-25c3-4ef1-b0fa-51131cd90070\",\"更新年度\":2024,\"前年同一\":true},[{\"筆ポリゴンID\":\"b2bffeeb-a48d-429e-9b2a-97723c40bb9a\",\"更新年度\":2023,\"前年同一\":true},[{\"筆ポリゴンID\":\"6d712d18-2cf8-40c4-aa71-464bd9718abd\",\"更新年度\":2022,\"前年同一\":true},[{\"筆ポリゴンID\":\"8589d29a-d795-41a0-8cab-3dc9dfcd6af6\",\"更新年度\":2021,\"前年同一\":true},{\"筆ポリゴンID\":\"8589d29a-d795-41a0-8cab-3dc9dfcd6af6\",\"発生年度\":2020}]]]]","last_polygon_uuid":"f7cc7f2f-25c3-4ef1-b0fa-51131cd90070","prev_last_polygon_uuid":"b2bffeeb-a48d-429e-9b2a-97723c40bb9a","local_government_cd":"011088","point_lng":141.461980575,"point_lat":43.06647464}},{"arcs":[[42]],"type":"Polygon","properties":{"polygon_uuid":"2bf077d6-b07f-4a80-aa33-cb52e09be8ce","land_type":200,"issue_year":2025,"edit_year":2020,"history":"[{\"筆ポリゴンID\":\"163ad3c6-f14f-45da-bb3f-171020280a8d\",\"更新年度\":2024,\"前年同一\":true},[{\"筆ポリゴンID\":\"83b2df4d-5841-4d22-8aa5-c5d5a5a4b397\",\"更新年度\":2023,\"前年同一\":true},[{\"筆ポリゴンID\":\"26eb8df0-d4c5-4de7-abbd-79fe11e262eb\",\"更新年度\":2022,\"前年同一\":true},[{\"筆ポリゴンID\":\"e828fcc8-297c-4169-94b3-5320b7758ee2\",\"更新年度\":2021,\"前年同一\":true},{\"筆ポリゴンID\":\"e828fcc8-297c-4169-94b3-5320b7758ee2\",\"発生年度\":2020}]]]]","last_polygon_uuid":"163ad3c6-f14f-45da-bb3f-171020280a8d","prev_last_polygon_uuid":"83b2df4d-5841-4d22-8aa5-c5d5a5a4b397","local_government_cd":"011088","point_lng":141.460944178,"point_lat":43.068962157}},{"arcs":[[43]],"type":"Polygon","properties":{"polygon_uuid":"b03eab35-1524-4dc4-9e09-7438293aa600","land_type":200,"issue_year":2025,"edit_year":2020,"history":"[{\"筆ポリゴンID\":\"c9a1b5ad-4d81-4f18-9d10-25972ef18764\",\"更新年度\":2024,\"前年同一\":true},[{\"筆ポリゴンID\":\"0e3de850-417d-43d8-9313-2cbf73a72f66\",\"更新年度\":2023,\"前年同一\":true},[{\"筆ポリゴンID\":\"8ea6f844-e7ef-40da-aabd-d76dbeb0b019\",\"更新年度\":2022,\"前年同一\":true},[{\"筆ポリゴンID\":\"cd7c32a3-c473-4975-bdbc-2208d97fc073\",\"更新年度\":2021,\"前年同一\":true},{\"筆ポリゴンID\":\"cd7c32a3-c473-4975-bdbc-2208d97fc073\",\"発生年度\":2020}]]]]","last_polygon_uuid":"c9a1b5ad-4d81-4f18-9d10-25972ef18764","prev_last_polygon_uuid":"0e3de850-417d-43d8-9313-2cbf73a72f66","local_government_cd":"011088","point_lng":141.460918059,"point_lat":43.068760906}},{"arcs":[[44]],"type":"Polygon","properties":{"polygon_uuid":"03304a10-e993-41fd-8382-1ce3dd2b6e9f","land_type":200,"issue_year":2025,"edit_year":2020,"history":"[{\"筆ポリゴンID\":\"06f3defd-bf37-46ec-b049-93d58407ab7f\",\"更新年度\":2024,\"前年同一\":true},[{\"筆ポリゴンID\":\"8e522024-6381-4fcc-8858-48e3b6459d9d\",\"更新年度\":2023,\"前年同一\":true},[{\"筆ポリゴンID\":\"f8936396-0132-4f55-b961-1ea1ec54c78a\",\"更新年度\":2022,\"前年同一\":true},[{\"筆ポリゴンID\":\"19d432e7-99a9-41d9-a267-cd2b1cd55c08\",\"更新年度\":2021,\"前年同一\":true},{\"筆ポリゴンID\":\"19d432e7-99a9-41d9-a267-cd2b1cd55c08\",\"発生年度\":2020}]]]]","last_polygon_uuid":"06f3defd-bf37-46ec-b049-93d58407ab7f","prev_last_polygon_uuid":"8e522024-6381-4fcc-8858-48e3b6459d9d","local_government_cd":"011088","point_lng":141.472290547,"point_lat":43.091826541}},{"arcs":[[45]],"type":"Polygon","properties":{"polygon_uuid":"59887d34-f037-4158-bec9-2d11ef8e50f2","land_type":200,"issue_year":2025,"edit_year":2020,"history":"[{\"筆ポリゴンID\":\"ad3d92b2-f1af-4a81-b5d1-b3c6180f8923\",\"更新年度\":2024,\"前年同一\":true},[{\"筆ポリゴンID\":\"a2d9c674-0481-4ea4-91cd-9cdebf7c18a6\",\"更新年度\":2023,\"前年同一\":true},[{\"筆ポリゴンID\":\"e660a52e-fdef-4f93-b30c-959b148a9576\",\"更新年度\":2022,\"前年同一\":true},[{\"筆ポリゴンID\":\"d5eecbf3-4bbc-44f2-af01-44b816156353\",\"更新年度\":2021,\"前年同一\":true},{\"筆ポリゴンID\":\"d5eecbf3-4bbc-44f2-af01-44b816156353\",\"発生年度\":2020}]]]]","last_polygon_uuid":"ad3d92b2-f1af-4a81-b5d1-b3c6180f8923","prev_last_polygon_uuid":"a2d9c674-0481-4ea4-91cd-9cdebf7c18a6","local_government_cd":"011088","point_lng":141.473013307,"point_lat":43.091613218}},{"arcs":[[46]],"type":"Polygon","properties":{"polygon_uuid":"4d626dd9-39ca-41ac-b649-0304aa987039","land_type":200,"issue_year":2025,"edit_year":2020,"history":"[{\"筆ポリゴンID\":\"9674b9c2-e6b7-419e-8944-31669ca3037e\",\"更新年度\":2024,\"前年同一\":true},[{\"筆ポリゴンID\":\"44a40265-50c9-4a91-8f81-6a3c8c1de750\",\"更新年度\":2023,\"前年同一\":true},[{\"筆ポリゴンID\":\"977940f8-6715-4ce7-b833-67627d3e3273\",\"更新年度\":2022,\"前年同一\":true},[{\"筆ポリゴンID\":\"3c19f5d4-22d8-4732-ba8b-a63b2c1a6b8d\",\"更新年度\":2021,\"前年同一\":true},{\"筆ポリゴンID\":\"3c19f5d4-22d8-4732-ba8b-a63b2c1a6b8d\",\"発生年度\":2020}]]]]","last_polygon_uuid":"9674b9c2-e6b7-419e-8944-31669ca3037e","prev_last_polygon_uuid":"44a40265-50c9-4a91-8f81-6a3c8c1de750","local_government_cd":"011088","point_lng":141.497258997,"point_lat":43.040186542}},{"arcs":[[47]],"type":"Polygon","properties":{"polygon_uuid":"9d70d3f9-0034-4aa1-b4ee-291f0ca6f3d2","land_type":200,"issue_year":2025,"edit_year":2020,"history":"[{\"筆ポリゴンID\":\"ec698552-7bbe-41ce-a4e3-3fc377566c8a\",\"更新年度\":2024,\"前年同一\":true},[{\"筆ポリゴンID\":\"f4d25922-bcc0-427a-ac48-8c3d99545e97\",\"更新年度\":2023,\"前年同一\":true},[{\"筆ポリゴンID\":\"eb9b20f1-a2c1-4f19-ae6f-8f7ae4ab988d\",\"更新年度\":2022,\"前年同一\":true},[{\"筆ポリゴンID\":\"4d5713cb-04ed-421c-94f3-808d908d9858\",\"更新年度\":2021,\"前年同一\":true},{\"筆ポリゴンID\":\"4d5713cb-04ed-421c-94f3-808d908d9858\",\"発生年度\":2020}]]]]","last_polygon_uuid":"ec698552-7bbe-41ce-a4e3-3fc377566c8a","prev_last_polygon_uuid":"f4d25922-bcc0-427a-ac48-8c3d99545e97","local_government_cd":"011088","point_lng":141.493832832,"point_lat":43.046043271}},{"arcs":[[48]],"type":"Polygon","properties":{"polygon_uuid":"437fbb0c-65a2-434b-adf4-441ed63a36b6","land_type":200,"issue_year":2025,"edit_year":2020,"history":"[{\"筆ポリゴンID\":\"a122d4a1-b32d-4ca1-9ba9-bcc273ebb0af\",\"更新年度\":2024,\"前年同一\":true},[{\"筆ポリゴンID\":\"1ec1dff0-017c-4425-b977-a65cf8c39ded\",\"更新年度\":2023,\"前年同一\":true},[{\"筆ポリゴンID\":\"d46d5afd-af2b-436a-895c-24db8dcf6114\",\"更新年度\":2022,\"前年同一\":true},[{\"筆ポリゴンID\":\"b2b3b6db-9785-4b2f-a129-7debb9356166\",\"更新年度\":2021,\"前年同一\":true},{\"筆ポリゴンID\":\"b2b3b6db-9785-4b2f-a129-7debb9356166\",\"発生年度\":2020}]]]]","last_polygon_uuid":"a122d4a1-b32d-4ca1-9ba9-bcc273ebb0af","prev_last_polygon_uuid":"1ec1dff0-017c-4425-b977-a65cf8c39ded","local_government_cd":"011088","point_lng":141.501032449,"point_lat":43.043565914}},{"arcs":[[49]],"type":"Polygon","properties":{"polygon_uuid":"00d14d94-b17b-4a7e-8420-b75cd05063b4","land_type":200,"issue_year":2025,"edit_year":2024,"history":"[{\"筆ポリゴンID\":\"c0400abf-2a8c-4921-b07b-4773df009574\",\"更新年度\":2024,\"関連\":true},[{\"筆ポリゴンID\":\"ce7d846d-ec41-4d5d-89fd-7dfb66d9806a\",\"更新年度\":2023,\"前年同一\":true},[{\"筆ポリゴンID\":\"25618e2e-1133-414b-ae77-95d8e2a4697f\",\"更新年度\":2022,\"前年同一\":true},[{\"筆ポリゴンID\":\"96ed2563-f28e-47c9-80f0-bf958504c311\",\"更新年度\":2021,\"前年同一\":true},{\"筆ポリゴンID\":\"96ed2563-f28e-47c9-80f0-bf958504c311\",\"発生年度\":2020}]]]]","last_polygon_uuid":null,"prev_last_polygon_uuid":null,"local_government_cd":"011088","point_lng":141.495841664,"point_lat":43.043275394}},{"arcs":[[50]],"type":"Polygon","properties":{"polygon_uuid":"89bc7758-40fe-4d3c-a246-e4be85e49604","land_type":200,"issue_year":2025,"edit_year":2020,"history":"[{\"筆ポリゴンID\":\"fef96aa6-b5c5-44f8-96c8-ee39760eb3b7\",\"更新年度\":2024,\"前年同一\":true},[{\"筆ポリゴンID\":\"94da4834-d1cd-42b3-a7bc-3c4383a6c803\",\"更新年度\":2023,\"前年同一\":true},[{\"筆ポリゴンID\":\"15bd1c37-1747-4de6-a0be-52877eabf17f\",\"更新年度\":2022,\"前年同一\":true},[{\"筆ポリゴンID\":\"90aa8660-bdb0-499e-bd51-562e03b36aa8\",\"更新年度\":2021,\"前年同一\":true},{\"筆ポリゴンID\":\"90aa8660-bdb0-499e-bd51-562e03b36aa8\",\"発生年度\":2020}]]]]","last_polygon_uuid":"fef96aa6-b5c5-44f8-96c8-ee39760eb3b7","prev_last_polygon_uuid":"94da4834-d1cd-42b3-a7bc-3c4383a6c803","local_government_cd":"011088","point_lng":141.481948994,"point_lat":43.048677819}},{"arcs":[[51]],"type":"Polygon","properties":{"polygon_uuid":"acbb0ab1-0cb5-4224-9d17-c0d86c0070a3","land_type":200,"issue_year":2025,"edit_year":2020,"history":"[{\"筆ポリゴンID\":\"619ef7ff-daa7-41c3-815f-47c442bae50e\",\"更新年度\":2024,\"前年同一\":true},[{\"筆ポリゴンID\":\"aedcbed7-9458-4306-aeed-652907593b06\",\"更新年度\":2023,\"前年同一\":true},[{\"筆ポリゴンID\":\"3e12f790-f4c6-42cb-99df-364459fbea91\",\"更新年度\":2022,\"前年同一\":true},[{\"筆ポリゴンID\":\"cdc1f17a-3bc8-4aa5-af1b-25bc1bf865e8\",\"更新年度\":2021,\"前年同一\":true},{\"筆ポリゴンID\":\"cdc1f17a-3bc8-4aa5-af1b-25bc1bf865e8\",\"発生年度\":2020}]]]]","last_polygon_uuid":"619ef7ff-daa7-41c3-815f-47c442bae50e","prev_last_polygon_uuid":"aedcbed7-9458-4306-aeed-652907593b06","local_government_cd":"011088","point_lng":141.499121446,"point_lat":43.042945908}},{"arcs":[[52]],"type":"Polygon","properties":{"polygon_uuid":"64596326-42b3-47c8-9ae7-cc9f5456717d","land_type":200,"issue_year":2025,"edit_year":2020,"history":"[{\"筆ポリゴンID\":\"bd547612-73b2-426f-9c9c-95a782991751\",\"更新年度\":2024,\"前年同一\":true},[{\"筆ポリゴンID\":\"a0147438-df6c-4e25-a9bc-46ffd47dfa50\",\"更新年度\":2023,\"前年同一\":true},[{\"筆ポリゴンID\":\"f4e7ec1c-b441-4912-b36b-908398c7ee42\",\"更新年度\":2022,\"前年同一\":true},[{\"筆ポリゴンID\":\"1f0d536a-a1b7-4093-8920-00ed2987b664\",\"更新年度\":2021,\"前年同一\":true},{\"筆ポリゴンID\":\"1f0d536a-a1b7-4093-8920-00ed2987b664\",\"発生年度\":2020}]]]]","last_polygon_uuid":"bd547612-73b2-426f-9c9c-95a782991751","prev_last_polygon_uuid":"a0147438-df6c-4e25-a9bc-46ffd47dfa50","local_government_cd":"011088","point_lng":141.459868722,"point_lat":43.072820709}},{"arcs":[[53]],"type":"Polygon","properties":{"polygon_uuid":"3ed8f8ce-8bfd-464b-be9a-9a944bc6c1a1","land_type":200,"issue_year":2025,"edit_year":2020,"history":"[{\"筆ポリゴンID\":\"11774b60-5746-4301-ae31-d59be0560c96\",\"更新年度\":2024,\"前年同一\":true},[{\"筆ポリゴンID\":\"667c4417-71d9-47df-b3b5-ceebac1ee02c\",\"更新年度\":2023,\"前年同一\":true},[{\"筆ポリゴンID\":\"1a4cc2bf-01cb-4cac-9c96-4acac8457636\",\"更新年度\":2022,\"前年同一\":true},[{\"筆ポリゴンID\":\"1d6c182c-ab8d-4ed4-8dda-1d92308decfb\",\"更新年度\":2021,\"前年同一\":true},{\"筆ポリゴンID\":\"1d6c182c-ab8d-4ed4-8dda-1d92308decfb\",\"発生年度\":2020}]]]]","last_polygon_uuid":"11774b60-5746-4301-ae31-d59be0560c96","prev_last_polygon_uuid":"667c4417-71d9-47df-b3b5-ceebac1ee02c","local_government_cd":"011088","point_lng":141.461106576,"point_lat":43.072483515}},{"arcs":[[54]],"type":"Polygon","properties":{"polygon_uuid":"b7d6473c-ece0-4605-a64c-a7edbe1b313d","land_type":200,"issue_year":2025,"edit_year":2020,"history":"[{\"筆ポリゴンID\":\"307f5ba8-34c3-46b1-957c-32b960ee7486\",\"更新年度\":2024,\"前年同一\":true},[{\"筆ポリゴンID\":\"366af8d3-75c5-464b-9302-c06cc0d82393\",\"更新年度\":2023,\"前年同一\":true},[{\"筆ポリゴンID\":\"1688c91c-9a82-4141-aba2-505501bee68f\",\"更新年度\":2022,\"前年同一\":true},[{\"筆ポリゴンID\":\"5483f10a-f695-4ace-8f71-97ed76c0690e\",\"更新年度\":2021,\"前年同一\":true},{\"筆ポリゴンID\":\"5483f10a-f695-4ace-8f71-97ed76c0690e\",\"発生年度\":2020}]]]]","last_polygon_uuid":"307f5ba8-34c3-46b1-957c-32b960ee7486","prev_last_polygon_uuid":"366af8d3-75c5-464b-9302-c06cc0d82393","local_government_cd":"011088","point_lng":141.50092793,"point_lat":43.042788137}},{"arcs":[[55]],"type":"Polygon","properties":{"polygon_uuid":"4362715d-1881-45dd-8498-3ce4f94c02b6","land_type":200,"issue_year":2025,"edit_year":2020,"history":"[{\"筆ポリゴンID\":\"050e7cc7-7649-4c06-b521-4c9979e048f7\",\"更新年度\":2024,\"前年同一\":true},[{\"筆ポリゴンID\":\"81376a3c-1c40-4124-afc9-7b8aa0f16162\",\"更新年度\":2023,\"前年同一\":true},[{\"筆ポリゴンID\":\"c032e4b6-5012-4c7d-93ee-92d9142f8e72\",\"更新年度\":2022,\"前年同一\":true},[{\"筆ポリゴンID\":\"5e729b40-701b-49e8-be47-4fbf91161fdb\",\"更新年度\":2021,\"前年同一\":true},{\"筆ポリゴンID\":\"5e729b40-701b-49e8-be47-4fbf91161fdb\",\"発生年度\":2020}]]]]","last_polygon_uuid":"050e7cc7-7649-4c06-b521-4c9979e048f7","prev_last_polygon_uuid":"81376a3c-1c40-4124-afc9-7b8aa0f16162","local_government_cd":"011088","point_lng":141.500533434,"point_lat":43.042749547}},{"arcs":[[56]],"type":"Polygon","properties":{"polygon_uuid":"a969967b-7379-4072-ba88-2bfd71f3d1e1","land_type":200,"issue_year":2025,"edit_year":2020,"history":"[{\"筆ポリゴンID\":\"c712e281-fe9f-4973-a80a-93c3ca86a66b\",\"更新年度\":2024,\"前年同一\":true},[{\"筆ポリゴンID\":\"0b1009e6-56a7-4c1e-b6fe-275398afc64b\",\"更新年度\":2023,\"前年同一\":true},[{\"筆ポリゴンID\":\"722c7559-0e66-463a-969b-820a96e7cf1c\",\"更新年度\":2022,\"前年同一\":true},[{\"筆ポリゴンID\":\"0720b785-83a7-4779-aecd-18f4f3b80f2d\",\"更新年度\":2021,\"前年同一\":true},{\"筆ポリゴンID\":\"0720b785-83a7-4779-aecd-18f4f3b80f2d\",\"発生年度\":2020}]]]]","last_polygon_uuid":"c712e281-fe9f-4973-a80a-93c3ca86a66b","prev_last_polygon_uuid":"0b1009e6-56a7-4c1e-b6fe-275398afc64b","local_government_cd":"011088","point_lng":141.4975939,"point_lat":43.042512135}},{"arcs":[[57]],"type":"Polygon","properties":{"polygon_uuid":"90353869-2434-4cfe-a44f-527d93c56eb5","land_type":200,"issue_year":2025,"edit_year":2020,"history":"[{\"筆ポリゴンID\":\"f2af5834-23a6-44e9-9f8e-73f5e096c8ac\",\"更新年度\":2024,\"前年同一\":true},[{\"筆ポリゴンID\":\"b503b7a3-5b78-401c-9d3c-ef2fb98a0e2c\",\"更新年度\":2023,\"前年同一\":true},[{\"筆ポリゴンID\":\"19697b22-0288-4084-a8b3-e7c1d2d3b6ad\",\"更新年度\":2022,\"前年同一\":true},[{\"筆ポリゴンID\":\"86fc254f-3f11-47f8-b393-f256834e4170\",\"更新年度\":2021,\"前年同一\":true},{\"筆ポリゴンID\":\"86fc254f-3f11-47f8-b393-f256834e4170\",\"発生年度\":2020}]]]]","last_polygon_uuid":"f2af5834-23a6-44e9-9f8e-73f5e096c8ac","prev_last_polygon_uuid":"b503b7a3-5b78-401c-9d3c-ef2fb98a0e2c","local_government_cd":"011088","point_lng":141.497890712,"point_lat":43.04248943}},{"arcs":[[58]],"type":"Polygon","properties":{"polygon_uuid":"438502af-fb6e-465f-b6bf-adb25f7b19d1","land_type":200,"issue_year":2025,"edit_year":2020,"history":"[{\"筆ポリゴンID\":\"ee7be532-2f6c-4f81-bb7e-e0a3a81303a8\",\"更新年度\":2024,\"前年同一\":true},[{\"筆ポリゴンID\":\"e5ad2d39-fe8b-443c-bbb2-c74d516d59db\",\"更新年度\":2023,\"前年同一\":true},[{\"筆ポリゴンID\":\"3dd12758-0f33-4052-8534-aa6e3da75380\",\"更新年度\":2022,\"前年同一\":true},[{\"筆ポリゴンID\":\"b04394dc-9b77-4502-a2d1-3d1685b245df\",\"更新年度\":2021,\"前年同一\":true},{\"筆ポリゴンID\":\"b04394dc-9b77-4502-a2d1-3d1685b245df\",\"発生年度\":2020}]]]]","last_polygon_uuid":"ee7be532-2f6c-4f81-bb7e-e0a3a81303a8","prev_last_polygon_uuid":"e5ad2d39-fe8b-443c-bbb2-c74d516d59db","local_government_cd":"011088","point_lng":141.461325365,"point_lat":43.056925028}},{"arcs":[[-34,59,-39,60]],"type":"Polygon","properties":{"polygon_uuid":"d878b72c-15c4-4aa5-bfcf-a3756a4b6fda","land_type":200,"issue_year":2025,"edit_year":2024,"history":"[{\"筆ポリゴンID\":\"bc0677cf-56df-44a6-8858-4d513b228538\",\"更新年度\":2024,\"関連\":true},[{\"筆ポリゴンID\":\"824e422f-d9cf-46ae-a8f8-6d8468c5674e\",\"更新年度\":2023,\"前年同一\":true},[{\"筆ポリゴンID\":\"99a6f04f-733a-40ef-aa18-e6d6b49d7d0d\",\"更新年度\":2022,\"前年同一\":true},[{\"筆ポリゴンID\":\"040f926e-ae8b-488d-98f9-5f0c243dbb63\",\"更新年度\":2021,\"前年同一\":true},{\"筆ポリゴンID\":\"040f926e-ae8b-488d-98f9-5f0c243dbb63\",\"発生年度\":2020}]]]]","last_polygon_uuid":null,"prev_last_polygon_uuid":null,"local_government_cd":"011088","point_lng":141.460218071,"point_lat":43.069538863}},{"arcs":[[61]],"type":"Polygon","properties":{"polygon_uuid":"8306037e-d0c6-432f-915a-680533aad363","land_type":200,"issue_year":2025,"edit_year":2020,"history":"[{\"筆ポリゴンID\":\"d664b7c3-6564-462f-a43d-cdb40db1a400\",\"更新年度\":2024,\"前年同一\":true},[{\"筆ポリゴンID\":\"68bb0843-6564-4244-b566-1622da370f0d\",\"更新年度\":2023,\"前年同一\":true},[{\"筆ポリゴンID\":\"2b5adc3f-f09a-4350-ae62-5e5a1badabe4\",\"更新年度\":2022,\"前年同一\":true},[{\"筆ポリゴンID\":\"515b4daf-bc6d-4a8b-88c1-91419da53fce\",\"更新年度\":2021,\"前年同一\":true},{\"筆ポリゴンID\":\"515b4daf-bc6d-4a8b-88c1-91419da53fce\",\"発生年度\":2020}]]]]","last_polygon_uuid":"d664b7c3-6564-462f-a43d-cdb40db1a400","prev_last_polygon_uuid":"68bb0843-6564-4244-b566-1622da370f0d","local_government_cd":"011088","point_lng":141.452585853,"point_lat":43.055564466}},{"arcs":[[62]],"type":"Polygon","properties":{"polygon_uuid":"a45aa555-bbc2-4798-a3b9-cf703fbed53b","land_type":200,"issue_year":2025,"edit_year":2020,"history":"[{\"筆ポリゴンID\":\"88c48294-090a-47cf-8ff3-323ff48d6a76\",\"更新年度\":2024,\"前年同一\":true},[{\"筆ポリゴンID\":\"88a270e2-6cb2-41b5-8c37-6368f88385c9\",\"更新年度\":2023,\"前年同一\":true},[{\"筆ポリゴンID\":\"f500ff63-3031-47f2-898a-4f9f847b9c5c\",\"更新年度\":2022,\"前年同一\":true},[{\"筆ポリゴンID\":\"7801ff2f-e223-4c12-8863-afe86dafbc52\",\"更新年度\":2021,\"前年同一\":true},{\"筆ポリゴンID\":\"7801ff2f-e223-4c12-8863-afe86dafbc52\",\"発生年度\":2020}]]]]","last_polygon_uuid":"88c48294-090a-47cf-8ff3-323ff48d6a76","prev_last_polygon_uuid":"88a270e2-6cb2-41b5-8c37-6368f88385c9","local_government_cd":"011088","point_lng":141.452963209,"point_lat":43.054460298}},{"arcs":[[63]],"type":"Polygon","properties":{"polygon_uuid":"cc8810ff-2e9f-4ea8-97ac-eacf03b3548d","land_type":200,"issue_year":2025,"edit_year":2020,"history":"[{\"筆ポリゴンID\":\"db172c66-e3d1-4247-9f12-912921dbdfc9\",\"更新年度\":2024,\"前年同一\":true},[{\"筆ポリゴンID\":\"a807b34e-d690-419e-9a3e-63c06bf98e38\",\"更新年度\":2023,\"前年同一\":true},[{\"筆ポリゴンID\":\"2364eca5-755c-4401-a4e9-6cc9b009a9b3\",\"更新年度\":2022,\"前年同一\":true},[{\"筆ポリゴンID\":\"db83951c-e975-400b-b290-56271a59b1c7\",\"更新年度\":2021,\"前年同一\":true},{\"筆ポリゴンID\":\"db83951c-e975-400b-b290-56271a59b1c7\",\"発生年度\":2020}]]]]","last_polygon_uuid":"db172c66-e3d1-4247-9f12-912921dbdfc9","prev_last_polygon_uuid":"a807b34e-d690-419e-9a3e-63c06bf98e38","local_government_cd":"011088","point_lng":141.502040577,"point_lat":43.044786928}},{"arcs":[[64]],"type":"Polygon","properties":{"polygon_uuid":"82053b93-19b9-4d9d-bb39-4cf3e1d169df","land_type":200,"issue_year":2025,"edit_year":2020,"history":"[{\"筆ポリゴンID\":\"92e1d350-a6aa-49f7-b71c-27473870e229\",\"更新年度\":2024,\"前年同一\":true},[{\"筆ポリゴンID\":\"35f1c8c4-365c-41c6-96fe-c2ba9334d80b\",\"更新年度\":2023,\"前年同一\":true},[{\"筆ポリゴンID\":\"e6b0c303-5926-4290-852c-dabe9932e9f7\",\"更新年度\":2022,\"前年同一\":true},[{\"筆ポリゴンID\":\"96e83964-5d93-4e99-bd98-319b2d2fdde7\",\"更新年度\":2021,\"前年同一\":true},{\"筆ポリゴンID\":\"96e83964-5d93-4e99-bd98-319b2d2fdde7\",\"発生年度\":2020}]]]]","last_polygon_uuid":"92e1d350-a6aa-49f7-b71c-27473870e229","prev_last_polygon_uuid":"35f1c8c4-365c-41c6-96fe-c2ba9334d80b","local_government_cd":"011088","point_lng":141.459748802,"point_lat":43.061424013}},{"arcs":[[65]],"type":"Polygon","properties":{"polygon_uuid":"4f7efad6-4fed-40f8-96cb-15ac20e839c6","land_type":200,"issue_year":2025,"edit_year":2024,"history":"[{\"筆ポリゴンID\":\"4f45a955-9a71-4a88-a676-9e3b4e1f982a\",\"更新年度\":2024,\"関連\":true},[{\"筆ポリゴンID\":\"dd3fdcad-0202-4332-88ef-88a9214773b0\",\"更新年度\":2023,\"前年同一\":true},[{\"筆ポリゴンID\":\"469fae29-4d91-4f04-ac14-88109a8c8c1f\",\"更新年度\":2022,\"前年同一\":true},[{\"筆ポリゴンID\":\"cbafe1c8-51fc-44d8-8985-d91ecbd83e5b\",\"更新年度\":2021,\"前年同一\":true},{\"筆ポリゴンID\":\"cbafe1c8-51fc-44d8-8985-d91ecbd83e5b\",\"発生年度\":2020}]]]]","last_polygon_uuid":null,"prev_last_polygon_uuid":null,"local_government_cd":"011088","point_lng":141.480779055,"point_lat":43.049221712}},{"arcs":[[66]],"type":"Polygon","properties":{"polygon_uuid":"6cba9722-835c-46ee-b0db-17a1b48b2dce","land_type":200,"issue_year":2025,"edit_year":2020,"history":"[{\"筆ポリゴンID\":\"db875a5c-01b3-4886-86c7-1fe6e2eb85a9\",\"更新年度\":2024,\"前年同一\":true},[{\"筆ポリゴンID\":\"82e1935e-1e84-4ecc-8ed4-307d639d0b2e\",\"更新年度\":2023,\"前年同一\":true},[{\"筆ポリゴンID\":\"0698a0e9-5f67-4326-b1e6-4ae64f76a0d9\",\"更新年度\":2022,\"前年同一\":true},[{\"筆ポリゴンID\":\"7b4173b2-d721-42a7-a606-3e26cd15b453\",\"更新年度\":2021,\"前年同一\":true},{\"筆ポリゴンID\":\"7b4173b2-d721-42a7-a606-3e26cd15b453\",\"発生年度\":2020}]]]]","last_polygon_uuid":"db875a5c-01b3-4886-86c7-1fe6e2eb85a9","prev_last_polygon_uuid":"82e1935e-1e84-4ecc-8ed4-307d639d0b2e","local_government_cd":"011088","point_lng":141.461979996,"point_lat":43.066869675}},{"arcs":[[67]],"type":"Polygon","properties":{"polygon_uuid":"3064bdc3-37c1-4cdd-8a4b-d2777d1443d9","land_type":200,"issue_year":2025,"edit_year":2020,"history":"[{\"筆ポリゴンID\":\"7b7a55ef-3544-4f19-b71a-2e4357d56014\",\"更新年度\":2024,\"前年同一\":true},[{\"筆ポリゴンID\":\"b3dd6f78-e882-467b-a689-91099a833964\",\"更新年度\":2023,\"前年同一\":true},[{\"筆ポリゴンID\":\"437f39b7-1d17-48ff-9930-6d59e7f23eeb\",\"更新年度\":2022,\"前年同一\":true},[{\"筆ポリゴンID\":\"1d1635fa-3431-48ed-8267-eff975009fcb\",\"更新年度\":2021,\"前年同一\":true},{\"筆ポリゴンID\":\"1d1635fa-3431-48ed-8267-eff975009fcb\",\"発生年度\":2020}]]]]","last_polygon_uuid":"7b7a55ef-3544-4f19-b71a-2e4357d56014","prev_last_polygon_uuid":"b3dd6f78-e882-467b-a689-91099a833964","local_government_cd":"011088","point_lng":141.459281686,"point_lat":43.059795609}},{"arcs":[[68]],"type":"Polygon","properties":{"polygon_uuid":"246d84e5-6ca0-4f5c-903c-dfa8aceb5e05","land_type":200,"issue_year":2025,"edit_year":2020,"history":"[{\"筆ポリゴンID\":\"11f51ebb-0c2d-43f5-8f7b-cf43481ec10b\",\"更新年度\":2024,\"前年同一\":true},[{\"筆ポリゴンID\":\"ff122d94-e041-4e7c-9e21-1f6cf9d4d801\",\"更新年度\":2023,\"前年同一\":true},[{\"筆ポリゴンID\":\"b5b697cc-ba18-4f14-8a6e-4a4acd75afdc\",\"更新年度\":2022,\"前年同一\":true},[{\"筆ポリゴンID\":\"50261829-69c9-47e0-a703-2ef96861f45d\",\"更新年度\":2021,\"前年同一\":true},{\"筆ポリゴンID\":\"50261829-69c9-47e0-a703-2ef96861f45d\",\"発生年度\":2020}]]]]","last_polygon_uuid":"11f51ebb-0c2d-43f5-8f7b-cf43481ec10b","prev_last_polygon_uuid":"ff122d94-e041-4e7c-9e21-1f6cf9d4d801","local_government_cd":"011088","point_lng":141.459194936,"point_lat":43.06017372}},{"arcs":[[69]],"type":"Polygon","properties":{"polygon_uuid":"853022b6-9ad6-4a36-9183-0f141d046c5a","land_type":200,"issue_year":2025,"edit_year":2024,"history":"[{\"筆ポリゴンID\":\"54efee52-3314-47c3-b9d5-b751c24ec6d0\",\"更新年度\":2024,\"関連\":true},[{\"筆ポリゴンID\":\"5a509250-4786-4956-a0dd-a7bd68761b23\",\"更新年度\":2023,\"前年同一\":true},[{\"筆ポリゴンID\":\"55fd9a30-d683-4914-9b43-41b588cf8c90\",\"更新年度\":2022,\"前年同一\":true},[{\"筆ポリゴンID\":\"1ecd1d90-bd97-4d55-bfa3-e59b56403ae5\",\"更新年度\":2021,\"前年同一\":true},{\"筆ポリゴンID\":\"1ecd1d90-bd97-4d55-bfa3-e59b56403ae5\",\"発生年度\":2020}]]]]","last_polygon_uuid":null,"prev_last_polygon_uuid":null,"local_government_cd":"011088","point_lng":141.493551321,"point_lat":43.044080374}},{"arcs":[[70]],"type":"Polygon","properties":{"polygon_uuid":"e4fff7ae-6307-4ede-9a56-94ef4bbd4330","land_type":200,"issue_year":2025,"edit_year":2020,"history":"[{\"筆ポリゴンID\":\"75e48976-7827-494d-b6d4-6b0b0549fde8\",\"更新年度\":2024,\"前年同一\":true},[{\"筆ポリゴンID\":\"343a7dc7-d87e-4703-adb9-c0d30862027f\",\"更新年度\":2023,\"前年同一\":true},[{\"筆ポリゴンID\":\"3e83b4fd-73c4-458f-b477-d6ee6abc957e\",\"更新年度\":2022,\"前年同一\":true},[{\"筆ポリゴンID\":\"345d593c-f84c-43d7-ba08-9bb43f0d2502\",\"更新年度\":2021,\"前年同一\":true},{\"筆ポリゴンID\":\"345d593c-f84c-43d7-ba08-9bb43f0d2502\",\"発生年度\":2020}]]]]","last_polygon_uuid":"75e48976-7827-494d-b6d4-6b0b0549fde8","prev_last_polygon_uuid":"343a7dc7-d87e-4703-adb9-c0d30862027f","local_government_cd":"011088","point_lng":141.477643523,"point_lat":43.04917994}},{"arcs":[[71]],"type":"Polygon","properties":{"polygon_uuid":"1fcb77d6-e5b7-4dc5-aa61-608d2b9abd17","land_type":200,"issue_year":2025,"edit_year":2020,"history":"[{\"筆ポリゴンID\":\"7348bfac-63cf-44aa-b968-730b4163dfae\",\"更新年度\":2024,\"前年同一\":true},[{\"筆ポリゴンID\":\"94d3e679-60b8-4ca7-a917-dd897a672b20\",\"更新年度\":2023,\"前年同一\":true},[{\"筆ポリゴンID\":\"efedab6b-1d72-47f5-8920-905ba2d1d754\",\"更新年度\":2022,\"前年同一\":true},[{\"筆ポリゴンID\":\"494642b1-8084-46f8-aa2e-e2458b1aa0c5\",\"更新年度\":2021,\"前年同一\":true},{\"筆ポリゴンID\":\"494642b1-8084-46f8-aa2e-e2458b1aa0c5\",\"発生年度\":2020}]]]]","last_polygon_uuid":"7348bfac-63cf-44aa-b968-730b4163dfae","prev_last_polygon_uuid":"94d3e679-60b8-4ca7-a917-dd897a672b20","local_government_cd":"011088","point_lng":141.499454626,"point_lat":43.039617641}},{"arcs":[[72]],"type":"Polygon","properties":{"polygon_uuid":"ee61d1dd-bd01-4e5f-83f9-475ff47ee77d","land_type":200,"issue_year":2025,"edit_year":2024,"history":"[{\"筆ポリゴンID\":\"398093b7-30b2-4860-9955-95e69397d9fe\",\"更新年度\":2024,\"関連\":true},[{\"筆ポリゴンID\":\"463a88ed-0fc4-40be-bea1-bfddcbbcdf9f\",\"更新年度\":2023,\"前年同一\":true},[{\"筆ポリゴンID\":\"472cca53-8c9f-4340-a941-fcc1a23576f1\",\"更新年度\":2022,\"前年同一\":true},[{\"筆ポリゴンID\":\"046c8ecb-dd09-40ce-a4ac-0e84c785e0aa\",\"更新年度\":2021,\"前年同一\":true},{\"筆ポリゴンID\":\"046c8ecb-dd09-40ce-a4ac-0e84c785e0aa\",\"発生年度\":2020}]]]]","last_polygon_uuid":null,"prev_last_polygon_uuid":null,"local_government_cd":"011088","point_lng":141.478995825,"point_lat":43.048523647}},{"arcs":[[73]],"type":"Polygon","properties":{"polygon_uuid":"15c4fef9-d81f-4b83-aebe-dddb6232b95b","land_type":200,"issue_year":2025,"edit_year":2020,"history":"[{\"筆ポリゴンID\":\"bd01c293-33da-48a3-9737-b6f1eed76567\",\"更新年度\":2024,\"前年同一\":true},[{\"筆ポリゴンID\":\"632eb8cf-f2ae-4959-aa25-2b6505c267dc\",\"更新年度\":2023,\"前年同一\":true},[{\"筆ポリゴンID\":\"a3da415b-8222-4bcc-8a4f-38c7259598dd\",\"更新年度\":2022,\"前年同一\":true},[{\"筆ポリゴンID\":\"5d34164f-4412-468c-a627-ab3f7f3ab0dc\",\"更新年度\":2021,\"前年同一\":true},{\"筆ポリゴンID\":\"5d34164f-4412-468c-a627-ab3f7f3ab0dc\",\"発生年度\":2020}]]]]","last_polygon_uuid":"bd01c293-33da-48a3-9737-b6f1eed76567","prev_last_polygon_uuid":"632eb8cf-f2ae-4959-aa25-2b6505c267dc","local_government_cd":"011088","point_lng":141.497904963,"point_lat":43.041812571}},{"arcs":[[74]],"type":"Polygon","properties":{"polygon_uuid":"290db8d0-e7d9-48ab-8063-7c51f293a88b","land_type":200,"issue_year":2025,"edit_year":2020,"history":"[{\"筆ポリゴンID\":\"e57676d8-dafa-4078-88bb-ace3f2a5d696\",\"更新年度\":2024,\"前年同一\":true},[{\"筆ポリゴンID\":\"a505cbd9-6dfc-4d11-81b2-d547bbf54477\",\"更新年度\":2023,\"前年同一\":true},[{\"筆ポリゴンID\":\"6d3c0787-e303-422c-8d5a-4fc05ec3dead\",\"更新年度\":2022,\"前年同一\":true},[{\"筆ポリゴンID\":\"10f0f04b-7b5d-453c-8ffe-f9e80d4cb5ea\",\"更新年度\":2021,\"前年同一\":true},{\"筆ポリゴンID\":\"10f0f04b-7b5d-453c-8ffe-f9e80d4cb5ea\",\"発生年度\":2020}]]]]","last_polygon_uuid":"e57676d8-dafa-4078-88bb-ace3f2a5d696","prev_last_polygon_uuid":"a505cbd9-6dfc-4d11-81b2-d547bbf54477","local_government_cd":"011088","point_lng":141.462051489,"point_lat":43.067342668}},{"arcs":[[75]],"type":"Polygon","properties":{"polygon_uuid":"e5b1f858-60b4-48a2-ab9e-5e936d57f572","land_type":200,"issue_year":2025,"edit_year":2020,"history":"[{\"筆ポリゴンID\":\"5f155c2a-79d9-48df-a656-ed3e3cd1e990\",\"更新年度\":2024,\"前年同一\":true},[{\"筆ポリゴンID\":\"61588538-dfa8-486b-b7fb-10e9bc0d68db\",\"更新年度\":2023,\"前年同一\":true},[{\"筆ポリゴンID\":\"c6dc58f3-9532-4e9c-b000-8a2197a6132b\",\"更新年度\":2022,\"前年同一\":true},[{\"筆ポリゴンID\":\"7031399c-de6d-401c-9d49-b7f2f973cc70\",\"更新年度\":2021,\"前年同一\":true},{\"筆ポリゴンID\":\"7031399c-de6d-401c-9d49-b7f2f973cc70\",\"発生年度\":2020}]]]]","last_polygon_uuid":"5f155c2a-79d9-48df-a656-ed3e3cd1e990","prev_last_polygon_uuid":"61588538-dfa8-486b-b7fb-10e9bc0d68db","local_government_cd":"011088","point_lng":141.49850907,"point_lat":43.041411649}},{"arcs":[[76]],"type":"Polygon","properties":{"polygon_uuid":"25cf7e51-8f30-4254-a6ac-53bd7ec5ce32","land_type":200,"issue_year":2025,"edit_year":2020,"history":"[{\"筆ポリゴンID\":\"e55c479e-888e-4f38-861d-3013f5697a7d\",\"更新年度\":2024,\"前年同一\":true},[{\"筆ポリゴンID\":\"69984eb1-4215-4a90-a201-dcba0e74aeee\",\"更新年度\":2023,\"前年同一\":true},[{\"筆ポリゴンID\":\"bf9afb76-2bc4-42a2-858c-7db45ca0f232\",\"更新年度\":2022,\"前年同一\":true},[{\"筆ポリゴンID\":\"88d77fa4-50db-4a34-a4cc-0a967890af47\",\"更新年度\":2021,\"前年同一\":true},{\"筆ポリゴンID\":\"88d77fa4-50db-4a34-a4cc-0a967890af47\",\"発生年度\":2020}]]]]","last_polygon_uuid":"e55c479e-888e-4f38-861d-3013f5697a7d","prev_last_polygon_uuid":"69984eb1-4215-4a90-a201-dcba0e74aeee","local_government_cd":"011088","point_lng":141.461649591,"point_lat":43.060945867}},{"arcs":[[77]],"type":"Polygon","properties":{"polygon_uuid":"f2972ce4-4550-49e0-80e4-63ff0f768915","land_type":200,"issue_year":2025,"edit_year":2020,"history":"[{\"筆ポリゴンID\":\"7f3fe563-c79d-44ae-98cb-b06e0ce9b635\",\"更新年度\":2024,\"前年同一\":true},[{\"筆ポリゴンID\":\"5bc407e6-3154-4bfa-abfb-bf3044d2937b\",\"更新年度\":2023,\"前年同一\":true},[{\"筆ポリゴンID\":\"a0c303b0-d837-4e7d-b513-ae2473a76ede\",\"更新年度\":2022,\"前年同一\":true},[{\"筆ポリゴンID\":\"96bd6f53-f688-4fa5-aae0-2237607d8aed\",\"更新年度\":2021,\"前年同一\":true},{\"筆ポリゴンID\":\"96bd6f53-f688-4fa5-aae0-2237607d8aed\",\"発生年度\":2020}]]]]","last_polygon_uuid":"7f3fe563-c79d-44ae-98cb-b06e0ce9b635","prev_last_polygon_uuid":"5bc407e6-3154-4bfa-abfb-bf3044d2937b","local_government_cd":"011088","point_lng":141.459998281,"point_lat":43.064243295}},{"arcs":[[78]],"type":"Polygon","properties":{"polygon_uuid":"d7a0d8bc-914b-4772-b3d1-828b200085fd","land_type":200,"issue_year":2025,"edit_year":2020,"history":"[{\"筆ポリゴンID\":\"375f1234-0dba-47f2-8911-252cc37632e6\",\"更新年度\":2024,\"前年同一\":true},[{\"筆ポリゴンID\":\"9176195a-5266-4a14-a3ae-22d6bf846579\",\"更新年度\":2023,\"前年同一\":true},[{\"筆ポリゴンID\":\"63798b69-7d92-4e60-ad87-40cf6257ba01\",\"更新年度\":2022,\"前年同一\":true},[{\"筆ポリゴンID\":\"9fd574e2-f0d6-4566-bc17-79904f7825c0\",\"更新年度\":2021,\"前年同一\":true},{\"筆ポリゴンID\":\"9fd574e2-f0d6-4566-bc17-79904f7825c0\",\"発生年度\":2020}]]]]","last_polygon_uuid":"375f1234-0dba-47f2-8911-252cc37632e6","prev_last_polygon_uuid":"9176195a-5266-4a14-a3ae-22d6bf846579","local_government_cd":"011088","point_lng":141.459527916,"point_lat":43.064363896}},{"arcs":[[79]],"type":"Polygon","properties":{"polygon_uuid":"fce750ab-858d-45a0-b869-a9278bc85818","land_type":200,"issue_year":2025,"edit_year":2020,"history":"[{\"筆ポリゴンID\":\"d3588711-38dd-4e02-a5d1-8948f96cd0f3\",\"更新年度\":2024,\"前年同一\":true},[{\"筆ポリゴンID\":\"59970961-a842-4030-82fd-f66b6bb35bcb\",\"更新年度\":2023,\"前年同一\":true},[{\"筆ポリゴンID\":\"d0109d99-4b0b-46ae-b3f3-cbe390f45b12\",\"更新年度\":2022,\"前年同一\":true},[{\"筆ポリゴンID\":\"ef81dd33-6c8d-4fd5-95c4-f2f1afc1fa1f\",\"更新年度\":2021,\"前年同一\":true},{\"筆ポリゴンID\":\"ef81dd33-6c8d-4fd5-95c4-f2f1afc1fa1f\",\"発生年度\":2020}]]]]","last_polygon_uuid":"d3588711-38dd-4e02-a5d1-8948f96cd0f3","prev_last_polygon_uuid":"59970961-a842-4030-82fd-f66b6bb35bcb","local_government_cd":"011088","point_lng":141.459167907,"point_lat":43.061111092}},{"arcs":[[80]],"type":"Polygon","properties":{"polygon_uuid":"46fcd3c6-d835-4ce3-95ff-aaecbff40337","land_type":200,"issue_year":2025,"edit_year":2020,"history":"[{\"筆ポリゴンID\":\"4578d432-9d28-4f46-8ac6-ede9d9b18ad4\",\"更新年度\":2024,\"前年同一\":true},[{\"筆ポリゴンID\":\"f9465f65-61a6-4cc4-b175-9d5af8298348\",\"更新年度\":2023,\"前年同一\":true},[{\"筆ポリゴンID\":\"c82dc02a-1d39-46bc-a343-6934e2422b2b\",\"更新年度\":2022,\"前年同一\":true},[{\"筆ポリゴンID\":\"c794a2c2-4e18-4f36-9c7c-a6c0d7b0d9e9\",\"更新年度\":2021,\"前年同一\":true},{\"筆ポリゴンID\":\"c794a2c2-4e18-4f36-9c7c-a6c0d7b0d9e9\",\"発生年度\":2020}]]]]","last_polygon_uuid":"4578d432-9d28-4f46-8ac6-ede9d9b18ad4","prev_last_polygon_uuid":"f9465f65-61a6-4cc4-b175-9d5af8298348","local_government_cd":"011088","point_lng":141.480110659,"point_lat":43.052000991}},{"arcs":[[81]],"type":"Polygon","properties":{"polygon_uuid":"ba7db3be-af67-4f6b-9c3c-66458d8aea14","land_type":200,"issue_year":2025,"edit_year":2020,"history":"[{\"筆ポリゴンID\":\"570ef7bf-5746-4ee4-b4c9-f4f31a40dd26\",\"更新年度\":2024,\"前年同一\":true},[{\"筆ポリゴンID\":\"48707c43-3cb7-4295-b555-2557e37b0032\",\"更新年度\":2023,\"前年同一\":true},[{\"筆ポリゴンID\":\"747e37db-5628-47e2-98e3-efd18d3bf7f5\",\"更新年度\":2022,\"前年同一\":true},[{\"筆ポリゴンID\":\"e524008a-4386-4763-8ac3-e9be3525ab0c\",\"更新年度\":2021,\"前年同一\":true},{\"筆ポリゴンID\":\"e524008a-4386-4763-8ac3-e9be3525ab0c\",\"発生年度\":2020}]]]]","last_polygon_uuid":"570ef7bf-5746-4ee4-b4c9-f4f31a40dd26","prev_last_polygon_uuid":"48707c43-3cb7-4295-b555-2557e37b0032","local_government_cd":"011088","point_lng":141.499151942,"point_lat":43.041710532}},{"arcs":[[82]],"type":"Polygon","properties":{"polygon_uuid":"8c321658-6c4f-40ed-92ee-0f95fd873444","land_type":200,"issue_year":2025,"edit_year":2020,"history":"[{\"筆ポリゴンID\":\"4e6bc51c-b836-4db9-942d-d2074ec2ef82\",\"更新年度\":2024,\"前年同一\":true},[{\"筆ポリゴンID\":\"4910f8ea-7d60-401d-9ae4-5dfd96ef8635\",\"更新年度\":2023,\"前年同一\":true},[{\"筆ポリゴンID\":\"6cfc4b0d-c86c-4a2b-9603-6d786b2074c0\",\"更新年度\":2022,\"前年同一\":true},[{\"筆ポリゴンID\":\"5d51bfda-d918-4c38-9add-4cad90e25d27\",\"更新年度\":2021,\"前年同一\":true},{\"筆ポリゴンID\":\"5d51bfda-d918-4c38-9add-4cad90e25d27\",\"発生年度\":2020}]]]]","last_polygon_uuid":"4e6bc51c-b836-4db9-942d-d2074ec2ef82","prev_last_polygon_uuid":"4910f8ea-7d60-401d-9ae4-5dfd96ef8635","local_government_cd":"011088","point_lng":141.460020356,"point_lat":43.065325011}},{"arcs":[[83]],"type":"Polygon","properties":{"polygon_uuid":"ba2f91b6-7bc3-4bd7-83cb-416fe38b98c3","land_type":200,"issue_year":2025,"edit_year":2020,"history":"[{\"筆ポリゴンID\":\"029caa4d-d0b4-4274-9cc6-d1594efa35b8\",\"更新年度\":2024,\"前年同一\":true},[{\"筆ポリゴンID\":\"fa988325-000a-4a72-b5ab-cb783c1da1bc\",\"更新年度\":2023,\"前年同一\":true},[{\"筆ポリゴンID\":\"16d97422-3d28-4d03-82fa-14b1a5336345\",\"更新年度\":2022,\"前年同一\":true},[{\"筆ポリゴンID\":\"72116ac8-1808-4552-bae2-1b227547603f\",\"更新年度\":2021,\"前年同一\":true},{\"筆ポリゴンID\":\"72116ac8-1808-4552-bae2-1b227547603f\",\"発生年度\":2020}]]]]","last_polygon_uuid":"029caa4d-d0b4-4274-9cc6-d1594efa35b8","prev_last_polygon_uuid":"fa988325-000a-4a72-b5ab-cb783c1da1bc","local_government_cd":"011088","point_lng":141.498519744,"point_lat":43.040484548}},{"arcs":[[84]],"type":"Polygon","properties":{"polygon_uuid":"7e11aa5b-5a9a-4e8d-9fa6-7269acb464fb","land_type":200,"issue_year":2025,"edit_year":2021,"history":"[{\"筆ポリゴンID\":\"90124075-b609-460e-9cdb-f5d09b9ae743\",\"更新年度\":2024,\"前年同一\":true},[{\"筆ポリゴンID\":\"cfc697ee-9427-440b-ba31-d8bbcf6981c1\",\"更新年度\":2023,\"前年同一\":true},[{\"筆ポリゴンID\":\"cae247d0-44f4-43ed-abc6-952b1603894c\",\"更新年度\":2022,\"前年同一\":true},[{\"筆ポリゴンID\":\"f96c1813-865e-40d0-ad09-8a72704b6cec\",\"更新年度\":2021,\"関連\":true},{\"筆ポリゴンID\":\"f96c1813-865e-40d0-ad09-8a72704b6cec\",\"発生年度\":2020}]]]]","last_polygon_uuid":"90124075-b609-460e-9cdb-f5d09b9ae743","prev_last_polygon_uuid":"cfc697ee-9427-440b-ba31-d8bbcf6981c1","local_government_cd":"011088","point_lng":141.461806518,"point_lat":43.057358416}},{"arcs":[[85]],"type":"Polygon","properties":{"polygon_uuid":"6d45245a-e916-4aa1-a762-958243d9ca4f","land_type":200,"issue_year":2025,"edit_year":2021,"history":"[{\"筆ポリゴンID\":\"d598c6ee-c3cf-4539-98fa-3cde6444a6a2\",\"更新年度\":2024,\"前年同一\":true},[{\"筆ポリゴンID\":\"85e986e8-f44a-4a27-8f70-b5040fb1adb4\",\"更新年度\":2023,\"前年同一\":true},[{\"筆ポリゴンID\":\"b29f1c73-518c-4d10-ad99-6b7f9f0e32ac\",\"更新年度\":2022,\"前年同一\":true},[[{\"筆ポリゴンID\":\"201cc847-36b1-4cea-af89-dad825df0914\",\"更新年度\":2021,\"関連\":true},{\"筆ポリゴンID\":\"201cc847-36b1-4cea-af89-dad825df0914\",\"発生年度\":2020}],[{\"筆ポリゴンID\":\"7538d0cd-e64d-40f2-bdb6-030eefa5725a\",\"更新年度\":2021,\"関連\":true},{\"筆ポリゴンID\":\"7538d0cd-e64d-40f2-bdb6-030eefa5725a\",\"発生年度\":2020}]]]]]","last_polygon_uuid":"d598c6ee-c3cf-4539-98fa-3cde6444a6a2","prev_last_polygon_uuid":"85e986e8-f44a-4a27-8f70-b5040fb1adb4","local_government_cd":"011088","point_lng":141.462524503,"point_lat":43.066051777}},{"arcs":[[86]],"type":"Polygon","properties":{"polygon_uuid":"45ddabb5-c28b-4bc9-baf9-e2a36d11ad7a","land_type":200,"issue_year":2025,"edit_year":2020,"history":"[{\"筆ポリゴンID\":\"2e0c6843-d621-4bc5-a8f2-d7653e520bd3\",\"更新年度\":2024,\"前年同一\":true},[{\"筆ポリゴンID\":\"7e42e50c-c2a0-4bc1-8563-f15ac587e410\",\"更新年度\":2023,\"前年同一\":true},[{\"筆ポリゴンID\":\"b836800a-4a78-4b8d-899e-0b236844e38b\",\"更新年度\":2022,\"前年同一\":true},[{\"筆ポリゴンID\":\"1e604bac-acf4-442f-adfb-7a3d67b6e2a4\",\"更新年度\":2021,\"前年同一\":true},{\"筆ポリゴンID\":\"1e604bac-acf4-442f-adfb-7a3d67b6e2a4\",\"発生年度\":2020}]]]]","last_polygon_uuid":"2e0c6843-d621-4bc5-a8f2-d7653e520bd3","prev_last_polygon_uuid":"7e42e50c-c2a0-4bc1-8563-f15ac587e410","local_government_cd":"011088","point_lng":141.497837365,"point_lat":43.040265228}},{"arcs":[[87]],"type":"Polygon","properties":{"polygon_uuid":"5164d097-8210-4c6e-a453-78df7d41eb02","land_type":200,"issue_year":2025,"edit_year":2020,"history":"[{\"筆ポリゴンID\":\"96287019-018c-4723-9e11-1210f42a1f91\",\"更新年度\":2024,\"前年同一\":true},[{\"筆ポリゴンID\":\"dcb531da-484c-4301-9d3e-1517f8be68bb\",\"更新年度\":2023,\"前年同一\":true},[{\"筆ポリゴンID\":\"dd8a9555-59f4-488b-b37e-8e52d3d04f85\",\"更新年度\":2022,\"前年同一\":true},[{\"筆ポリゴンID\":\"cac896ba-94a4-4584-b716-7c8985ff54f4\",\"更新年度\":2021,\"前年同一\":true},{\"筆ポリゴンID\":\"cac896ba-94a4-4584-b716-7c8985ff54f4\",\"発生年度\":2020}]]]]","last_polygon_uuid":"96287019-018c-4723-9e11-1210f42a1f91","prev_last_polygon_uuid":"dcb531da-484c-4301-9d3e-1517f8be68bb","local_government_cd":"011088","point_lng":141.498105997,"point_lat":43.040461669}},{"arcs":[[88]],"type":"Polygon","properties":{"polygon_uuid":"2f76ee06-c845-46d0-bceb-2a16f21670bc","land_type":200,"issue_year":2025,"edit_year":2024,"history":"[{\"筆ポリゴンID\":\"0e3b436c-faf5-4c9a-9e1a-b01408faebeb\",\"更新年度\":2024,\"関連\":true},[{\"筆ポリゴンID\":\"5ccdb835-3036-40ee-92a1-7bea58324fd5\",\"更新年度\":2023,\"前年同一\":true},[{\"筆ポリゴンID\":\"f51de0ac-9d38-4b64-a492-72e77d371894\",\"更新年度\":2022,\"前年同一\":true},[{\"筆ポリゴンID\":\"a7c492cf-b4f3-4c85-aac1-a503bcf0684f\",\"更新年度\":2021,\"前年同一\":true},{\"筆ポリゴンID\":\"a7c492cf-b4f3-4c85-aac1-a503bcf0684f\",\"発生年度\":2020}]]]]","last_polygon_uuid":null,"prev_last_polygon_uuid":null,"local_government_cd":"011088","point_lng":141.479999237,"point_lat":43.049011736}},{"arcs":[[89]],"type":"Polygon","properties":{"polygon_uuid":"09526de6-6aea-4bb3-9d46-4871b066eb35","land_type":200,"issue_year":2025,"edit_year":2020,"history":"[{\"筆ポリゴンID\":\"fddf5515-ce18-4493-a1e1-c21b3d1600d8\",\"更新年度\":2024,\"前年同一\":true},[{\"筆ポリゴンID\":\"f49689c3-d464-42af-923b-c00baa78af84\",\"更新年度\":2023,\"前年同一\":true},[{\"筆ポリゴンID\":\"d4325deb-9176-4fca-bc7d-e49b911af5ac\",\"更新年度\":2022,\"前年同一\":true},[{\"筆ポリゴンID\":\"872d048c-6e83-4bf1-b781-a5f4254540db\",\"更新年度\":2021,\"前年同一\":true},{\"筆ポリゴンID\":\"872d048c-6e83-4bf1-b781-a5f4254540db\",\"発生年度\":2020}]]]]","last_polygon_uuid":"fddf5515-ce18-4493-a1e1-c21b3d1600d8","prev_last_polygon_uuid":"f49689c3-d464-42af-923b-c00baa78af84","local_government_cd":"011088","point_lng":141.49841522,"point_lat":43.042811444}},{"arcs":[[90]],"type":"Polygon","properties":{"polygon_uuid":"f5d63da8-dcd8-4fb3-b115-b15debd2914e","land_type":200,"issue_year":2025,"edit_year":2020,"history":"[{\"筆ポリゴンID\":\"f84591a1-ff82-490f-93ec-01784f19f7b1\",\"更新年度\":2024,\"前年同一\":true},[{\"筆ポリゴンID\":\"40be4e2b-9d1b-46af-b406-a24ea1e1891f\",\"更新年度\":2023,\"前年同一\":true},[{\"筆ポリゴンID\":\"4baa28cf-ed56-4cf1-9605-8dc9d1219dbd\",\"更新年度\":2022,\"前年同一\":true},[{\"筆ポリゴンID\":\"56dbec23-dfad-4007-8d5c-49772e59b817\",\"更新年度\":2021,\"前年同一\":true},{\"筆ポリゴンID\":\"56dbec23-dfad-4007-8d5c-49772e59b817\",\"発生年度\":2020}]]]]","last_polygon_uuid":"f84591a1-ff82-490f-93ec-01784f19f7b1","prev_last_polygon_uuid":"40be4e2b-9d1b-46af-b406-a24ea1e1891f","local_government_cd":"011088","point_lng":141.46002964,"point_lat":43.065510117}},{"arcs":[[91]],"type":"Polygon","properties":{"polygon_uuid":"ea09809b-80bc-4d7c-ad89-f84f9d841085","land_type":200,"issue_year":2025,"edit_year":2020,"history":"[{\"筆ポリゴンID\":\"cc0c3008-bb54-49a9-9b06-90ad36e80325\",\"更新年度\":2024,\"前年同一\":true},[{\"筆ポリゴンID\":\"2cb6053a-8f3b-4786-a431-842a8e896777\",\"更新年度\":2023,\"前年同一\":true},[{\"筆ポリゴンID\":\"7231631c-4d62-4285-b7a8-1cd08bc07a7f\",\"更新年度\":2022,\"前年同一\":true},[{\"筆ポリゴンID\":\"85ec9aa8-c578-4bbf-b4b2-d82be7cbc74d\",\"更新年度\":2021,\"前年同一\":true},{\"筆ポリゴンID\":\"85ec9aa8-c578-4bbf-b4b2-d82be7cbc74d\",\"発生年度\":2020}]]]]","last_polygon_uuid":"cc0c3008-bb54-49a9-9b06-90ad36e80325","prev_last_polygon_uuid":"2cb6053a-8f3b-4786-a431-842a8e896777","local_government_cd":"011088","point_lng":141.500046368,"point_lat":43.041327471}},{"arcs":[[92]],"type":"Polygon","properties":{"polygon_uuid":"3a53c8ce-e8f4-4278-b697-8a6bd6475ae9","land_type":200,"issue_year":2025,"edit_year":2024,"history":"[{\"筆ポリゴンID\":\"4f45a955-9a71-4a88-a676-9e3b4e1f982a\",\"更新年度\":2024,\"関連\":true},[{\"筆ポリゴンID\":\"dd3fdcad-0202-4332-88ef-88a9214773b0\",\"更新年度\":2023,\"前年同一\":true},[{\"筆ポリゴンID\":\"469fae29-4d91-4f04-ac14-88109a8c8c1f\",\"更新年度\":2022,\"前年同一\":true},[{\"筆ポリゴンID\":\"cbafe1c8-51fc-44d8-8985-d91ecbd83e5b\",\"更新年度\":2021,\"前年同一\":true},{\"筆ポリゴンID\":\"cbafe1c8-51fc-44d8-8985-d91ecbd83e5b\",\"発生年度\":2020}]]]]","last_polygon_uuid":null,"prev_last_polygon_uuid":null,"local_government_cd":"011088","point_lng":141.480505024,"point_lat":43.049254528}},{"arcs":[[93]],"type":"Polygon","properties":{"polygon_uuid":"188a26c0-7760-4bb1-b89d-92c57ff10687","land_type":200,"issue_year":2025,"edit_year":2024,"history":"[{\"筆ポリゴンID\":\"398093b7-30b2-4860-9955-95e69397d9fe\",\"更新年度\":2024,\"関連\":true},[{\"筆ポリゴンID\":\"463a88ed-0fc4-40be-bea1-bfddcbbcdf9f\",\"更新年度\":2023,\"前年同一\":true},[{\"筆ポリゴンID\":\"472cca53-8c9f-4340-a941-fcc1a23576f1\",\"更新年度\":2022,\"前年同一\":true},[{\"筆ポリゴンID\":\"046c8ecb-dd09-40ce-a4ac-0e84c785e0aa\",\"更新年度\":2021,\"前年同一\":true},{\"筆ポリゴンID\":\"046c8ecb-dd09-40ce-a4ac-0e84c785e0aa\",\"発生年度\":2020}]]]]","last_polygon_uuid":null,"prev_last_polygon_uuid":null,"local_government_cd":"011088","point_lng":141.478761816,"point_lat":43.048646}},{"arcs":[[94]],"type":"Polygon","properties":{"polygon_uuid":"7657a81f-8c13-4054-aadd-5365b57ea1f6","land_type":200,"issue_year":2025,"edit_year":2020,"history":"[{\"筆ポリゴンID\":\"1e648fe7-fe47-4594-a0c2-f3697c4206f7\",\"更新年度\":2024,\"前年同一\":true},[{\"筆ポリゴンID\":\"74c408a4-1f98-4bcc-9b8b-22c7bd43088e\",\"更新年度\":2023,\"前年同一\":true},[{\"筆ポリゴンID\":\"e2d4df9a-b8be-4e22-be26-9b45b04d4bd8\",\"更新年度\":2022,\"前年同一\":true},[{\"筆ポリゴンID\":\"5e90e212-fb33-45ca-b223-444217aceced\",\"更新年度\":2021,\"前年同一\":true},{\"筆ポリゴンID\":\"5e90e212-fb33-45ca-b223-444217aceced\",\"発生年度\":2020}]]]]","last_polygon_uuid":"1e648fe7-fe47-4594-a0c2-f3697c4206f7","prev_last_polygon_uuid":"74c408a4-1f98-4bcc-9b8b-22c7bd43088e","local_government_cd":"011088","point_lng":141.501745055,"point_lat":43.039944062}},{"arcs":[[95]],"type":"Polygon","properties":{"polygon_uuid":"1c979b0a-b385-41ca-b4b1-d0cff30d9c77","land_type":200,"issue_year":2025,"edit_year":2020,"history":"[{\"筆ポリゴンID\":\"0d539a3c-cfc9-4bcb-8085-4d1ac2f65bdb\",\"更新年度\":2024,\"前年同一\":true},[{\"筆ポリゴンID\":\"4f0c6572-732e-4e72-a7c2-dbe842029a0b\",\"更新年度\":2023,\"前年同一\":true},[{\"筆ポリゴンID\":\"399b6b64-0367-467e-ba97-79c32085647b\",\"更新年度\":2022,\"前年同一\":true},[{\"筆ポリゴンID\":\"7e2c9d56-aef8-48f2-8ecb-f6043cab8425\",\"更新年度\":2021,\"前年同一\":true},{\"筆ポリゴンID\":\"7e2c9d56-aef8-48f2-8ecb-f6043cab8425\",\"発生年度\":2020}]]]]","last_polygon_uuid":"0d539a3c-cfc9-4bcb-8085-4d1ac2f65bdb","prev_last_polygon_uuid":"4f0c6572-732e-4e72-a7c2-dbe842029a0b","local_government_cd":"011088","point_lng":141.489618809,"point_lat":43.0510654}},{"arcs":[[96]],"type":"Polygon","properties":{"polygon_uuid":"160a3434-27fc-4630-abc8-23e5d0060bb4","land_type":200,"issue_year":2025,"edit_year":2020,"history":"[{\"筆ポリゴンID\":\"58fa343e-8750-44b1-8df2-24696629a20e\",\"更新年度\":2024,\"前年同一\":true},[{\"筆ポリゴンID\":\"fb4f054c-5fa2-4152-a768-97a817f10824\",\"更新年度\":2023,\"前年同一\":true},[{\"筆ポリゴンID\":\"e6ed0d6b-b4a3-48c0-a30e-0cddc5248b53\",\"更新年度\":2022,\"前年同一\":true},[{\"筆ポリゴンID\":\"d24d9cab-087b-4110-9b4a-f050a63e9a3d\",\"更新年度\":2021,\"前年同一\":true},{\"筆ポリゴンID\":\"d24d9cab-087b-4110-9b4a-f050a63e9a3d\",\"発生年度\":2020}]]]]","last_polygon_uuid":"58fa343e-8750-44b1-8df2-24696629a20e","prev_last_polygon_uuid":"fb4f054c-5fa2-4152-a768-97a817f10824","local_government_cd":"011088","point_lng":141.499979448,"point_lat":43.041940147}},{"arcs":[[97]],"type":"Polygon","properties":{"polygon_uuid":"c04e0708-76b3-42b3-b0d0-90e21bbb8c96","land_type":200,"issue_year":2025,"edit_year":2020,"history":"[{\"筆ポリゴンID\":\"ea972587-08ed-4dba-9392-c4b522673091\",\"更新年度\":2024,\"前年同一\":true},[{\"筆ポリゴンID\":\"acc6529c-da45-4fa1-9005-f1ea3615ea0b\",\"更新年度\":2023,\"前年同一\":true},[{\"筆ポリゴンID\":\"a09a73b8-5fb2-4e85-ab8e-444e3596cb2c\",\"更新年度\":2022,\"前年同一\":true},[{\"筆ポリゴンID\":\"dd1cd29b-813f-4427-9830-f3236ef22982\",\"更新年度\":2021,\"前年同一\":true},{\"筆ポリゴンID\":\"dd1cd29b-813f-4427-9830-f3236ef22982\",\"発生年度\":2020}]]]]","last_polygon_uuid":"ea972587-08ed-4dba-9392-c4b522673091","prev_last_polygon_uuid":"acc6529c-da45-4fa1-9005-f1ea3615ea0b","local_government_cd":"011088","point_lng":141.498633871,"point_lat":43.040776055}},{"arcs":[[98]],"type":"Polygon","properties":{"polygon_uuid":"df542f5d-aeab-4fc9-9f61-4f0312b0fd49","land_type":200,"issue_year":2025,"edit_year":2024,"history":"[{\"筆ポリゴンID\":\"398093b7-30b2-4860-9955-95e69397d9fe\",\"更新年度\":2024,\"関連\":true},[{\"筆ポリゴンID\":\"463a88ed-0fc4-40be-bea1-bfddcbbcdf9f\",\"更新年度\":2023,\"前年同一\":true},[{\"筆ポリゴンID\":\"472cca53-8c9f-4340-a941-fcc1a23576f1\",\"更新年度\":2022,\"前年同一\":true},[{\"筆ポリゴンID\":\"046c8ecb-dd09-40ce-a4ac-0e84c785e0aa\",\"更新年度\":2021,\"前年同一\":true},{\"筆ポリゴンID\":\"046c8ecb-dd09-40ce-a4ac-0e84c785e0aa\",\"発生年度\":2020}]]]]","last_polygon_uuid":null,"prev_last_polygon_uuid":null,"local_government_cd":"011088","point_lng":141.479398101,"point_lat":43.048991253}},{"arcs":[[99]],"type":"Polygon","properties":{"polygon_uuid":"f47e188e-2f39-41e8-a6b8-dcd7cec5a886","land_type":200,"issue_year":2025,"edit_year":2024,"history":"{\"筆ポリゴンID\":\"f47e188e-2f39-41e8-a6b8-dcd7cec5a886\",\"発生年度\":2024}","last_polygon_uuid":null,"prev_last_polygon_uuid":null,"local_government_cd":"011088","point_lng":141.47716475,"point_lat":43.015158021}},{"arcs":[[100]],"type":"Polygon","properties":{"polygon_uuid":"41264028-0d2f-45cd-b969-e255648590b1","land_type":200,"issue_year":2025,"edit_year":2024,"history":"{\"筆ポリゴンID\":\"41264028-0d2f-45cd-b969-e255648590b1\",\"発生年度\":2024}","last_polygon_uuid":null,"prev_last_polygon_uuid":null,"local_government_cd":"011088","point_lng":141.478069459,"point_lat":43.009034773}},{"arcs":[[101]],"type":"Polygon","properties":{"polygon_uuid":"8aa392b9-e35e-4163-87e7-3dc7a9b10217","land_type":200,"issue_year":2025,"edit_year":2020,"history":"[{\"筆ポリゴンID\":\"4f3d0267-63a5-4be0-8c3c-65bca56eca37\",\"更新年度\":2024,\"前年同一\":true},[{\"筆ポリゴンID\":\"759d4869-d5f0-459f-9799-194c9c81f3f2\",\"更新年度\":2023,\"前年同一\":true},[{\"筆ポリゴンID\":\"9656c01e-f759-45cb-9de6-f963be05527b\",\"更新年度\":2022,\"前年同一\":true},[{\"筆ポリゴンID\":\"51dd4db2-3c63-48a5-8b53-3bae50689331\",\"更新年度\":2021,\"前年同一\":true},{\"筆ポリゴンID\":\"51dd4db2-3c63-48a5-8b53-3bae50689331\",\"発生年度\":2020}]]]]","last_polygon_uuid":"4f3d0267-63a5-4be0-8c3c-65bca56eca37","prev_last_polygon_uuid":"759d4869-d5f0-459f-9799-194c9c81f3f2","local_government_cd":"011088","point_lng":141.473401019,"point_lat":43.092300593}},{"arcs":[[102]],"type":"Polygon","properties":{"polygon_uuid":"a80b09c1-0496-42ff-8a81-b2392132d9a8","land_type":200,"issue_year":2025,"edit_year":2020,"history":"[{\"筆ポリゴンID\":\"c3031be7-f2c3-4d4e-9297-b6c70a5c2e7e\",\"更新年度\":2024,\"前年同一\":true},[{\"筆ポリゴンID\":\"000d1352-a978-452c-a5ce-0276e072a1e5\",\"更新年度\":2023,\"前年同一\":true},[{\"筆ポリゴンID\":\"c744c079-e323-4440-be0b-030d17dd95fd\",\"更新年度\":2022,\"前年同一\":true},[{\"筆ポリゴンID\":\"df3bdc28-7d57-4260-b1f8-d42fd98ae18e\",\"更新年度\":2021,\"前年同一\":true},{\"筆ポリゴンID\":\"df3bdc28-7d57-4260-b1f8-d42fd98ae18e\",\"発生年度\":2020}]]]]","last_polygon_uuid":"c3031be7-f2c3-4d4e-9297-b6c70a5c2e7e","prev_last_polygon_uuid":"000d1352-a978-452c-a5ce-0276e072a1e5","local_government_cd":"011088","point_lng":141.472917026,"point_lat":43.092673988}},{"arcs":[[103]],"type":"Polygon","properties":{"polygon_uuid":"96457ba8-71f4-4627-b4d1-3e129c7702e6","land_type":100,"issue_year":2025,"edit_year":2024,"history":"{\"筆ポリゴンID\":\"96457ba8-71f4-4627-b4d1-3e129c7702e6\",\"発生年度\":2024}","last_polygon_uuid":null,"prev_last_polygon_uuid":null,"local_government_cd":"011088","point_lng":141.460090028,"point_lat":43.061949454}},{"arcs":[[104]],"type":"Polygon","properties":{"polygon_uuid":"7e0a7ccf-2abb-46ef-9d2d-9ee4d4fd815f","land_type":100,"issue_year":2025,"edit_year":2024,"history":"{\"筆ポリゴンID\":\"7e0a7ccf-2abb-46ef-9d2d-9ee4d4fd815f\",\"発生年度\":2024}","last_polygon_uuid":null,"prev_last_polygon_uuid":null,"local_government_cd":"011088","point_lng":141.46177254,"point_lat":43.059657359}},{"arcs":[[105]],"type":"Polygon","properties":{"polygon_uuid":"a6d8aefd-917c-440c-9426-d7794070c7b6","land_type":100,"issue_year":2025,"edit_year":2024,"history":"{\"筆ポリゴンID\":\"a6d8aefd-917c-440c-9426-d7794070c7b6\",\"発生年度\":2024}","last_polygon_uuid":null,"prev_last_polygon_uuid":null,"local_government_cd":"011088","point_lng":141.496060573,"point_lat":43.044787785}},{"arcs":[[106]],"type":"Polygon","properties":{"polygon_uuid":"065cf466-8d01-49d7-8b7c-303ba249c936","land_type":100,"issue_year":2025,"edit_year":2024,"history":"{\"筆ポリゴンID\":\"065cf466-8d01-49d7-8b7c-303ba249c936\",\"発生年度\":2024}","last_polygon_uuid":null,"prev_last_polygon_uuid":null,"local_government_cd":"011088","point_lng":141.49652745,"point_lat":43.044621681}},{"arcs":[[107]],"type":"Polygon","properties":{"polygon_uuid":"aacbb1e6-e9c4-4a0f-9ad5-465df5cf87d5","land_type":100,"issue_year":2025,"edit_year":2024,"history":"{\"筆ポリゴンID\":\"aacbb1e6-e9c4-4a0f-9ad5-465df5cf87d5\",\"発生年度\":2024}","last_polygon_uuid":null,"prev_last_polygon_uuid":null,"local_government_cd":"011088","point_lng":141.462575853,"point_lat":43.06469881}},{"arcs":[[108]],"type":"Polygon","properties":{"polygon_uuid":"a18143e3-62b6-454d-94f3-b2454f54a744","land_type":100,"issue_year":2025,"edit_year":2024,"history":"{\"筆ポリゴンID\":\"a18143e3-62b6-454d-94f3-b2454f54a744\",\"発生年度\":2024}","last_polygon_uuid":null,"prev_last_polygon_uuid":null,"local_government_cd":"011088","point_lng":141.459968946,"point_lat":43.061095253}}]}}}