{"type":"Topology","arcs":[[[107,11365],[-9,19],[-36,50],[-62,66],[105,169],[21,3],[70,14],[96,1],[68,-7],[8,19],[37,-15],[11,22],[75,4],[185,-1],[41,-22],[44,-9],[21,-6],[22,21],[35,-12],[38,-3],[36,5],[78,-1],[80,-19],[185,-83],[2,-18],[-7,-44],[-171,-367]],[[1080,11151],[-30,13],[-35,12],[-96,54],[-59,3],[-114,9],[-106,26],[-69,22],[-78,8],[-61,-1],[-37,2],[-84,0],[-69,-6],[-78,38],[-57,34]],[[1080,11151],[-4,-10],[-54,-112],[-28,-76],[-23,-22],[-32,-7],[-80,27],[-105,43],[-74,40],[-28,42],[-67,38],[-42,21],[-57,8],[-60,-21],[-67,-20],[-58,-4],[-81,7],[-88,15],[-47,16],[-9,40],[8,105],[23,84]],[[3285,5045],[6,6],[81,-27],[-14,-63],[-82,35],[-6,4],[15,45]],[[3129,5136],[141,-25],[27,-9],[-9,-32],[-168,37],[9,29]],[[3590,4824],[157,-16],[4,-139],[-168,12],[7,143]],[[5212,3641],[20,61],[13,32],[16,20],[34,4],[28,-15],[68,-35],[57,-15],[46,1],[20,-13],[7,-21],[-20,-181],[-11,-66],[-23,-97],[-32,-101],[-24,-10],[-37,-8],[-47,18],[-93,52],[-28,9],[-21,19],[-13,28],[-6,17],[43,229],[-5,43],[8,29]],[[3205,4822],[20,54],[37,103]],[[3262,4979],[56,-23],[3,-4]],[[3321,4952],[-54,-141],[-56,9],[-6,2]],[[3218,5068],[-78,-215]],[[3140,4853],[-8,-11],[-5,2],[-82,49],[-3,6],[-2,2],[21,69],[48,119],[7,3],[102,-24]],[[3218,5068],[59,-14],[6,-3],[2,-6]],[[3285,5045],[-23,-66]],[[3205,4822],[-65,31]],[[7365,869],[46,-38],[5,-74],[17,-79],[45,-45],[39,-76],[44,-83],[52,-98],[-218,-376],[-21,0],[-124,167],[-88,112],[-111,193],[-107,196],[47,178],[126,-114],[143,-129],[27,37],[-30,38],[-246,232],[66,108],[25,51],[24,48],[16,44],[6,26],[7,17],[21,2],[19,-16],[44,-37],[32,-30],[76,-73],[18,-181]],[[3321,4952],[46,-20],[-43,-115],[-54,4],[51,131]],[[5164,4364],[2,2],[48,-13],[107,-41],[159,-79],[-55,-209],[-13,-35],[-25,-17],[-32,-4],[-37,-1],[-71,43],[-61,45],[-31,39],[-4,46],[8,110],[5,114]]],"transform":{"scale":[0.000001976869696571424,0.0000012823748932539315],"translate":[141.258781334,43.028735014]},"objects":{"2025_011011":{"type":"GeometryCollection","geometries":[{"arcs":[[0,1]],"type":"Polygon","properties":{"polygon_uuid":"66a02b54-e71a-4db7-9ece-ff5222be8c69","land_type":200,"issue_year":2025,"edit_year":2020,"history":"[{\"筆ポリゴンID\":\"e0728e20-4aeb-4047-9a49-b649153d7190\",\"更新年度\":2024,\"前年同一\":true},[{\"筆ポリゴンID\":\"b8b4734b-f15f-4a24-90ff-7239514aafb6\",\"更新年度\":2023,\"前年同一\":true},[{\"筆ポリゴンID\":\"6ff78a6d-bfbf-4f92-94b6-96baf6b72625\",\"更新年度\":2022,\"前年同一\":true},[{\"筆ポリゴンID\":\"29ac6491-7380-473a-b9bd-cc8c2c7cc9de\",\"更新年度\":2021,\"前年同一\":true},{\"筆ポリゴンID\":\"29ac6491-7380-473a-b9bd-cc8c2c7cc9de\",\"発生年度\":2020}]]]]","last_polygon_uuid":"e0728e20-4aeb-4047-9a49-b649153d7190","prev_last_polygon_uuid":"b8b4734b-f15f-4a24-90ff-7239514aafb6","local_government_cd":"011011","point_lng":141.260080561,"point_lat":43.04345044}},{"arcs":[[-2,2]],"type":"Polygon","properties":{"polygon_uuid":"907f2175-a871-4d74-a6cb-84cae0a22422","land_type":200,"issue_year":2025,"edit_year":2020,"history":"[{\"筆ポリゴンID\":\"1dba1043-38bb-40da-9e88-eb1ef9beaff4\",\"更新年度\":2024,\"前年同一\":true},[{\"筆ポリゴンID\":\"29996564-6256-402b-b48b-5daafda706f5\",\"更新年度\":2023,\"前年同一\":true},[{\"筆ポリゴンID\":\"2b0ef02c-56b4-4c58-851f-b93109a2a288\",\"更新年度\":2022,\"前年同一\":true},[{\"筆ポリゴンID\":\"1260ed49-3d13-479d-8a60-c96b35837a34\",\"更新年度\":2021,\"前年同一\":true},{\"筆ポリゴンID\":\"1260ed49-3d13-479d-8a60-c96b35837a34\",\"発生年度\":2020}]]]]","last_polygon_uuid":"1dba1043-38bb-40da-9e88-eb1ef9beaff4","prev_last_polygon_uuid":"29996564-6256-402b-b48b-5daafda706f5","local_government_cd":"011011","point_lng":141.259948641,"point_lat":43.043042925}},{"arcs":[[3]],"type":"Polygon","properties":{"polygon_uuid":"2e305352-0482-4412-b518-ba04ebb2753b","land_type":200,"issue_year":2025,"edit_year":2024,"history":"{\"筆ポリゴンID\":\"2e305352-0482-4412-b518-ba04ebb2753b\",\"発生年度\":2024}","last_polygon_uuid":null,"prev_last_polygon_uuid":null,"local_government_cd":"011011","point_lng":141.265349978,"point_lat":43.035157666}},{"arcs":[[4]],"type":"Polygon","properties":{"polygon_uuid":"3c85692d-f1cd-4cbd-be28-3d695ea02a70","land_type":200,"issue_year":2025,"edit_year":2024,"history":"{\"筆ポリゴンID\":\"3c85692d-f1cd-4cbd-be28-3d695ea02a70\",\"発生年度\":2024}","last_polygon_uuid":null,"prev_last_polygon_uuid":null,"local_government_cd":"011011","point_lng":141.265129024,"point_lat":43.035280366}},{"arcs":[[5]],"type":"Polygon","properties":{"polygon_uuid":"56d0cc02-cf69-4ab3-83ac-8794cca1e2f6","land_type":200,"issue_year":2025,"edit_year":2024,"history":"{\"筆ポリゴンID\":\"56d0cc02-cf69-4ab3-83ac-8794cca1e2f6\",\"発生年度\":2024}","last_polygon_uuid":null,"prev_last_polygon_uuid":null,"local_government_cd":"011011","point_lng":141.26603076,"point_lat":43.034819342}},{"arcs":[[6]],"type":"Polygon","properties":{"polygon_uuid":"2b85c653-4f8d-4b83-b01f-f586ca9008c2","land_type":200,"issue_year":2025,"edit_year":2020,"history":"[{\"筆ポリゴンID\":\"6cac747f-8951-4b6f-8614-fd14b823621f\",\"更新年度\":2024,\"前年同一\":true},[{\"筆ポリゴンID\":\"a2582ba5-0321-4dbf-86e4-164ec06f3d4d\",\"更新年度\":2023,\"前年同一\":true},[{\"筆ポリゴンID\":\"7e45f2b1-9e12-4bcf-b363-625d35aa3c36\",\"更新年度\":2022,\"前年同一\":true},[{\"筆ポリゴンID\":\"cfe689ec-007b-4c03-b1cf-644c0b5e0bca\",\"更新年度\":2021,\"前年同一\":true},{\"筆ポリゴンID\":\"cfe689ec-007b-4c03-b1cf-644c0b5e0bca\",\"発生年度\":2020}]]]]","last_polygon_uuid":"6cac747f-8951-4b6f-8614-fd14b823621f","prev_last_polygon_uuid":"a2582ba5-0321-4dbf-86e4-164ec06f3d4d","local_government_cd":"011011","point_lng":141.269346644,"point_lat":43.033195847}},{"arcs":[[7,8,9]],"type":"Polygon","properties":{"polygon_uuid":"0fb44140-9dfa-4278-969f-90dfe5057b40","land_type":100,"issue_year":2025,"edit_year":2020,"history":"[{\"筆ポリゴンID\":\"6c5c49f6-9132-4eff-b3ed-83b6e80155f0\",\"更新年度\":2024,\"前年同一\":true},[{\"筆ポリゴンID\":\"9f0b068d-e5c3-4a79-8084-cc55831a17f9\",\"更新年度\":2023,\"前年同一\":true},[{\"筆ポリゴンID\":\"621d6fda-f8a1-4854-b340-b21fc5d3eca4\",\"更新年度\":2022,\"前年同一\":true},[{\"筆ポリゴンID\":\"55da65d1-5315-46f1-af53-1ff04752dd9a\",\"更新年度\":2021,\"前年同一\":true},{\"筆ポリゴンID\":\"55da65d1-5315-46f1-af53-1ff04752dd9a\",\"発生年度\":2020}]]]]","last_polygon_uuid":"6c5c49f6-9132-4eff-b3ed-83b6e80155f0","prev_last_polygon_uuid":"9f0b068d-e5c3-4a79-8084-cc55831a17f9","local_government_cd":"011011","point_lng":141.265233097,"point_lat":43.035008463}},{"arcs":[[10,11]],"type":"Polygon","properties":{"polygon_uuid":"bbd52406-2bca-4c67-97e7-00eae3f00ac8","land_type":100,"issue_year":2025,"edit_year":2020,"history":"[{\"筆ポリゴンID\":\"d1b09575-123d-46fd-9ec8-f20b164bedb5\",\"更新年度\":2024,\"前年同一\":true},[{\"筆ポリゴンID\":\"872dbd79-0f09-416e-9ac9-2598f320abc5\",\"更新年度\":2023,\"前年同一\":true},[{\"筆ポリゴンID\":\"38ee29bb-53f6-4d23-b91a-e6fb86407b9a\",\"更新年度\":2022,\"前年同一\":true},[{\"筆ポリゴンID\":\"db9275eb-840c-42ff-bf7d-a0b103fa94f0\",\"更新年度\":2021,\"前年同一\":true},{\"筆ポリゴンID\":\"db9275eb-840c-42ff-bf7d-a0b103fa94f0\",\"発生年度\":2020}]]]]","last_polygon_uuid":"d1b09575-123d-46fd-9ec8-f20b164bedb5","prev_last_polygon_uuid":"872dbd79-0f09-416e-9ac9-2598f320abc5","local_government_cd":"011011","point_lng":141.264960696,"point_lat":43.035113413}},{"arcs":[[-11,12,13,-8,14]],"type":"Polygon","properties":{"polygon_uuid":"e3ba12a5-5320-42cd-b227-a22337f17ab3","land_type":100,"issue_year":2025,"edit_year":2020,"history":"[{\"筆ポリゴンID\":\"76f65233-eb83-490f-a991-fad9e31a08e5\",\"更新年度\":2024,\"前年同一\":true},[{\"筆ポリゴンID\":\"9788fcec-4542-447b-91b2-9abf5b6e0e6e\",\"更新年度\":2023,\"前年同一\":true},[{\"筆ポリゴンID\":\"7ba54fcf-6c64-4dfa-838d-7039b7aa9996\",\"更新年度\":2022,\"前年同一\":true},[{\"筆ポリゴンID\":\"120f0b39-2fcb-4de4-8e54-75d5d1409bc2\",\"更新年度\":2021,\"前年同一\":true},{\"筆ポリゴンID\":\"120f0b39-2fcb-4de4-8e54-75d5d1409bc2\",\"発生年度\":2020}]]]]","last_polygon_uuid":"76f65233-eb83-490f-a991-fad9e31a08e5","prev_last_polygon_uuid":"9788fcec-4542-447b-91b2-9abf5b6e0e6e","local_government_cd":"011011","point_lng":141.265133066,"point_lat":43.035080164}},{"arcs":[[15]],"type":"Polygon","properties":{"polygon_uuid":"1ffb5ad3-9ae3-4ba9-a7c1-3a24ee0c4d3d","land_type":200,"issue_year":2025,"edit_year":2021,"history":"[{\"筆ポリゴンID\":\"7bc5a8f3-c956-48c0-b141-1077f9f50f7d\",\"更新年度\":2024,\"前年同一\":true},[{\"筆ポリゴンID\":\"8e1342fe-6b03-4b58-8683-c2a3dc5ffdb8\",\"更新年度\":2023,\"前年同一\":true},[{\"筆ポリゴンID\":\"c12d7a10-a54d-4c24-9f21-7476b4e50a15\",\"更新年度\":2022,\"前年同一\":true},[{\"筆ポリゴンID\":\"76a3cbd6-1ab3-479f-9eb3-9d86f3d0680a\",\"更新年度\":2021,\"関連\":true},{\"筆ポリゴンID\":\"76a3cbd6-1ab3-479f-9eb3-9d86f3d0680a\",\"発生年度\":2020}]]]]","last_polygon_uuid":"7bc5a8f3-c956-48c0-b141-1077f9f50f7d","prev_last_polygon_uuid":"8e1342fe-6b03-4b58-8683-c2a3dc5ffdb8","local_government_cd":"011011","point_lng":141.273160194,"point_lat":43.02948731}},{"arcs":[[16]],"type":"Polygon","properties":{"polygon_uuid":"f7331fba-65e0-4150-968a-af82b5e327e7","land_type":100,"issue_year":2025,"edit_year":2021,"history":"[{\"筆ポリゴンID\":\"0c48ecf6-b8a5-4281-a9f6-305a0dc2f1c5\",\"更新年度\":2024,\"前年同一\":true},[{\"筆ポリゴンID\":\"415b2c95-337f-48bc-be4a-9346bdab0820\",\"更新年度\":2023,\"前年同一\":true},[{\"筆ポリゴンID\":\"6b8f0ccb-e096-47d7-a633-f8782cafd472\",\"更新年度\":2022,\"前年同一\":true},[{\"筆ポリゴンID\":\"55da65d1-5315-46f1-af53-1ff04752dd9a\",\"更新年度\":2021,\"関連\":true},{\"筆ポリゴンID\":\"55da65d1-5315-46f1-af53-1ff04752dd9a\",\"発生年度\":2020}]]]]","last_polygon_uuid":"0c48ecf6-b8a5-4281-a9f6-305a0dc2f1c5","prev_last_polygon_uuid":"415b2c95-337f-48bc-be4a-9346bdab0820","local_government_cd":"011011","point_lng":141.265344724,"point_lat":43.03499326}},{"arcs":[[17]],"type":"Polygon","properties":{"polygon_uuid":"89af7da2-f341-49f1-afb6-1eac4e1ca68c","land_type":200,"issue_year":2025,"edit_year":2021,"history":"[{\"筆ポリゴンID\":\"0f3aad12-0079-4b94-b9f6-a37e2aa65f86\",\"更新年度\":2024,\"前年同一\":true},[{\"筆ポリゴンID\":\"e2537b36-73f4-4093-acb6-1b1b6f8f0b07\",\"更新年度\":2023,\"前年同一\":true},[{\"筆ポリゴンID\":\"1abd4ccb-355b-4eee-842e-a4f6cbdd68d5\",\"更新年度\":2022,\"前年同一\":true},[{\"筆ポリゴンID\":\"0d428f02-c58b-48ff-91a1-6a20d8929b68\",\"更新年度\":2021,\"関連\":true},{\"筆ポリゴンID\":\"0d428f02-c58b-48ff-91a1-6a20d8929b68\",\"発生年度\":2020}]]]]","last_polygon_uuid":"0f3aad12-0079-4b94-b9f6-a37e2aa65f86","prev_last_polygon_uuid":"e2537b36-73f4-4093-acb6-1b1b6f8f0b07","local_government_cd":"011011","point_lng":141.269261244,"point_lat":43.034070923}}]}}}