{"type":"FeatureCollection","features":[{"type":"Feature","geometry":{"type":"Polygon","crs":{"type":"name","properties":{"name":"EPSG:6668"}},"coordinates":[[[140.4373286,43.146723746],[140.437766521,43.146688417],[140.437715546,43.146569311],[140.437626409,43.146492915],[140.437603156,43.146456688],[140.437350053,43.146525271],[140.437255614,43.146557729],[140.4373286,43.146723746]]]},"properties":{"polygon_uuid":"bcad5d23-52e0-40b6-97a5-ef7dce35166c","land_type":200,"issue_year":2025,"edit_year":2020,"history":"[{\"筆ポリゴンID\":\"04b054c3-6393-4d17-9f9b-92a2f68f0c09\",\"更新年度\":2024,\"前年同一\":true},[{\"筆ポリゴンID\":\"2329ff28-cae7-4cb6-8d10-665ab5c001f6\",\"更新年度\":2023,\"前年同一\":true},[{\"筆ポリゴンID\":\"c6a807a2-b65b-4da0-a62b-9dff25b822a8\",\"更新年度\":2022,\"前年同一\":true},[{\"筆ポリゴンID\":\"94337ecd-8ae2-4997-bfd2-9e62d830c737\",\"更新年度\":2021,\"前年同一\":true},{\"筆ポリゴンID\":\"94337ecd-8ae2-4997-bfd2-9e62d830c737\",\"発生年度\":2020}]]]]","last_polygon_uuid":"04b054c3-6393-4d17-9f9b-92a2f68f0c09","prev_last_polygon_uuid":"2329ff28-cae7-4cb6-8d10-665ab5c001f6","local_government_cd":"014044","point_lng":140.437507847,"point_lat":43.146604923}},
{"type":"Feature","geometry":{"type":"Polygon","crs":{"type":"name","properties":{"name":"EPSG:6668"}},"coordinates":[[[140.457325565,43.158594388],[140.457856217,43.158957152],[140.458021035,43.158818562],[140.457644246,43.158568286],[140.457395037,43.158517689],[140.457325565,43.158594388]]]},"properties":{"polygon_uuid":"0a117cdb-de59-4525-a2a6-ec696bcb248e","land_type":200,"issue_year":2025,"edit_year":2020,"history":"[{\"筆ポリゴンID\":\"e7bc19d5-ec64-4a65-b911-e958e5415d9b\",\"更新年度\":2024,\"前年同一\":true},[{\"筆ポリゴンID\":\"a28d1802-5d5b-4574-a2a9-e2436c57a479\",\"更新年度\":2023,\"前年同一\":true},[{\"筆ポリゴンID\":\"a44fa827-71de-4523-a680-4831c93c7695\",\"更新年度\":2022,\"前年同一\":true},[{\"筆ポリゴンID\":\"30f6c745-0601-42a5-b730-b450b54a5a18\",\"更新年度\":2021,\"前年同一\":true},{\"筆ポリゴンID\":\"30f6c745-0601-42a5-b730-b450b54a5a18\",\"発生年度\":2020}]]]]","last_polygon_uuid":"e7bc19d5-ec64-4a65-b911-e958e5415d9b","prev_last_polygon_uuid":"a28d1802-5d5b-4574-a2a9-e2436c57a479","local_government_cd":"014044","point_lng":140.457682751,"point_lat":43.158721553}},
{"type":"Feature","geometry":{"type":"Polygon","crs":{"type":"name","properties":{"name":"EPSG:6668"}},"coordinates":[[[140.347313084,43.197362134],[140.347516981,43.197431105],[140.347567072,43.197357596],[140.347386792,43.197282122],[140.347313084,43.197362134]]]},"properties":{"polygon_uuid":"b127f009-756e-4cf5-9b24-1af22c5ae7fc","land_type":200,"issue_year":2025,"edit_year":2020,"history":"[{\"筆ポリゴンID\":\"75f5bb9c-8740-4be3-aa5f-000594cb28f5\",\"更新年度\":2024,\"前年同一\":true},[{\"筆ポリゴンID\":\"7e7a2fc9-a735-4519-bb8f-5e0dbdb46c34\",\"更新年度\":2023,\"前年同一\":true},[{\"筆ポリゴンID\":\"80f31165-96c3-47df-9048-2ef0555eacbc\",\"更新年度\":2022,\"前年同一\":true},[{\"筆ポリゴンID\":\"fd5a7c89-45db-45d4-9fb4-eaf26a1ca543\",\"更新年度\":2021,\"前年同一\":true},{\"筆ポリゴンID\":\"fd5a7c89-45db-45d4-9fb4-eaf26a1ca543\",\"発生年度\":2020}]]]]","last_polygon_uuid":"75f5bb9c-8740-4be3-aa5f-000594cb28f5","prev_last_polygon_uuid":"7e7a2fc9-a735-4519-bb8f-5e0dbdb46c34","local_government_cd":"014044","point_lng":140.347443142,"point_lat":43.197357783}},
{"type":"Feature","geometry":{"type":"Polygon","crs":{"type":"name","properties":{"name":"EPSG:6668"}},"coordinates":[[[140.351881728,43.19893984],[140.352102964,43.198773264],[140.351963992,43.198678313],[140.351904958,43.198699973],[140.351825116,43.198641704],[140.351648139,43.198782312],[140.351881728,43.19893984]]]},"properties":{"polygon_uuid":"0b56826c-adb6-40c8-8f0f-3f411679eddc","land_type":200,"issue_year":2025,"edit_year":2020,"history":"[{\"筆ポリゴンID\":\"562a6e82-bdc6-46a2-a745-e1b67937f214\",\"更新年度\":2024,\"前年同一\":true},[{\"筆ポリゴンID\":\"7056f353-22b4-4fc2-abd1-072917a2d55f\",\"更新年度\":2023,\"前年同一\":true},[{\"筆ポリゴンID\":\"1864b28d-526e-4d3e-a155-984b222d3b0c\",\"更新年度\":2022,\"前年同一\":true},[{\"筆ポリゴンID\":\"a37b06b4-3ced-4afa-9c50-1a8aef8d7aac\",\"更新年度\":2021,\"前年同一\":true},{\"筆ポリゴンID\":\"a37b06b4-3ced-4afa-9c50-1a8aef8d7aac\",\"発生年度\":2020}]]]]","last_polygon_uuid":"562a6e82-bdc6-46a2-a745-e1b67937f214","prev_last_polygon_uuid":"7056f353-22b4-4fc2-abd1-072917a2d55f","local_government_cd":"014044","point_lng":140.351873423,"point_lat":43.198785325}},
{"type":"Feature","geometry":{"type":"Polygon","crs":{"type":"name","properties":{"name":"EPSG:6668"}},"coordinates":[[[140.437189543,43.146592449],[140.43701628,43.146611192],[140.436956497,43.146641287],[140.436827331,43.146653035],[140.436802632,43.146821518],[140.43708316,43.146841827],[140.437045064,43.146749591],[140.437227788,43.146733141],[140.437189543,43.146592449]]]},"properties":{"polygon_uuid":"d1492e51-ce11-4f59-8820-f2988c0eca66","land_type":200,"issue_year":2025,"edit_year":2020,"history":"[{\"筆ポリゴンID\":\"d30365f7-b8de-4615-b004-ae5d3ae30b04\",\"更新年度\":2024,\"前年同一\":true},[{\"筆ポリゴンID\":\"9afe2e4c-8106-4bcf-9a83-46941c58d8c0\",\"更新年度\":2023,\"前年同一\":true},[{\"筆ポリゴンID\":\"850114ff-38b8-4ecd-b79f-1943c653d54c\",\"更新年度\":2022,\"前年同一\":true},[{\"筆ポリゴンID\":\"3fa30258-0905-426c-a48c-7f609964a5f4\",\"更新年度\":2021,\"前年同一\":true},{\"筆ポリゴンID\":\"3fa30258-0905-426c-a48c-7f609964a5f4\",\"発生年度\":2020}]]]]","last_polygon_uuid":"d30365f7-b8de-4615-b004-ae5d3ae30b04","prev_last_polygon_uuid":"9afe2e4c-8106-4bcf-9a83-46941c58d8c0","local_government_cd":"014044","point_lng":140.437003566,"point_lat":43.14671608}},
{"type":"Feature","geometry":{"type":"Polygon","crs":{"type":"name","properties":{"name":"EPSG:6668"}},"coordinates":[[[140.437255614,43.146557729],[140.437350053,43.146525271],[140.437603156,43.146456688],[140.437546821,43.146354227],[140.437398368,43.146356521],[140.437364641,43.146319657],[140.437238629,43.14633217],[140.437255614,43.146557729]]]},"properties":{"polygon_uuid":"4af319a6-df2b-4c4d-bb10-f6d43c030e6c","land_type":200,"issue_year":2025,"edit_year":2020,"history":"[{\"筆ポリゴンID\":\"edca921f-f394-4ea7-94ba-40c3cf95e80c\",\"更新年度\":2024,\"前年同一\":true},[{\"筆ポリゴンID\":\"c98c3605-32b2-43d4-88f0-547783444237\",\"更新年度\":2023,\"前年同一\":true},[{\"筆ポリゴンID\":\"2cff1dd6-5db4-49c0-a7e2-a63c6ca632be\",\"更新年度\":2022,\"前年同一\":true},[{\"筆ポリゴンID\":\"d3a524a2-42bf-4cbd-9b1d-5b6b640074b2\",\"更新年度\":2021,\"前年同一\":true},{\"筆ポリゴンID\":\"d3a524a2-42bf-4cbd-9b1d-5b6b640074b2\",\"発生年度\":2020}]]]]","last_polygon_uuid":"edca921f-f394-4ea7-94ba-40c3cf95e80c","prev_last_polygon_uuid":"c98c3605-32b2-43d4-88f0-547783444237","local_government_cd":"014044","point_lng":140.437389514,"point_lat":43.146427568}},
{"type":"Feature","geometry":{"type":"Polygon","crs":{"type":"name","properties":{"name":"EPSG:6668"}},"coordinates":[[[140.455318558,43.15826269],[140.455458736,43.158345801],[140.45556307,43.158412304],[140.455687632,43.158316752],[140.455601609,43.158262182],[140.455445569,43.158160105],[140.455440131,43.158160115],[140.455318558,43.15826269]]]},"properties":{"polygon_uuid":"8fcf2215-d941-464e-9891-67d51a6cd0da","land_type":100,"issue_year":2025,"edit_year":2020,"history":"[{\"筆ポリゴンID\":\"6905fa3f-13bf-4751-8dbc-1f163ec894b6\",\"更新年度\":2024,\"前年同一\":true},[{\"筆ポリゴンID\":\"134237fd-6b0d-4901-921d-b8c1221c9376\",\"更新年度\":2023,\"前年同一\":true},[{\"筆ポリゴンID\":\"e4f637e9-3aa4-4e0f-bb46-559de8ad6a40\",\"更新年度\":2022,\"前年同一\":true},[{\"筆ポリゴンID\":\"33e573e6-a5d2-47f4-8ef2-7f69ac7fd6fc\",\"更新年度\":2021,\"前年同一\":true},{\"筆ポリゴンID\":\"33e573e6-a5d2-47f4-8ef2-7f69ac7fd6fc\",\"発生年度\":2020}]]]]","last_polygon_uuid":"6905fa3f-13bf-4751-8dbc-1f163ec894b6","prev_last_polygon_uuid":"134237fd-6b0d-4901-921d-b8c1221c9376","local_government_cd":"014044","point_lng":140.455502424,"point_lat":43.158286354}},
{"type":"Feature","geometry":{"type":"Polygon","crs":{"type":"name","properties":{"name":"EPSG:6668"}},"coordinates":[[[140.454950947,43.1582962],[140.455143413,43.158423298],[140.455218989,43.15835244],[140.455026005,43.158234483],[140.454950947,43.1582962]]]},"properties":{"polygon_uuid":"f78f2075-526f-4cbf-8c04-a5f9f150cae8","land_type":200,"issue_year":2025,"edit_year":2020,"history":"[{\"筆ポリゴンID\":\"4fddb6fd-6a58-4dbd-b05e-56b7b8ff4ee4\",\"更新年度\":2024,\"前年同一\":true},[{\"筆ポリゴンID\":\"7a2adf57-cd62-4c4a-8e3c-30d5fffb6991\",\"更新年度\":2023,\"前年同一\":true},[{\"筆ポリゴンID\":\"0f4b833d-3bfb-43fc-80ec-b1f83a24b364\",\"更新年度\":2022,\"前年同一\":true},[{\"筆ポリゴンID\":\"40811359-6bed-4643-b408-4ead123924a2\",\"更新年度\":2021,\"前年同一\":true},{\"筆ポリゴンID\":\"40811359-6bed-4643-b408-4ead123924a2\",\"発生年度\":2020}]]]]","last_polygon_uuid":"4fddb6fd-6a58-4dbd-b05e-56b7b8ff4ee4","prev_last_polygon_uuid":"7a2adf57-cd62-4c4a-8e3c-30d5fffb6991","local_government_cd":"014044","point_lng":140.455085984,"point_lat":43.158327616}},
{"type":"Feature","geometry":{"type":"Polygon","crs":{"type":"name","properties":{"name":"EPSG:6668"}},"coordinates":[[[140.347544044,43.197563801],[140.34738644,43.197491277],[140.347312776,43.197570842],[140.347324181,43.197584774],[140.347446817,43.197634881],[140.347479389,43.197589076],[140.347541988,43.197606936],[140.347555572,43.197594983],[140.347544044,43.197563801]]]},"properties":{"polygon_uuid":"2b1b57cc-4ee9-4756-a7d4-092c32be28f1","land_type":200,"issue_year":2025,"edit_year":2020,"history":"[{\"筆ポリゴンID\":\"cc9ab056-bd59-47a1-a308-8a723f27d257\",\"更新年度\":2024,\"前年同一\":true},[{\"筆ポリゴンID\":\"a923e32d-f950-43c2-ad40-ecd452f07544\",\"更新年度\":2023,\"前年同一\":true},[{\"筆ポリゴンID\":\"c8efe0cb-2180-4245-b236-256805261825\",\"更新年度\":2022,\"前年同一\":true},[{\"筆ポリゴンID\":\"95efb71c-3b73-4283-97a8-fac47b91d9f9\",\"更新年度\":2021,\"前年同一\":true},{\"筆ポリゴンID\":\"95efb71c-3b73-4283-97a8-fac47b91d9f9\",\"発生年度\":2020}]]]]","last_polygon_uuid":"cc9ab056-bd59-47a1-a308-8a723f27d257","prev_last_polygon_uuid":"a923e32d-f950-43c2-ad40-ecd452f07544","local_government_cd":"014044","point_lng":140.347427313,"point_lat":43.197565613}},
{"type":"Feature","geometry":{"type":"Polygon","crs":{"type":"name","properties":{"name":"EPSG:6668"}},"coordinates":[[[140.347077076,43.197530874],[140.347177541,43.19756104],[140.347327909,43.197398854],[140.347227451,43.19737301],[140.347077076,43.197530874]]]},"properties":{"polygon_uuid":"66b7e3e8-0d51-4904-9de9-bd16318aa513","land_type":200,"issue_year":2025,"edit_year":2020,"history":"[{\"筆ポリゴンID\":\"96193a11-32b1-407b-bd93-c1315a1da9d0\",\"更新年度\":2024,\"前年同一\":true},[{\"筆ポリゴンID\":\"67c1b6cf-52a2-488d-a5b5-f83d118c7ddc\",\"更新年度\":2023,\"前年同一\":true},[{\"筆ポリゴンID\":\"3212f4ee-b0c0-44dd-825b-e5f56fff23fa\",\"更新年度\":2022,\"前年同一\":true},[{\"筆ポリゴンID\":\"a8d8e457-0ef4-48fa-b3ba-bfaabc0d5eb1\",\"更新年度\":2021,\"前年同一\":true},{\"筆ポリゴンID\":\"a8d8e457-0ef4-48fa-b3ba-bfaabc0d5eb1\",\"発生年度\":2020}]]]]","last_polygon_uuid":"96193a11-32b1-407b-bd93-c1315a1da9d0","prev_last_polygon_uuid":"67c1b6cf-52a2-488d-a5b5-f83d118c7ddc","local_government_cd":"014044","point_lng":140.347202271,"point_lat":43.197466422}},
{"type":"Feature","geometry":{"type":"Polygon","crs":{"type":"name","properties":{"name":"EPSG:6668"}},"coordinates":[[[140.437189543,43.146592449],[140.437170382,43.146509412],[140.437028104,43.146355046],[140.436914638,43.146348309],[140.436924548,43.146498277],[140.43701628,43.146611192],[140.437189543,43.146592449]]]},"properties":{"polygon_uuid":"a4192c5b-a31b-4efd-af96-aaa0a092cf1a","land_type":200,"issue_year":2025,"edit_year":2020,"history":"[{\"筆ポリゴンID\":\"452696e7-858a-41fb-a868-82cae2ce6604\",\"更新年度\":2024,\"前年同一\":true},[{\"筆ポリゴンID\":\"0fbc747b-508c-4998-8bc2-293a772d6ed4\",\"更新年度\":2023,\"前年同一\":true},[{\"筆ポリゴンID\":\"b4432270-5a4c-4677-bb03-05d1c0c653ff\",\"更新年度\":2022,\"前年同一\":true},[{\"筆ポリゴンID\":\"0c84ab2b-4c3b-4548-ba94-e2726f54bb99\",\"更新年度\":2021,\"前年同一\":true},{\"筆ポリゴンID\":\"0c84ab2b-4c3b-4548-ba94-e2726f54bb99\",\"発生年度\":2020}]]]]","last_polygon_uuid":"452696e7-858a-41fb-a868-82cae2ce6604","prev_last_polygon_uuid":"0fbc747b-508c-4998-8bc2-293a772d6ed4","local_government_cd":"014044","point_lng":140.437037785,"point_lat":43.14648689}},
{"type":"Feature","geometry":{"type":"Polygon","crs":{"type":"name","properties":{"name":"EPSG:6668"}},"coordinates":[[[140.455525553,43.159498277],[140.455659631,43.159377708],[140.455419942,43.159195822],[140.455261033,43.159338314],[140.455525553,43.159498277]]]},"properties":{"polygon_uuid":"a4c7b2e3-c962-463f-b751-0a35f24d6bda","land_type":200,"issue_year":2025,"edit_year":2020,"history":"[{\"筆ポリゴンID\":\"f5b5aabd-5baa-4381-966f-ac051a2ac8fe\",\"更新年度\":2024,\"前年同一\":true},[{\"筆ポリゴンID\":\"6847b2a8-48f0-4ea4-91b6-d6858885c67e\",\"更新年度\":2023,\"前年同一\":true},[{\"筆ポリゴンID\":\"4865e38a-3e0b-45ed-a135-f679d74df839\",\"更新年度\":2022,\"前年同一\":true},[{\"筆ポリゴンID\":\"0b8c950b-0595-4df8-bcfb-03ced742f9f9\",\"更新年度\":2021,\"前年同一\":true},{\"筆ポリゴンID\":\"0b8c950b-0595-4df8-bcfb-03ced742f9f9\",\"発生年度\":2020}]]]]","last_polygon_uuid":"f5b5aabd-5baa-4381-966f-ac051a2ac8fe","prev_last_polygon_uuid":"6847b2a8-48f0-4ea4-91b6-d6858885c67e","local_government_cd":"014044","point_lng":140.455463001,"point_lat":43.159350149}},
{"type":"Feature","geometry":{"type":"Polygon","crs":{"type":"name","properties":{"name":"EPSG:6668"}},"coordinates":[[[140.45601863,43.159490098],[140.456137839,43.159391432],[140.455873244,43.159209592],[140.455739129,43.159319223],[140.45601863,43.159490098]]]},"properties":{"polygon_uuid":"24bb213b-1327-4409-a4d3-fe562cbf7671","land_type":200,"issue_year":2025,"edit_year":2020,"history":"[{\"筆ポリゴンID\":\"e19cd99e-abc6-4c38-b749-a96ea17e4747\",\"更新年度\":2024,\"前年同一\":true},[{\"筆ポリゴンID\":\"3503d011-837a-4742-b9f9-836b6c1db686\",\"更新年度\":2023,\"前年同一\":true},[{\"筆ポリゴンID\":\"4e5e0bc9-9273-4932-924f-e4b8ef971952\",\"更新年度\":2022,\"前年同一\":true},[{\"筆ポリゴンID\":\"a8706af5-407b-4099-8792-d171050ac3e8\",\"更新年度\":2021,\"前年同一\":true},{\"筆ポリゴンID\":\"a8706af5-407b-4099-8792-d171050ac3e8\",\"発生年度\":2020}]]]]","last_polygon_uuid":"e19cd99e-abc6-4c38-b749-a96ea17e4747","prev_last_polygon_uuid":"3503d011-837a-4742-b9f9-836b6c1db686","local_government_cd":"014044","point_lng":140.455939666,"point_lat":43.159350987}},
{"type":"Feature","geometry":{"type":"Polygon","crs":{"type":"name","properties":{"name":"EPSG:6668"}},"coordinates":[[[140.455056107,43.15822582],[140.455195955,43.158311817],[140.455383945,43.158160216],[140.455387556,43.158156228],[140.455391151,43.158146933],[140.455254931,43.158062258],[140.455251307,43.158062264],[140.455056107,43.15822582]]]},"properties":{"polygon_uuid":"cc8db8d1-9040-46bf-a982-e4803f48ba1b","land_type":200,"issue_year":2025,"edit_year":2020,"history":"[{\"筆ポリゴンID\":\"3a67d034-b276-4056-b794-ba12457cf24d\",\"更新年度\":2024,\"前年同一\":true},[{\"筆ポリゴンID\":\"54a62abc-ff3b-4441-9c2d-771d183de674\",\"更新年度\":2023,\"前年同一\":true},[{\"筆ポリゴンID\":\"c2d5573e-bec2-41d7-8cbb-6cb8699c493d\",\"更新年度\":2022,\"前年同一\":true},[{\"筆ポリゴンID\":\"5d5d55fc-367e-454b-b810-40f2330d3720\",\"更新年度\":2021,\"前年同一\":true},{\"筆ポリゴンID\":\"5d5d55fc-367e-454b-b810-40f2330d3720\",\"発生年度\":2020}]]]]","last_polygon_uuid":"3a67d034-b276-4056-b794-ba12457cf24d","prev_last_polygon_uuid":"54a62abc-ff3b-4441-9c2d-771d183de674","local_government_cd":"014044","point_lng":140.45522564,"point_lat":43.158186796}},
{"type":"Feature","geometry":{"type":"Polygon","crs":{"type":"name","properties":{"name":"EPSG:6668"}},"coordinates":[[[140.437603156,43.146456688],[140.437626409,43.146492915],[140.437832917,43.146478872],[140.437779419,43.146388713],[140.437546821,43.146354227],[140.437603156,43.146456688]]]},"properties":{"polygon_uuid":"bb9b526a-eff6-4de3-80fe-2d4949c83306","land_type":200,"issue_year":2025,"edit_year":2020,"history":"[{\"筆ポリゴンID\":\"a355c325-0cff-431b-b00b-47493348d67e\",\"更新年度\":2024,\"前年同一\":true},[{\"筆ポリゴンID\":\"1d2d8b0f-5b52-47b0-9b6e-2eea7c49a5a1\",\"更新年度\":2023,\"前年同一\":true},[{\"筆ポリゴンID\":\"d2a07762-2909-4636-8a75-ce43bbc11fef\",\"更新年度\":2022,\"前年同一\":true},[{\"筆ポリゴンID\":\"e6d3bcb4-17dc-44ae-862a-563fcda57790\",\"更新年度\":2021,\"前年同一\":true},{\"筆ポリゴンID\":\"e6d3bcb4-17dc-44ae-862a-563fcda57790\",\"発生年度\":2020}]]]]","last_polygon_uuid":"a355c325-0cff-431b-b00b-47493348d67e","prev_last_polygon_uuid":"1d2d8b0f-5b52-47b0-9b6e-2eea7c49a5a1","local_government_cd":"014044","point_lng":140.437688001,"point_lat":43.146428458}},
{"type":"Feature","geometry":{"type":"Polygon","crs":{"type":"name","properties":{"name":"EPSG:6668"}},"coordinates":[[[140.455700646,43.158316729],[140.455569609,43.15842182],[140.455836977,43.158595212],[140.455983188,43.158487712],[140.455700646,43.158316729]]]},"properties":{"polygon_uuid":"e1d27e9c-46f3-4556-9800-9e65221f3e72","land_type":100,"issue_year":2025,"edit_year":2020,"history":"[{\"筆ポリゴンID\":\"d1d61349-d56a-42cb-920c-c0174f959ae1\",\"更新年度\":2024,\"前年同一\":true},[{\"筆ポリゴンID\":\"6090de91-083a-4a6f-a264-4bbda2f305b4\",\"更新年度\":2023,\"前年同一\":true},[{\"筆ポリゴンID\":\"8d39b9fb-fd1f-4108-aaea-c83c833817b9\",\"更新年度\":2022,\"前年同一\":true},[{\"筆ポリゴンID\":\"0017ddf1-6576-4a3d-9bbe-ab381434a58b\",\"更新年度\":2021,\"前年同一\":true},{\"筆ポリゴンID\":\"0017ddf1-6576-4a3d-9bbe-ab381434a58b\",\"発生年度\":2020}]]]]","last_polygon_uuid":"d1d61349-d56a-42cb-920c-c0174f959ae1","prev_last_polygon_uuid":"6090de91-083a-4a6f-a264-4bbda2f305b4","local_government_cd":"014044","point_lng":140.455774297,"point_lat":43.15845604}},
{"type":"Feature","geometry":{"type":"Polygon","crs":{"type":"name","properties":{"name":"EPSG:6668"}},"coordinates":[[[140.349169186,43.198190275],[140.34940209,43.197930781],[140.349280952,43.197902796],[140.34911294,43.198110375],[140.349169186,43.198190275]]]},"properties":{"polygon_uuid":"0cdb6880-96a5-45c7-9092-4ac461a1f3cd","land_type":200,"issue_year":2025,"edit_year":2020,"history":"[{\"筆ポリゴンID\":\"21bba4d4-7c63-4f5b-b8f4-005785ba326d\",\"更新年度\":2024,\"前年同一\":true},[{\"筆ポリゴンID\":\"25733f75-0b1a-4a0e-aadd-53670c79b360\",\"更新年度\":2023,\"前年同一\":true},[{\"筆ポリゴンID\":\"9ccdca78-780a-47c4-b4b2-e2aa0d095a2c\",\"更新年度\":2022,\"前年同一\":true},[{\"筆ポリゴンID\":\"9506dc67-224b-42cf-8518-b40af60c4b82\",\"更新年度\":2021,\"前年同一\":true},{\"筆ポリゴンID\":\"9506dc67-224b-42cf-8518-b40af60c4b82\",\"発生年度\":2020}]]]]","last_polygon_uuid":"21bba4d4-7c63-4f5b-b8f4-005785ba326d","prev_last_polygon_uuid":"25733f75-0b1a-4a0e-aadd-53670c79b360","local_government_cd":"014044","point_lng":140.349245708,"point_lat":43.198031781}},
{"type":"Feature","geometry":{"type":"Polygon","crs":{"type":"name","properties":{"name":"EPSG:6668"}},"coordinates":[[[140.348588259,43.196920245],[140.348694662,43.19696985],[140.348803736,43.196844432],[140.348688477,43.196796994],[140.348588259,43.196920245]]]},"properties":{"polygon_uuid":"06bb9d5e-2e02-4225-baef-2e9272df2727","land_type":200,"issue_year":2025,"edit_year":2020,"history":"[{\"筆ポリゴンID\":\"4e89e2b4-16f9-4d2a-8171-dfd24d7a1e1f\",\"更新年度\":2024,\"前年同一\":true},[{\"筆ポリゴンID\":\"28c67653-eb47-478d-9632-04debe9aadb8\",\"更新年度\":2023,\"前年同一\":true},[{\"筆ポリゴンID\":\"1389fcee-30fb-4dc1-ab7c-ca84e9cccd4e\",\"更新年度\":2022,\"前年同一\":true},[{\"筆ポリゴンID\":\"a847c338-e55f-4340-a5c9-8b51167298b8\",\"更新年度\":2021,\"前年同一\":true},{\"筆ポリゴンID\":\"a847c338-e55f-4340-a5c9-8b51167298b8\",\"発生年度\":2020}]]]]","last_polygon_uuid":"4e89e2b4-16f9-4d2a-8171-dfd24d7a1e1f","prev_last_polygon_uuid":"28c67653-eb47-478d-9632-04debe9aadb8","local_government_cd":"014044","point_lng":140.348694516,"point_lat":43.196882543}},
{"type":"Feature","geometry":{"type":"Polygon","crs":{"type":"name","properties":{"name":"EPSG:6668"}},"coordinates":[[[140.456302978,43.158141435],[140.456465697,43.157817024],[140.45581648,43.157633447],[140.455651605,43.157975687],[140.456302978,43.158141435]]]},"properties":{"polygon_uuid":"2d3d454f-9f42-4ee5-94a1-b2cdc3e9b018","land_type":200,"issue_year":2025,"edit_year":2020,"history":"[{\"筆ポリゴンID\":\"c4274029-654f-4d50-8112-a2ebb61a2c3c\",\"更新年度\":2024,\"前年同一\":true},[{\"筆ポリゴンID\":\"30857850-3668-42de-8f9e-5c7617165705\",\"更新年度\":2023,\"前年同一\":true},[{\"筆ポリゴンID\":\"d6366f5e-53e7-4fc0-a7c5-edafc455801d\",\"更新年度\":2022,\"前年同一\":true},[{\"筆ポリゴンID\":\"cedd1217-ad97-418d-86bd-4828dc3a6dd3\",\"更新年度\":2021,\"前年同一\":true},{\"筆ポリゴンID\":\"cedd1217-ad97-418d-86bd-4828dc3a6dd3\",\"発生年度\":2020}]]]]","last_polygon_uuid":"c4274029-654f-4d50-8112-a2ebb61a2c3c","prev_last_polygon_uuid":"30857850-3668-42de-8f9e-5c7617165705","local_government_cd":"014044","point_lng":140.456056669,"point_lat":43.157890939}}]}