{"type":"Topology","arcs":[[[31373,87],[-8,-18]],[[31365,69],[-88,35],[-33,16]],[[31244,120],[26,84],[151,-18],[-17,-60],[-31,-39]],[[38198,6192],[184,183],[57,-70],[-131,-126],[-86,-26],[-24,39]],[[82,25749],[70,35],[18,-37],[-63,-38],[-25,40]],[[1665,26545],[76,-84],[-48,-48],[-20,11],[-28,-29],[-61,71],[81,79]],[[31221,138],[-60,9]],[[31161,147],[-20,15],[-45,6],[-9,85],[98,10],[-14,-46],[64,-8],[-14,-71]],[[31365,69],[-20,-52]],[[31345,17],[-51,2],[-12,-19],[-44,6],[6,114]],[[37503,6025],[48,42],[36,33],[44,-48],[-30,-27],[-54,-52],[-2,0],[-42,52]],[[37375,6042],[67,64],[26,-36],[-67,-59],[-26,31]],[[162,25851],[-55,-37],[-25,40],[4,7],[42,26],[11,-23],[22,9],[5,-6],[-4,-16]],[[0,25834],[35,15],[52,-81],[-35,-13],[-52,79]],[[31221,138],[-6,-42],[-49,-78],[-40,-4],[4,76],[31,57]],[[37574,6648],[47,-61],[-83,-91],[-55,71],[91,81]],[[37745,6644],[42,-50],[-92,-91],[-47,55],[97,86]],[[37412,6006],[48,44],[65,-77],[2,-2],[1,-5],[-47,-42],[-2,0],[-67,82]],[[31373,87],[71,-7],[-18,-45],[-81,-18]],[[37635,6052],[-45,53],[92,88],[51,-55],[-98,-86]],[[725,26167],[81,-131],[-42,-14],[-59,105],[20,40]],[[524,25526],[36,25],[38,-63],[-40,-24],[-34,62]],[[37844,5964],[56,-164],[-225,-93],[-57,173],[226,84]]],"transform":{"scale":[0.0000028862342672805364,0.000001982301111320472],"translate":[140.347077076,43.146319657]},"objects":{"2025_014044":{"type":"GeometryCollection","geometries":[{"arcs":[[0,1,2]],"type":"Polygon","properties":{"polygon_uuid":"bcad5d23-52e0-40b6-97a5-ef7dce35166c","land_type":200,"issue_year":2025,"edit_year":2020,"history":"[{\"筆ポリゴンID\":\"04b054c3-6393-4d17-9f9b-92a2f68f0c09\",\"更新年度\":2024,\"前年同一\":true},[{\"筆ポリゴンID\":\"2329ff28-cae7-4cb6-8d10-665ab5c001f6\",\"更新年度\":2023,\"前年同一\":true},[{\"筆ポリゴンID\":\"c6a807a2-b65b-4da0-a62b-9dff25b822a8\",\"更新年度\":2022,\"前年同一\":true},[{\"筆ポリゴンID\":\"94337ecd-8ae2-4997-bfd2-9e62d830c737\",\"更新年度\":2021,\"前年同一\":true},{\"筆ポリゴンID\":\"94337ecd-8ae2-4997-bfd2-9e62d830c737\",\"発生年度\":2020}]]]]","last_polygon_uuid":"04b054c3-6393-4d17-9f9b-92a2f68f0c09","prev_last_polygon_uuid":"2329ff28-cae7-4cb6-8d10-665ab5c001f6","local_government_cd":"014044","point_lng":140.437507847,"point_lat":43.146604923}},{"arcs":[[3]],"type":"Polygon","properties":{"polygon_uuid":"0a117cdb-de59-4525-a2a6-ec696bcb248e","land_type":200,"issue_year":2025,"edit_year":2020,"history":"[{\"筆ポリゴンID\":\"e7bc19d5-ec64-4a65-b911-e958e5415d9b\",\"更新年度\":2024,\"前年同一\":true},[{\"筆ポリゴンID\":\"a28d1802-5d5b-4574-a2a9-e2436c57a479\",\"更新年度\":2023,\"前年同一\":true},[{\"筆ポリゴンID\":\"a44fa827-71de-4523-a680-4831c93c7695\",\"更新年度\":2022,\"前年同一\":true},[{\"筆ポリゴンID\":\"30f6c745-0601-42a5-b730-b450b54a5a18\",\"更新年度\":2021,\"前年同一\":true},{\"筆ポリゴンID\":\"30f6c745-0601-42a5-b730-b450b54a5a18\",\"発生年度\":2020}]]]]","last_polygon_uuid":"e7bc19d5-ec64-4a65-b911-e958e5415d9b","prev_last_polygon_uuid":"a28d1802-5d5b-4574-a2a9-e2436c57a479","local_government_cd":"014044","point_lng":140.457682751,"point_lat":43.158721553}},{"arcs":[[4]],"type":"Polygon","properties":{"polygon_uuid":"b127f009-756e-4cf5-9b24-1af22c5ae7fc","land_type":200,"issue_year":2025,"edit_year":2020,"history":"[{\"筆ポリゴンID\":\"75f5bb9c-8740-4be3-aa5f-000594cb28f5\",\"更新年度\":2024,\"前年同一\":true},[{\"筆ポリゴンID\":\"7e7a2fc9-a735-4519-bb8f-5e0dbdb46c34\",\"更新年度\":2023,\"前年同一\":true},[{\"筆ポリゴンID\":\"80f31165-96c3-47df-9048-2ef0555eacbc\",\"更新年度\":2022,\"前年同一\":true},[{\"筆ポリゴンID\":\"fd5a7c89-45db-45d4-9fb4-eaf26a1ca543\",\"更新年度\":2021,\"前年同一\":true},{\"筆ポリゴンID\":\"fd5a7c89-45db-45d4-9fb4-eaf26a1ca543\",\"発生年度\":2020}]]]]","last_polygon_uuid":"75f5bb9c-8740-4be3-aa5f-000594cb28f5","prev_last_polygon_uuid":"7e7a2fc9-a735-4519-bb8f-5e0dbdb46c34","local_government_cd":"014044","point_lng":140.347443142,"point_lat":43.197357783}},{"arcs":[[5]],"type":"Polygon","properties":{"polygon_uuid":"0b56826c-adb6-40c8-8f0f-3f411679eddc","land_type":200,"issue_year":2025,"edit_year":2020,"history":"[{\"筆ポリゴンID\":\"562a6e82-bdc6-46a2-a745-e1b67937f214\",\"更新年度\":2024,\"前年同一\":true},[{\"筆ポリゴンID\":\"7056f353-22b4-4fc2-abd1-072917a2d55f\",\"更新年度\":2023,\"前年同一\":true},[{\"筆ポリゴンID\":\"1864b28d-526e-4d3e-a155-984b222d3b0c\",\"更新年度\":2022,\"前年同一\":true},[{\"筆ポリゴンID\":\"a37b06b4-3ced-4afa-9c50-1a8aef8d7aac\",\"更新年度\":2021,\"前年同一\":true},{\"筆ポリゴンID\":\"a37b06b4-3ced-4afa-9c50-1a8aef8d7aac\",\"発生年度\":2020}]]]]","last_polygon_uuid":"562a6e82-bdc6-46a2-a745-e1b67937f214","prev_last_polygon_uuid":"7056f353-22b4-4fc2-abd1-072917a2d55f","local_government_cd":"014044","point_lng":140.351873423,"point_lat":43.198785325}},{"arcs":[[6,7]],"type":"Polygon","properties":{"polygon_uuid":"d1492e51-ce11-4f59-8820-f2988c0eca66","land_type":200,"issue_year":2025,"edit_year":2020,"history":"[{\"筆ポリゴンID\":\"d30365f7-b8de-4615-b004-ae5d3ae30b04\",\"更新年度\":2024,\"前年同一\":true},[{\"筆ポリゴンID\":\"9afe2e4c-8106-4bcf-9a83-46941c58d8c0\",\"更新年度\":2023,\"前年同一\":true},[{\"筆ポリゴンID\":\"850114ff-38b8-4ecd-b79f-1943c653d54c\",\"更新年度\":2022,\"前年同一\":true},[{\"筆ポリゴンID\":\"3fa30258-0905-426c-a48c-7f609964a5f4\",\"更新年度\":2021,\"前年同一\":true},{\"筆ポリゴンID\":\"3fa30258-0905-426c-a48c-7f609964a5f4\",\"発生年度\":2020}]]]]","last_polygon_uuid":"d30365f7-b8de-4615-b004-ae5d3ae30b04","prev_last_polygon_uuid":"9afe2e4c-8106-4bcf-9a83-46941c58d8c0","local_government_cd":"014044","point_lng":140.437003566,"point_lat":43.14671608}},{"arcs":[[-2,8,9]],"type":"Polygon","properties":{"polygon_uuid":"4af319a6-df2b-4c4d-bb10-f6d43c030e6c","land_type":200,"issue_year":2025,"edit_year":2020,"history":"[{\"筆ポリゴンID\":\"edca921f-f394-4ea7-94ba-40c3cf95e80c\",\"更新年度\":2024,\"前年同一\":true},[{\"筆ポリゴンID\":\"c98c3605-32b2-43d4-88f0-547783444237\",\"更新年度\":2023,\"前年同一\":true},[{\"筆ポリゴンID\":\"2cff1dd6-5db4-49c0-a7e2-a63c6ca632be\",\"更新年度\":2022,\"前年同一\":true},[{\"筆ポリゴンID\":\"d3a524a2-42bf-4cbd-9b1d-5b6b640074b2\",\"更新年度\":2021,\"前年同一\":true},{\"筆ポリゴンID\":\"d3a524a2-42bf-4cbd-9b1d-5b6b640074b2\",\"発生年度\":2020}]]]]","last_polygon_uuid":"edca921f-f394-4ea7-94ba-40c3cf95e80c","prev_last_polygon_uuid":"c98c3605-32b2-43d4-88f0-547783444237","local_government_cd":"014044","point_lng":140.437389514,"point_lat":43.146427568}},{"arcs":[[10]],"type":"Polygon","properties":{"polygon_uuid":"8fcf2215-d941-464e-9891-67d51a6cd0da","land_type":100,"issue_year":2025,"edit_year":2020,"history":"[{\"筆ポリゴンID\":\"6905fa3f-13bf-4751-8dbc-1f163ec894b6\",\"更新年度\":2024,\"前年同一\":true},[{\"筆ポリゴンID\":\"134237fd-6b0d-4901-921d-b8c1221c9376\",\"更新年度\":2023,\"前年同一\":true},[{\"筆ポリゴンID\":\"e4f637e9-3aa4-4e0f-bb46-559de8ad6a40\",\"更新年度\":2022,\"前年同一\":true},[{\"筆ポリゴンID\":\"33e573e6-a5d2-47f4-8ef2-7f69ac7fd6fc\",\"更新年度\":2021,\"前年同一\":true},{\"筆ポリゴンID\":\"33e573e6-a5d2-47f4-8ef2-7f69ac7fd6fc\",\"発生年度\":2020}]]]]","last_polygon_uuid":"6905fa3f-13bf-4751-8dbc-1f163ec894b6","prev_last_polygon_uuid":"134237fd-6b0d-4901-921d-b8c1221c9376","local_government_cd":"014044","point_lng":140.455502424,"point_lat":43.158286354}},{"arcs":[[11]],"type":"Polygon","properties":{"polygon_uuid":"f78f2075-526f-4cbf-8c04-a5f9f150cae8","land_type":200,"issue_year":2025,"edit_year":2020,"history":"[{\"筆ポリゴンID\":\"4fddb6fd-6a58-4dbd-b05e-56b7b8ff4ee4\",\"更新年度\":2024,\"前年同一\":true},[{\"筆ポリゴンID\":\"7a2adf57-cd62-4c4a-8e3c-30d5fffb6991\",\"更新年度\":2023,\"前年同一\":true},[{\"筆ポリゴンID\":\"0f4b833d-3bfb-43fc-80ec-b1f83a24b364\",\"更新年度\":2022,\"前年同一\":true},[{\"筆ポリゴンID\":\"40811359-6bed-4643-b408-4ead123924a2\",\"更新年度\":2021,\"前年同一\":true},{\"筆ポリゴンID\":\"40811359-6bed-4643-b408-4ead123924a2\",\"発生年度\":2020}]]]]","last_polygon_uuid":"4fddb6fd-6a58-4dbd-b05e-56b7b8ff4ee4","prev_last_polygon_uuid":"7a2adf57-cd62-4c4a-8e3c-30d5fffb6991","local_government_cd":"014044","point_lng":140.455085984,"point_lat":43.158327616}},{"arcs":[[12]],"type":"Polygon","properties":{"polygon_uuid":"2b1b57cc-4ee9-4756-a7d4-092c32be28f1","land_type":200,"issue_year":2025,"edit_year":2020,"history":"[{\"筆ポリゴンID\":\"cc9ab056-bd59-47a1-a308-8a723f27d257\",\"更新年度\":2024,\"前年同一\":true},[{\"筆ポリゴンID\":\"a923e32d-f950-43c2-ad40-ecd452f07544\",\"更新年度\":2023,\"前年同一\":true},[{\"筆ポリゴンID\":\"c8efe0cb-2180-4245-b236-256805261825\",\"更新年度\":2022,\"前年同一\":true},[{\"筆ポリゴンID\":\"95efb71c-3b73-4283-97a8-fac47b91d9f9\",\"更新年度\":2021,\"前年同一\":true},{\"筆ポリゴンID\":\"95efb71c-3b73-4283-97a8-fac47b91d9f9\",\"発生年度\":2020}]]]]","last_polygon_uuid":"cc9ab056-bd59-47a1-a308-8a723f27d257","prev_last_polygon_uuid":"a923e32d-f950-43c2-ad40-ecd452f07544","local_government_cd":"014044","point_lng":140.347427313,"point_lat":43.197565613}},{"arcs":[[13]],"type":"Polygon","properties":{"polygon_uuid":"66b7e3e8-0d51-4904-9de9-bd16318aa513","land_type":200,"issue_year":2025,"edit_year":2020,"history":"[{\"筆ポリゴンID\":\"96193a11-32b1-407b-bd93-c1315a1da9d0\",\"更新年度\":2024,\"前年同一\":true},[{\"筆ポリゴンID\":\"67c1b6cf-52a2-488d-a5b5-f83d118c7ddc\",\"更新年度\":2023,\"前年同一\":true},[{\"筆ポリゴンID\":\"3212f4ee-b0c0-44dd-825b-e5f56fff23fa\",\"更新年度\":2022,\"前年同一\":true},[{\"筆ポリゴンID\":\"a8d8e457-0ef4-48fa-b3ba-bfaabc0d5eb1\",\"更新年度\":2021,\"前年同一\":true},{\"筆ポリゴンID\":\"a8d8e457-0ef4-48fa-b3ba-bfaabc0d5eb1\",\"発生年度\":2020}]]]]","last_polygon_uuid":"96193a11-32b1-407b-bd93-c1315a1da9d0","prev_last_polygon_uuid":"67c1b6cf-52a2-488d-a5b5-f83d118c7ddc","local_government_cd":"014044","point_lng":140.347202271,"point_lat":43.197466422}},{"arcs":[[14,-7]],"type":"Polygon","properties":{"polygon_uuid":"a4192c5b-a31b-4efd-af96-aaa0a092cf1a","land_type":200,"issue_year":2025,"edit_year":2020,"history":"[{\"筆ポリゴンID\":\"452696e7-858a-41fb-a868-82cae2ce6604\",\"更新年度\":2024,\"前年同一\":true},[{\"筆ポリゴンID\":\"0fbc747b-508c-4998-8bc2-293a772d6ed4\",\"更新年度\":2023,\"前年同一\":true},[{\"筆ポリゴンID\":\"b4432270-5a4c-4677-bb03-05d1c0c653ff\",\"更新年度\":2022,\"前年同一\":true},[{\"筆ポリゴンID\":\"0c84ab2b-4c3b-4548-ba94-e2726f54bb99\",\"更新年度\":2021,\"前年同一\":true},{\"筆ポリゴンID\":\"0c84ab2b-4c3b-4548-ba94-e2726f54bb99\",\"発生年度\":2020}]]]]","last_polygon_uuid":"452696e7-858a-41fb-a868-82cae2ce6604","prev_last_polygon_uuid":"0fbc747b-508c-4998-8bc2-293a772d6ed4","local_government_cd":"014044","point_lng":140.437037785,"point_lat":43.14648689}},{"arcs":[[15]],"type":"Polygon","properties":{"polygon_uuid":"a4c7b2e3-c962-463f-b751-0a35f24d6bda","land_type":200,"issue_year":2025,"edit_year":2020,"history":"[{\"筆ポリゴンID\":\"f5b5aabd-5baa-4381-966f-ac051a2ac8fe\",\"更新年度\":2024,\"前年同一\":true},[{\"筆ポリゴンID\":\"6847b2a8-48f0-4ea4-91b6-d6858885c67e\",\"更新年度\":2023,\"前年同一\":true},[{\"筆ポリゴンID\":\"4865e38a-3e0b-45ed-a135-f679d74df839\",\"更新年度\":2022,\"前年同一\":true},[{\"筆ポリゴンID\":\"0b8c950b-0595-4df8-bcfb-03ced742f9f9\",\"更新年度\":2021,\"前年同一\":true},{\"筆ポリゴンID\":\"0b8c950b-0595-4df8-bcfb-03ced742f9f9\",\"発生年度\":2020}]]]]","last_polygon_uuid":"f5b5aabd-5baa-4381-966f-ac051a2ac8fe","prev_last_polygon_uuid":"6847b2a8-48f0-4ea4-91b6-d6858885c67e","local_government_cd":"014044","point_lng":140.455463001,"point_lat":43.159350149}},{"arcs":[[16]],"type":"Polygon","properties":{"polygon_uuid":"24bb213b-1327-4409-a4d3-fe562cbf7671","land_type":200,"issue_year":2025,"edit_year":2020,"history":"[{\"筆ポリゴンID\":\"e19cd99e-abc6-4c38-b749-a96ea17e4747\",\"更新年度\":2024,\"前年同一\":true},[{\"筆ポリゴンID\":\"3503d011-837a-4742-b9f9-836b6c1db686\",\"更新年度\":2023,\"前年同一\":true},[{\"筆ポリゴンID\":\"4e5e0bc9-9273-4932-924f-e4b8ef971952\",\"更新年度\":2022,\"前年同一\":true},[{\"筆ポリゴンID\":\"a8706af5-407b-4099-8792-d171050ac3e8\",\"更新年度\":2021,\"前年同一\":true},{\"筆ポリゴンID\":\"a8706af5-407b-4099-8792-d171050ac3e8\",\"発生年度\":2020}]]]]","last_polygon_uuid":"e19cd99e-abc6-4c38-b749-a96ea17e4747","prev_last_polygon_uuid":"3503d011-837a-4742-b9f9-836b6c1db686","local_government_cd":"014044","point_lng":140.455939666,"point_lat":43.159350987}},{"arcs":[[17]],"type":"Polygon","properties":{"polygon_uuid":"cc8db8d1-9040-46bf-a982-e4803f48ba1b","land_type":200,"issue_year":2025,"edit_year":2020,"history":"[{\"筆ポリゴンID\":\"3a67d034-b276-4056-b794-ba12457cf24d\",\"更新年度\":2024,\"前年同一\":true},[{\"筆ポリゴンID\":\"54a62abc-ff3b-4441-9c2d-771d183de674\",\"更新年度\":2023,\"前年同一\":true},[{\"筆ポリゴンID\":\"c2d5573e-bec2-41d7-8cbb-6cb8699c493d\",\"更新年度\":2022,\"前年同一\":true},[{\"筆ポリゴンID\":\"5d5d55fc-367e-454b-b810-40f2330d3720\",\"更新年度\":2021,\"前年同一\":true},{\"筆ポリゴンID\":\"5d5d55fc-367e-454b-b810-40f2330d3720\",\"発生年度\":2020}]]]]","last_polygon_uuid":"3a67d034-b276-4056-b794-ba12457cf24d","prev_last_polygon_uuid":"54a62abc-ff3b-4441-9c2d-771d183de674","local_government_cd":"014044","point_lng":140.45522564,"point_lat":43.158186796}},{"arcs":[[-1,18,-9]],"type":"Polygon","properties":{"polygon_uuid":"bb9b526a-eff6-4de3-80fe-2d4949c83306","land_type":200,"issue_year":2025,"edit_year":2020,"history":"[{\"筆ポリゴンID\":\"a355c325-0cff-431b-b00b-47493348d67e\",\"更新年度\":2024,\"前年同一\":true},[{\"筆ポリゴンID\":\"1d2d8b0f-5b52-47b0-9b6e-2eea7c49a5a1\",\"更新年度\":2023,\"前年同一\":true},[{\"筆ポリゴンID\":\"d2a07762-2909-4636-8a75-ce43bbc11fef\",\"更新年度\":2022,\"前年同一\":true},[{\"筆ポリゴンID\":\"e6d3bcb4-17dc-44ae-862a-563fcda57790\",\"更新年度\":2021,\"前年同一\":true},{\"筆ポリゴンID\":\"e6d3bcb4-17dc-44ae-862a-563fcda57790\",\"発生年度\":2020}]]]]","last_polygon_uuid":"a355c325-0cff-431b-b00b-47493348d67e","prev_last_polygon_uuid":"1d2d8b0f-5b52-47b0-9b6e-2eea7c49a5a1","local_government_cd":"014044","point_lng":140.437688001,"point_lat":43.146428458}},{"arcs":[[19]],"type":"Polygon","properties":{"polygon_uuid":"e1d27e9c-46f3-4556-9800-9e65221f3e72","land_type":100,"issue_year":2025,"edit_year":2020,"history":"[{\"筆ポリゴンID\":\"d1d61349-d56a-42cb-920c-c0174f959ae1\",\"更新年度\":2024,\"前年同一\":true},[{\"筆ポリゴンID\":\"6090de91-083a-4a6f-a264-4bbda2f305b4\",\"更新年度\":2023,\"前年同一\":true},[{\"筆ポリゴンID\":\"8d39b9fb-fd1f-4108-aaea-c83c833817b9\",\"更新年度\":2022,\"前年同一\":true},[{\"筆ポリゴンID\":\"0017ddf1-6576-4a3d-9bbe-ab381434a58b\",\"更新年度\":2021,\"前年同一\":true},{\"筆ポリゴンID\":\"0017ddf1-6576-4a3d-9bbe-ab381434a58b\",\"発生年度\":2020}]]]]","last_polygon_uuid":"d1d61349-d56a-42cb-920c-c0174f959ae1","prev_last_polygon_uuid":"6090de91-083a-4a6f-a264-4bbda2f305b4","local_government_cd":"014044","point_lng":140.455774297,"point_lat":43.15845604}},{"arcs":[[20]],"type":"Polygon","properties":{"polygon_uuid":"0cdb6880-96a5-45c7-9092-4ac461a1f3cd","land_type":200,"issue_year":2025,"edit_year":2020,"history":"[{\"筆ポリゴンID\":\"21bba4d4-7c63-4f5b-b8f4-005785ba326d\",\"更新年度\":2024,\"前年同一\":true},[{\"筆ポリゴンID\":\"25733f75-0b1a-4a0e-aadd-53670c79b360\",\"更新年度\":2023,\"前年同一\":true},[{\"筆ポリゴンID\":\"9ccdca78-780a-47c4-b4b2-e2aa0d095a2c\",\"更新年度\":2022,\"前年同一\":true},[{\"筆ポリゴンID\":\"9506dc67-224b-42cf-8518-b40af60c4b82\",\"更新年度\":2021,\"前年同一\":true},{\"筆ポリゴンID\":\"9506dc67-224b-42cf-8518-b40af60c4b82\",\"発生年度\":2020}]]]]","last_polygon_uuid":"21bba4d4-7c63-4f5b-b8f4-005785ba326d","prev_last_polygon_uuid":"25733f75-0b1a-4a0e-aadd-53670c79b360","local_government_cd":"014044","point_lng":140.349245708,"point_lat":43.198031781}},{"arcs":[[21]],"type":"Polygon","properties":{"polygon_uuid":"06bb9d5e-2e02-4225-baef-2e9272df2727","land_type":200,"issue_year":2025,"edit_year":2020,"history":"[{\"筆ポリゴンID\":\"4e89e2b4-16f9-4d2a-8171-dfd24d7a1e1f\",\"更新年度\":2024,\"前年同一\":true},[{\"筆ポリゴンID\":\"28c67653-eb47-478d-9632-04debe9aadb8\",\"更新年度\":2023,\"前年同一\":true},[{\"筆ポリゴンID\":\"1389fcee-30fb-4dc1-ab7c-ca84e9cccd4e\",\"更新年度\":2022,\"前年同一\":true},[{\"筆ポリゴンID\":\"a847c338-e55f-4340-a5c9-8b51167298b8\",\"更新年度\":2021,\"前年同一\":true},{\"筆ポリゴンID\":\"a847c338-e55f-4340-a5c9-8b51167298b8\",\"発生年度\":2020}]]]]","last_polygon_uuid":"4e89e2b4-16f9-4d2a-8171-dfd24d7a1e1f","prev_last_polygon_uuid":"28c67653-eb47-478d-9632-04debe9aadb8","local_government_cd":"014044","point_lng":140.348694516,"point_lat":43.196882543}},{"arcs":[[22]],"type":"Polygon","properties":{"polygon_uuid":"2d3d454f-9f42-4ee5-94a1-b2cdc3e9b018","land_type":200,"issue_year":2025,"edit_year":2020,"history":"[{\"筆ポリゴンID\":\"c4274029-654f-4d50-8112-a2ebb61a2c3c\",\"更新年度\":2024,\"前年同一\":true},[{\"筆ポリゴンID\":\"30857850-3668-42de-8f9e-5c7617165705\",\"更新年度\":2023,\"前年同一\":true},[{\"筆ポリゴンID\":\"d6366f5e-53e7-4fc0-a7c5-edafc455801d\",\"更新年度\":2022,\"前年同一\":true},[{\"筆ポリゴンID\":\"cedd1217-ad97-418d-86bd-4828dc3a6dd3\",\"更新年度\":2021,\"前年同一\":true},{\"筆ポリゴンID\":\"cedd1217-ad97-418d-86bd-4828dc3a6dd3\",\"発生年度\":2020}]]]]","last_polygon_uuid":"c4274029-654f-4d50-8112-a2ebb61a2c3c","prev_last_polygon_uuid":"30857850-3668-42de-8f9e-5c7617165705","local_government_cd":"014044","point_lng":140.456056669,"point_lat":43.157890939}}]}}}